School_Name_ZhT;School_Name;City;State;lat;lng;Univ_Py;Country;Country_ZhT;Notes
;A.T. Still University;Kirksville;Missouri;40.1986;-92.5752;;United States;美國;
;Abilene Christian University;Abilene;Texas;32.4543;-99.7384;;United States;美國;
;Abraham Baldwin Agricultural College;Tifton;Georgia;31.4624;-83.5203;;United States;美國;
;Academy of Art University;San Francisco;California;37.7558;-122.4449;;United States;美國;
;Adams State University;Alamosa;Colorado;37.4752;-105.877;;United States;美國;
;Adelphi University;Garden City;New York;40.7266;-73.6447;;United States;美國;
;Adler Graduate School;Minnetonka;Minnesota;44.9322;-93.4598;;United States;美國;
;Adler University;Chicago;Illinois;41.8375;-87.6866;;United States;美國;
;Adrian College;Adrian;Michigan;41.8994;-84.0447;;United States;美國;
;AdventHealth University;Orlando;Florida;28.4773;-81.337;;United States;美國;
;Agnes Scott College;Decatur;Illinois;39.8557;-88.9342;;United States;美國;
;Air Force Institute of Technology;Wright-Patterson AFB;Ohio;39.8112;-84.0573;;United States;美國;
;Alabama A&M University;Huntsville;Alabama;34.6981;-86.6412;;United States;美國;
;Alabama State University;Montgomery;Alabama;32.3482;-86.2668;;United States;美國;
;Alaska Bible College;Palmer;Massachusetts;42.15843;-72.32869;;United States;美國;
;Alaska Pacific University;Anchorage;Alaska;61.1508;-149.1091;;United States;美國;
;Albany College of Pharmacy and Health Sciences;Albany;New York;42.6664;-73.7987;;United States;美國;
;Albany Law School;Albany;New York;42.6664;-73.7987;;United States;美國;
;Albany Medical College;Albany;New York;42.6664;-73.7987;;United States;美國;
;Albany State University;Albany;New York;42.6664;-73.7987;;United States;美國;
阿本尼大學醫學院;Albany University;Albany;New York;42.6664;-73.7987;;United States;美國;
;Albertus Magnus College;New Haven;Connecticut;41.3113;-72.9246;;United States;美國;
阿爾比恩學院;Albion College;Albion;Michigan;42.2478;-84.7572;;United States;美國;
;Albright College;Reading;Pennsylvania;40.34;-75.9267;;United States;美國;
;Alcorn State University;Lorman;Mississippi;31.82044;-91.05011;;United States;美國;
;Alderson Broaddus University;Philippi;West Virginia;39.1488;-80.0417;;United States;美國;
;Alfred State College;Alfred;New York;42.25424;-77.79055;;United States;美國;
阿爾弗萊德大學;Alfred University;Alfred;New York;42.25424;-77.79055;;United States;美國;
;Alice Lloyd College;Pippa Passes;Kentucky;37.3342;-82.8733;;United States;美國;
;Allegheny College;Meadville;Pennsylvania;41.6476;-80.1468;;United States;美國;
;Allen College;Waterloo;Iowa;42.4918;-92.3522;;United States;美國;
;Allen University;Columbia;South Carolina;34.0378;-80.9036;;United States;美國;
;Alliant International University;San Diego;California;32.8313;-117.1222;;United States;美國;
;Alma College;Alma;Michigan;43.3799;-84.6556;;United States;美國;
;Alvernia University;Reading;Pennsylvania;40.34;-75.9267;;United States;美國;
;Alverno College;Milwaukee;Wisconsin;43.0642;-87.9675;;United States;美國;
;Amberton University;Garland;Texas;32.91;-96.6304;;United States;美國;
;American Baptist College;Nashville;Tennessee;36.1715;-86.7842;;United States;美國;
;American Film Institute Conservatory;Los Angeles;California;34.1141;-118.4068;;United States;美國;
;American International College;Springfield;Missouri;37.1943;-93.2916;;United States;美國;
;American Jewish University;Los Angeles;California;34.1141;-118.4068;;United States;美國;
美國參謀大學;American Staff University;Glendale;Arizona;33.5791;-112.2311;;United States;美國;
美利堅大學;American University;Washington;District of Columbia;38.9047;-77.0163;;United States;美國;
合眾大學;American University;"	Washington D.C.";District of Columbia;38.9047;-77.0163;;United States;美國;National Bureau of Standards (1901 - 1988) -   National Institute of Standards and Technology (1988 - present) It's an agency of the United States Department of Commerce
美國藝術大學;American University of the Arts;Philadelphia;Pennsylvania;40.0077;-75.1339;;United States;美國;
;Amherst College;Amherst;Massachusetts;42.36723;-72.51852;;United States;美國;
;Anderson University;Anderson;South Carolina;34.5211;-82.6478;;United States;美國;
麻省安度華學校;Andover School;Andover;Massachusetts;42.65843;-71.137;;United States;美國;
;Andover School of Massachusetts;Andover;Massachusetts;42.65843;-71.137;;United States;美國;
;Andrews University;Berrien Springs;Michigan;41.9474;-86.3403;;United States;美國;
;Angelo State University;San Angelo;Texas;31.4424;-100.4504;;United States;美國;
;Anna Maria College;Paxton;Massachusetts;42.3112;-71.92813;;United States;美國;
安提亞克大學;Antioch University;Culver City;California;34.0058;-118.3968;;United States;美國;
安迪亞克大學;Antioch University;Yellow Springs;Ohio;39.7987;-83.8904;;United States;美國;
;Antioch University Los Angeles;Culver City;California;34.0058;-118.3968;;United States;美國;
;Antioch University New England;Keene;New Hampshire;42.9494;-72.2998;;United States;美國;
;Antioch University Santa Barbara;Santa Barbara;California;34.4285;-119.7202;;United States;美國;
;Antioch University Seattle;Seattle;Washington;47.6211;-122.3244;;United States;美國;
;Appalachian Bible College;Mount Hope;West Virginia;37.8976;-81.1737;;United States;美國;
;Appalachian College of Pharmacy;Oakwood;Georgia;34.2236;-83.8851;;United States;美國;
;Appalachian State University;Boone;North Carolina;36.2111;-81.6669;;United States;美國;
;Aquinas College;Grand Rapids;Michigan;42.9619;-85.6562;;United States;美國;
;Arcadia University;Glenside;Pennsylvania;40.1032;-75.1517;;United States;美國;
;Arizona Christian University;Phoenix;Arizona;33.5722;-112.0892;;United States;美國;
;Arizona State University;Tempe;Arizona;33.3881;-111.9319;;United States;美國;
;Arkansas Baptist College;Little Rock;Arkansas;34.7256;-92.3577;;United States;美國;
;Arkansas State University;Jonesboro;Arkansas;35.8212;-90.6791;;United States;美國;
;Arkansas Tech University;Russellville;Arkansas;35.2762;-93.1383;;United States;美國;
;Arlington Baptist University;Arlington;Virginia;38.8786;-77.1011;;United States;美國;
;Arlington School of Fine Arts;Arlington;Virginia;38.8786;-77.1011;;United States;美國;
;Art Academy of Cincinnati;Cincinnati;Ohio;39.1413;-84.506;;United States;美國;
;ArtCenter College of Design;Pasadena;California;34.1597;-118.139;;United States;美國;
艾斯伯裏學院;Asbury University;Wilmore;Kentucky;37.8786;-84.6545;;United States;美國;
;Ashland University;Ashland;Virginia;37.7597;-77.4716;;United States;美國;
;Assumption College;Worcester;Massachusetts;42.2705;-71.8079;;United States;美國;
;Athens State University;Athens;Tennessee;35.4573;-84.6045;;United States;美國;
;Atlanta Metropolitan State College;Atlanta;Georgia;33.7628;-84.422;;United States;美國;
;Atlanta Metropolitan State College - Atlanta, GA;Atlanta;Georgia;33.7628;-84.422;;United States;美國;
大西洋聯盟學院;Atlantic Union College;South Lancaster;Massachusetts;42.4373;-71.692;;United States;美國;
;Auburn University;Auburn;Alabama;32.6087;-85.4903;;United States;美國;
;Auburn University at Montgomery;Montgomery;Alabama;32.3482;-86.2668;;United States;美國;
;Augsburg University;Minneapolis;Minnesota;44.9635;-93.2678;;United States;美國;
;Augusta University;Augusta;Georgia;33.3645;-82.0708;;United States;美國;
;Augustana College;Rock Island;Illinois;41.4699;-90.5827;;United States;美國;
;Augustana University;Sioux Falls;South Dakota;43.5396;-96.7311;;United States;美國;
;Aurora University;Aurora;Illinois;41.7638;-88.2902;;United States;美國;
;Austin College;Sherman;Texas;33.6273;-96.6221;;United States;美國;
;Austin Peay State University;Clarksville;Tennessee;36.5692;-87.3413;;United States;美國;
;Ave Maria University;Ave Maria;Florida;26.3218;-81.4397;;United States;美國;
;Averett University;Danville;Virginia;36.5831;-79.4088;;United States;美國;
;Avila University;Kansas City;Missouri;39.1238;-94.5541;;United States;美國;
;Azusa Pacific University;Azusa;California;34.1386;-117.9124;;United States;美國;
;Babson College;Babson Park;Florida;27.8342;-81.5281;;United States;美國;
;Bacone College;Muskogee;Oklahoma;35.7432;-95.3567;;United States;美國;
;Baker College;Flint;Michigan;43.0236;-83.6921;;United States;美國;
;Baker University;Baldwin City;Kansas;38.7782;-95.188;;United States;美國;
鮑而溫學院;Baldwin University;Ballwin;Missouri;38.595;-90.55;;United States;美國;
鮑德溫華萊士學院;Baldwin Wallace University;Berea;Ohio;41.3696;-81.8641;;United States;美國;
;Baldwin Wallace University;Berea;Ohio;41.3696;-81.8641;;United States;美國;
;Ball State University;Muncie;Indiana;40.1989;-85.395;;United States;美國;
;Bank Street College of Education;New York City;New York;40.6943;-73.9249;;United States;美國;
;Baptist Bible College;Springfield;Missouri;37.1943;-93.2916;;United States;美國;
;Baptist Health Sciences University;Memphis;Tennessee;35.1087;-89.9663;;United States;美國;
;Baptist Health Sciences University;Memphis;Tennessee;35.1087;-89.9663;;United States;美國;
;Baptist University of the Americas;San Antonio;Texas;29.4632;-98.5238;;United States;美國;
;Baptist University of the Americas;San Antonio;Texas;29.4632;-98.5238;;United States;美國;
;Barclay College;Haviland;Kansas;37.6173;-99.1059;;United States;美國;
;Bard College;Red Hook;New York;41.99509;-73.87541;;United States;美國;
;Bard College at Simon's Rock;Great Barrington;Massachusetts;42.19592;-73.36206;;United States;美國;
;Barnard College;New York City;New York;40.6943;-73.9249;;United States;美國;
巴納德學院;Barnard College of Columbia University;New York City;New York;40.6943;-73.9249;;United States;美國;
;Barry University;Miami;Florida;25.784;-80.2101;;United States;美國;
;Barton College;Wilson;North Carolina;35.7311;-77.9284;;United States;美國;
;Baruch College;New York City;New York;40.6943;-73.9249;;United States;美國;
;Baruch College CUNY;New York;New York;43.00035;-75.4999;;United States;美國;
;Bastyr University;Kenmore;New York;42.9646;-78.8713;;United States;美國;
;Bates College;Lewiston;Maine;44.0915;-70.1681;;United States;美國;
;Bay Path University;Longmeadow;Massachusetts;42.0501;-72.58287;;United States;美國;
;Bay State College;Boston;Massachusetts;42.3188;-71.0852;;United States;美國;
;Baylor College of Medicine;Houston;Texas;29.786;-95.3885;;United States;美國;
貝勒大學;Baylor University;Waco;Texas;31.5599;-97.1882;;United States;美國;
;Beacon College;Leesburg;Florida;28.7672;-81.8962;;United States;美國;
;Becker College;Worcester;Massachusetts;42.2705;-71.8079;;United States;美國;
;Belhaven University;Jackson;Mississippi;32.3157;-90.2125;;United States;美國;
;Belhaven University - Jackson, MS;Jackson;Mississippi;32.3157;-90.2125;;United States;美國;
;Bellarmine University;Louisville;Kentucky;38.1663;-85.6485;;United States;美國;
;Bellevue College;Bellevue;Nebraska;41.1485;-95.939;;United States;美國;
;Bellin College;Green Bay;Wisconsin;44.5148;-87.9895;;United States;美國;
;Belmont Abbey College;Belmont;California;37.5154;-122.2953;;United States;美國;
;Belmont University;Nashville;Tennessee;36.1715;-86.7842;;United States;美國;
比洛特學院;Beloit College;Beloit;Wisconsin;42.523;-89.0184;;United States;美國;第20行和第23行 - 是同一个学校 - 不同的中文翻译。
貝洛伊特學院;Beloit College;Beloit;Wisconsin;42.523;-89.0184;;United States;美國;第20行和第23行 - 是同一个学校 - 不同的中文翻译。
;Bemidji State University;Bemidji;Minnesota;47.4828;-94.8797;;United States;美國;
;Benedict College;Columbia;South Carolina;34.0378;-80.9036;;United States;美國;
;Benedictine College;Atchison;Kansas;39.5625;-95.1367;;United States;美國;
;Benedictine University;Lisle;Illinois;41.7918;-88.0888;;United States;美國;
;Benjamin Franklin Institute of Technology;Boston;Massachusetts;42.3188;-71.0852;;United States;美國;
;Bennett College;Greensboro;North Carolina;36.0956;-79.8271;;United States;美國;
;Bennington College;Bennington;Vermont;42.87813;-73.19677;;United States;美國;
;Bentley University;Waltham;Massachusetts;42.3889;-71.2423;;United States;美國;
;Berea College;Berea;Ohio;41.3696;-81.8641;;United States;美國;
;Berkeley College;New York City;New York;40.6943;-73.9249;;United States;美國;
;Berklee College of Music;Boston;Massachusetts;42.3188;-71.0852;;United States;美國;
;Berry College;Mount Berry;Georgia;34.27509;-85.18328;;United States;美國;
;Bethany College;Scotts Valley;California;37.0555;-122.0118;;United States;美國;Bethany College
;Bethany College;Bethany;West Virginia;40.2053;-80.5629;;United States;美國;
;Bethany College Kansas - Lindsborg, KS;Lindsborg;Kansas;38.5774;-97.6738;;United States;美國;
;Bethany Lutheran College;Mankato;Minnesota;44.1715;-93.9772;;United States;美國;
;Bethel College;North Newton;Kansas;38.0766;-97.3475;;United States;美國;
;Bethel University;Mishawaka;Indiana;41.6742;-86.1666;;United States;美國;
;Bethel University;Saint Paul;Minnesota;44.94441;-93.09327;;United States;美國;
;Bethel University;McKenzie;Tennessee;36.1372;-88.5077;;United States;美國;
;Bethesda University;Anaheim;California;33.839;-117.8574;;United States;美國;
;Bethune-Cookman University;Daytona Beach;Florida;29.1995;-81.0982;;United States;美國;
;Beulah Heights University;Atlanta;Georgia;33.7628;-84.422;;United States;美國;
拜羅專校;Bible Institute of Los Angeles;La Mirada;California;33.9025;-118.0093;;United States;美國;
;Binghamton University;Binghamton;New York;42.1014;-75.9093;;United States;美國;Binghamton
;Biola University;La Mirada;California;33.9025;-118.0093;;United States;美國;
伯明翰南方學院;Birmingham-Southern College;Birmingham;Alabama;33.5279;-86.7971;;United States;美國;Oklahoma Agricultural and Mechanical College (1980-1957) -  then: Oklahoma State University (1957-present)
;Bismarck State College;Bismarck;North Dakota;46.8143;-100.7694;;United States;美國;
;Black Hills State University;Spearfish;South Dakota;44.4909;-103.8155;;United States;美國;
;Blackburn College;Carlinville;Illinois;39.2775;-89.8762;;United States;美國;
;Blessing-Rieman College of Nursing and Health Sciences;Quincy;Illinois;39.9336;-91.3799;;United States;美國;
;Bloomfield College;Bloomfield;New Jersey;40.80677;-74.18542;;United States;美國;
;Bloomsburg University of Pennsylvania;Bloomsburg;Pennsylvania;41.0027;-76.4561;;United States;美國;
;Blue Mountain College;Blue Mountain;Mississippi;34.6739;-89.0262;;United States;美國;
;Bluefield State College;Bluefield;West Virginia;37.2608;-81.2143;;United States;美國;
;Bluefield University;Bluefield;West Virginia;37.2608;-81.2143;;United States;美國;
;Bluffton University;Bluffton;Ohio;40.8912;-83.8887;;United States;美國;
賓夕法尼亞布倫茂大學;Blummer University of Pennsylvania;Doylestown;Pennsylvania;40.31011;-75.12989;;United States;美國;
;Bob Jones University;Greenville;North Carolina;35.5943;-77.376;;United States;美國;
;Boise Bible College;Boise;Idaho;43.6005;-116.2308;;United States;美國;
;Boise State University;Boise;Idaho;43.6005;-116.2308;;United States;美國;
;Boricua College;New York City;New York;40.6943;-73.9249;;United States;美國;
;Boston Architectural College;Boston;Massachusetts;42.3188;-71.0852;;United States;美國;
波士頓兒科醫院;Boston Children's Hospital;Boston;Massachusetts;42.3188;-71.0852;;United States;美國;
波士頓市醫院;Boston City Hospital;Boston;Massachusetts;42.3188;-71.0852;;United States;美國;
波士頓學院;Boston College;Chestnut Hill;Massachusetts;42.33626257686661;-71.16864470369713;;United States;美國;
波士頓漁業研究所;Boston Fisheries Research Institute;Boston;Massachusetts;42.3188;-71.0852;;United States;美國;
;Boston Graduate School of Psychoanalysis;Brookline;Massachusetts;42.33176;-71.12116;;United States;美國;
波士頓博物館美術學院;Boston Museum of Fine Arts;Boston;Massachusetts;42.3188;-71.0852;;United States;美國;
波士頓昆西學校;Boston Quincy College;Boston;Massachusetts;42.3188;-71.0852;;United States;美國;
波士頓大學;Boston University;Boston;Massachusetts;42.3188;-71.0852;;United States;美國;
波士頓大學附屬醫院;Boston University Hospital;Boston;Massachusetts;42.3188;-71.0852;;United States;美國;
鮑登學院;Bowdoin College;Brunswick;Maine;43.91452;-69.96533;;United States;美國;
;Bowie State University;Bowie;Maryland;38.9549;-76.7406;;United States;美國;
;Bowling Green State University;Bowling Green;Kentucky;36.9716;-86.4378;;United States;美國;
;Bradley University;Peoria;Illinois;40.752;-89.6154;;United States;美國;
;Brandeis University;Waltham;Massachusetts;42.3889;-71.2423;;United States;美國;
;Brazosport College;Lake Jackson;Texas;29.0516;-95.4521;;United States;美國;
;Brenau University;Gainesville;Florida;29.6804;-82.3459;;United States;美國;
;Brescia University;Owensboro;Kentucky;37.7575;-87.1172;;United States;美國;
;Brevard College;Brevard;North Carolina;35.2438;-82.7265;;United States;美國;
;Brewton-Parker College;Mount Vernon;Ohio;40.3854;-82.4737;;United States;美國;
;Briar Cliff University;Sioux City;Iowa;42.4959;-96.3901;;United States;美國;
;Bridgewater College;Bridgewater;Massachusetts;41.99038;-70.97504;;United States;美國;
;Bridgewater State University;Bridgewater;Massachusetts;41.99038;-70.97504;;United States;美國;
;Brigham Young University;Provo;Utah;40.2457;-111.6457;;United States;美國;
;Brigham Young University-Hawaii;Laie;Hawaii;21.6442;-157.9279;;United States;美國;
;Brigham Young University-Idaho;Rexburg;Idaho;43.8226;-111.7919;;United States;美國;
布魯克醫學中心;Brooke Medical Center;San Antonio;Texas;29.4632;-98.5238;;United States;美國;
布魯克林學院;Brooklyn College;New York City;New York;40.6943;-73.9249;;United States;美國;
;Brooklyn Institute of Technology;New York City;New York;40.6943;-73.9249;;United States;美國;
;Brooklyn Law School;Brooklyn;New York;40.6501;-73.9496;;United States;美國;
;Broward College;Fort Lauderdale;Florida;26.1412;-80.1464;;United States;美國;
布朗大學;Brown University;Providence;Rhode Island;41.823;-71.4187;;United States;美國;
;Bryan College;Dayton;Ohio;39.7805;-84.2003;;United States;美國;
;Bryan College of Health Sciences;Lincoln;Nebraska;40.8099;-96.6784;;United States;美國;
;Bryant and Stratton College;Buffalo;New York;42.9018;-78.8487;;United States;美國;
;Bryant and Stratton College - Buffalo, NY;Buffalo;New York;42.9018;-78.8487;;United States;美國;
;Bryant University;Smithfield;Rhode Island;41.92204;-71.54951;;United States;美國;
;Bryn Athyn College;Bryn Athyn;Pennsylvania;40.1411;-75.0674;;United States;美國;
倫茂大學;Bryn Mawr College;Bryn Mawr;Pennsylvania;40.0208;-75.3161;;United States;美國;
布林茅爾學院;Bryn Mawr College;Bryn Mawr;Pennsylvania;40.0208;-75.3161;;United States;美國;同一个学校 - 不同的中文翻译。
布林莫爾學院;Bryn Mawr College;Bryn Mawr;Pennsylvania;40.0208;-75.3161;;United States;美國;同一个学校 - 不同的中文翻译。
;Bucknell University;Lewisburg;Pennsylvania;40.9641;-76.8901;;United States;美國;
;Buena Vista University;Storm Lake;Iowa;42.6431;-95.196;;United States;美國;
;Buffalo State College;Buffalo;New York;42.9018;-78.8487;;United States;美國;
;Buffalo State College - Buffalo, NY;Buffalo;New York;42.9018;-78.8487;;United States;美國;
聯邦公路總署;Bureau of Public Roads;Washington;District of Columbia;38.9047;-77.0163;;United States;美國;
;Bushnell University;Eugene;Oregon;44.0564;-123.1174;;United States;美國;
;Butler University;Indianapolis;Indiana;39.7771;-86.1458;;United States;美國;
;Cabarrus College of Health Sciences;Concord;North Carolina;35.3933;-80.6369;;United States;美國;
;Cabarrus College of Health Sciences - Concord, NC;Concord;North Carolina;35.3933;-80.6369;;United States;美國;
;Cabrini University;Radnor;Pennsylvania;40.04622;-75.35991;;United States;美國;
;Cairn University;Langhorne;Pennsylvania;40.1777;-74.9212;;United States;美國;
;Caldwell University;Caldwell;New Jersey;40.8389;-74.2776;;United States;美國;
加州美術學院;California Academy of Fine Arts;San Francisco;California;37.7558;-122.4449;;United States;美國;
;California Baptist University;Riverside;California;33.9381;-117.3949;;United States;美國;
;California College of the Arts;San Francisco;California;37.7558;-122.4449;;United States;美國;
;California Institute of Integral Studies;San Francisco;California;37.7558;-122.4449;;United States;美國;
加利福尼亞理工學院;California Institute of Technology;Pasadena;California;34.1597;-118.139;;United States;美國;
加州理工大學;California Institute of Technology;Pasadena;California;34.1597;-118.139;;United States;美國;
加州理工學院;California Institute of Technology;Pasadena;California;34.1597;-118.139;;United States;美國;
;California Institute of the Arts;Valencia;California;34.44361;-118.60953;;United States;美國;
;California Lutheran University;Thousand Oaks;California;34.1914;-118.8756;;United States;美國;
;California Otterbein University;Westerville;Ohio;40.1241;-82.921;;United States;美國;
;California Point Park University;Pittsburgh;Pennsylvania;40.4397;-79.9763;;United States;美國;
;California Polytechnic State University;San Luis Obispo;California;35.2669;-120.669;;United States;美國;
;California Polytechnic State University San Luis Obispo;San Luis Obispo;California;35.2669;-120.669;;United States;美國;
加州工藝大學;California Polytechnic University;Pomona;California;34.0585;-117.7626;;United States;美國;
;California State Polytechnic University;Pomona;California;34.0585;-117.7626;;United States;美國;
;California State Polytechnic University Pomona;Pomona;California;34.0585;-117.7626;;United States;美國;
;California State University;Long Beach;California;33.7977;-118.167;;United States;美國;
;California State University;Dominguez Hills;California;33.86085;-118.23424;;United States;美國;
;California State University;Fullerton;California;33.8841;-117.9279;;United States;美國;
;California State University;Los Angeles;California;34.1141;-118.4068;;United States;美國;
;California State University;San Bernardino;California;34.1416;-117.2943;;United States;美國;
;California State University;Northridge;California;34.22834;-118.53675;;United States;美國;
;California State University;Bakersfield;California;35.3529;-119.0359;;United States;美國;
;California State University;Fresno;California;36.783;-119.7939;;United States;美國;
;California State University;Monterey Bay;California;36.79996;-121.90107;;United States;美國;
;California State University;Stanislaus;California;38.13825;-120.3702;;United States;美國;
;California State University;Sacramento;California;38.5677;-121.4685;;United States;美國;
;California State University;Chico;California;39.7578;-121.8161;;United States;美國;
;California State University Channel Islands;Camarillo;California;34.223;-119.0321;;United States;美國;
;California State University Chico;Carson;California;33.8374;-118.2559;;United States;美國;
;California State University Dominguez Hills;Hayward;California;37.6328;-122.0766;;United States;美國;
;California State University East Bay;Hayward;California;37.6328;-122.0766;;United States;美國;
;California State University Maritime Academy;Seaside;California;36.6224;-121.8199;;United States;美國;
;California State University San Marcos;San Marcos;Texas;29.8734;-97.9356;;United States;美國;
;California State University Stanislaus;Turlock;California;37.5053;-120.8588;;United States;美國;
;California University of Pennsylvania;California;Pennsylvania;40.0692;-79.9152;;United States;美國;
;California Western School of Law;San Diego;California;32.8313;-117.1222;;United States;美國;
;California Western School of Law - San Diego;San Diego;California;32.8313;-117.1222;;United States;美國;
;Calumet College of St. Joseph;Whiting;Indiana;41.6731;-87.4842;;United States;美國;
;Calvary University;Kansas City;Missouri;39.1238;-94.5541;;United States;美國;
;Calvin University;Grand Rapids;Michigan;42.9619;-85.6562;;United States;美國;
;Cambridge College;Boston;Massachusetts;42.3188;-71.0852;;United States;美國;
;Cambridge College;Cambridge;Massachusetts;42.3759;-71.1185;;United States;美國;
;Cameron University;Lawton;Oklahoma;34.6175;-98.4202;;United States;美國;
;Campbell University;Buies Creek;North Carolina;35.4082;-78.7414;;United States;美國;
;Campbellsville University;Campbellsville;Kentucky;37.3434;-85.34191;;United States;美國;
;Campbellsville University;Campbellsville;Kentucky;-85.3495670423293;37.3437164479338;;United States;美國;
;Canisius College;Buffalo;New York;42.9018;-78.8487;;United States;美國;
;Capital University;Columbus;Ohio;39.9862;-82.9855;;United States;美國;
;Capitol Technology University;Laurel;Maryland;39.0949;-76.8622;;United States;美國;
;Cardinal Stritch University;Milwaukee;Wisconsin;43.0642;-87.9675;;United States;美國;
卡爾頓學院;Carleton College;Northfield;Minnesota;44.455;-93.1698;;United States;美國;
;Carlow University;Pittsburgh;Pennsylvania;40.4397;-79.9763;;United States;美國;
加基鋼鐵學院;Carnegie Institute of Technology;Pittsburgh;Pennsylvania;40.4397;-79.9763;;United States;美國;
匹茲堡卡內基理工學院;Carnegie Institute of Technology;Pittsburgh;Pennsylvania;40.4397;-79.9763;;United States;美國;
匹茲堡卡內理工學院;Carnegie Institute of Technology;Pittsburgh;Pennsylvania;40.4397;-79.9763;;United States;美國;
卡乃基理工學院;Carnegie Institute of Technology;Pittsburgh;Pennsylvania;40.4397;-79.9763;;United States;美國;
卡內基理工學院;Carnegie Institute of Technology;Pittsburgh;Pennsylvania;40.4397;-79.9763;;United States;美國;
卡內基梅隆大學;Carnegie Mellon University;Pittsburgh;Pennsylvania;40.4397;-79.9763;;United States;美國;
伊利諾大學卡內基工學院;Carnegie School of Engineering;Pittsburgh;Pennsylvania;40.4397;-79.9763;;United States;美國;
卡內基大學;Carnegie University;Pittsburgh;Pennsylvania;40.4397;-79.9763;;United States;美國;
匹茲堡卡內基大學;Carnegie University of Pittsburgh;Pittsburgh;Pennsylvania;40.4397;-79.9763;;United States;美國;
;Carolina University;Winston Salem;North Carolina;36.1029;-80.261;;United States;美國;
;Carroll College;Helena;Montana;46.5965;-112.0202;;United States;美國;
卡羅爾學院;Carroll University;Waukesha;Wisconsin;43.0087;-88.2464;;United States;美國;
;Carson-Newman University;Jefferson City;Tennessee;-83.4905833423293;36.1226741025944;;United States;美國;
;Carthage College;Kenosha;Wisconsin;42.5865;-87.8773;;United States;美國;
凱斯理工學院;Case Institute of Technology;Cleveland;Ohio;41.4764;-81.6805;;United States;美國;Case Institute of Technology (1947–1967) -  Case Western Reserve University (1967-present)
西余大學;Case Western Reserve University;Cleveland;Ohio;41.4764;-81.6805;;United States;美國;
西方保留地大學;Case Western Reserve University;Cleveland;Ohio;41.4764;-81.6805;;United States;美國;
西余大學醫學院;Case Western Reserve University Medical School;Cleveland;Ohio;41.4764;-81.6805;;United States;美國;
;Castleton University;Castleton;Vermont;-73.1800156116464;43.6074729113942;;United States;美國;
;Catawba College;Salisbury;North Carolina;35.6658;-80.4905;;United States;美國;
開索利克大學;Catholic University of America;"	Washington D.C.";District of Columbia;38.9047;-77.0163;;United States;美國;
天主教大學;Catholic University of America;Washington;District of Columbia;38.9047;-77.0163;;United States;美國;
美國天主教大學;Catholic University of America;Washington;District of Columbia;38.9047;-77.0163;;United States;美國;
;Cazenovia College;Cazenovia;New York;42.93007;-75.85269;;United States;美國;
;Cedar Crest College;Allentown;Pennsylvania;40.5961;-75.4756;;United States;美國;
;Cedarville University;Cedarville;Ohio;39.7471;-83.8109;;United States;美國;
;Centenary College of Louisiana;Shreveport;Louisiana;32.4653;-93.7955;;United States;美國;
;Centenary University;Hackettstown;New Jersey;40.854;-74.8257;;United States;美國;
;Central Baptist College;Conway;Arkansas;35.0753;-92.4692;;United States;美國;
;Central Christian College of Kansas;McPherson;Kansas;38.3714;-97.6605;;United States;美國;
;Central Christian College of the Bible;Moberly;Missouri;39.4179;-92.4364;;United States;美國;
;Central College;Pella;Iowa;41.4052;-92.9189;;United States;美國;
;Central Connecticut State University;New Britain;Connecticut;41.6759;-72.7862;;United States;美國;
;Central Methodist University;Fayette;Iowa;42.8417;-91.8038;;United States;美國;
;Central Methodist University;Fayette;Missouri;39.147;-92.6857;;United States;美國;
;Central Michigan University;Mount Pleasant;Michigan;43.5966;-84.7759;;United States;美國;
;Central Penn College;Summerdale;Pennsylvania;40.30898;-76.92747;;United States;美國;
;Central State University;Wilberforce;Ohio;39.7151;-83.8847;;United States;美國;
;Central Washington University;Ellensburg;Washington;46.9999;-120.5475;;United States;美國;
芝加哥青年會大學;Central YMCA College;Chicago;Illinois;41.8375;-87.6866;;United States;美國;Not pretty sure about the college name -  but it's the closest one This college existed from 1922 to 1945 -  and re-opened from 1961 to 1982
;Centralia College;Centralia;Missouri;39.2105;-92.1342;;United States;美國;
;Centre College;Danville;Virginia;36.5831;-79.4088;;United States;美國;
;Chadron State College;Chadron;Nebraska;42.826;-103.0025;;United States;美國;
;Chamberlain University;Downers Grove;Illinois;41.7949;-88.0172;;United States;美國;
;Chamberlain University;Addison;Texas;32.959;-96.8355;;United States;美國;
;Chaminade University of Honolulu;Honolulu;Hawaii;21.3294;-157.846;;United States;美國;
;Champlain College;Burlington;Vermont;44.4876;-73.2316;;United States;美國;
;Chapman University;Orange;California;33.8038;-117.8218;;United States;美國;
;Charles R. Drew University of Medicine and Science;Los Angeles;California;34.1141;-118.4068;;United States;美國;
;Charleston Southern University;Charleston;South Carolina;32.8168;-79.9687;;United States;美國;
;Chatham University;Pittsburgh;Pennsylvania;40.4397;-79.9763;;United States;美國;
;Chestnut Hill College;Philadelphia;Pennsylvania;40.0077;-75.1339;;United States;美國;
;Cheyney University of Pennsylvania;Cheyney;Pennsylvania;39.92844;-75.5227;;United States;美國;
芝加哥美術學院;Chicago Academy of Fine Arts;Chicago;Illinois;41.8375;-87.6866;;United States;美國;
芝加哥美术学院;Chicago Art Institute;Chicago;Illinois;41.8375;-87.6866;;United States;美國;
芝加哥自動電話公司;Chicago Automated Telephone Company;Chicago;Illinois;41.8375;-87.6866;;United States;美國;
芝加哥城美洲醫院;Chicago City American Hospital;Chicago;Illinois;41.8375;-87.6866;;United States;美國;
芝加哥拉序医学院;Chicago Medical College;Chicago;Illinois;41.8375;-87.6866;;United States;美國;
芝加哥醫科大學;Chicago Medical University;Chicago;Illinois;41.8375;-87.6866;;United States;美國;
;Chicago State University;Chicago;Illinois;41.8375;-87.6866;;United States;美國;
;Chipola College;Marianna;Florida;30.7943;-85.2259;;United States;美國;
;Chowan University;Murfreesboro;North Carolina;36.4419;-77.0968;;United States;美國;
;Christian Brothers University;Memphis;Tennessee;35.1087;-89.9663;;United States;美國;
;Christopher Newport University;Newport News;Virginia;37.1051;-76.5185;;United States;美國;
辛辛那提音樂學院;Cincinnati Conservatory of Music;Cincinnati;Ohio;39.1413;-84.506;;United States;美國;
紐約城市大學;City University of New York;New York City;New York;40.6943;-73.9249;;United States;美國;
;City University of Seattle;Seattle;Washington;47.6211;-122.3244;;United States;美國;
;Claflin University;Orangeburg;South Carolina;33.4928;-80.8671;;United States;美國;
;Claremont Graduate University;Claremont;California;34.1259;-117.7153;;United States;美國;
克萊蒙特麥肯納學院;Claremont McKenna College;Claremont;California;34.1259;-117.7153;;United States;美國;应该是加拿大的学校。
;Clarion University of Pennsylvania;Clarion;Pennsylvania;41.2106;-79.3803;;United States;美國;
;Clark Atlanta University;Atlanta;Georgia;33.7628;-84.422;;United States;美國;
克拉克大學;Clark University;Worcester;Massachusetts;42.2705;-71.8079;;United States;美國;
麻省克拉克大學;Clark University of Massachusetts;Worcester;Massachusetts;42.2705;-71.8079;;United States;美國;
;Clarke University;Dubuque;Iowa;42.5002;-90.707;;United States;美國;
;Clarke University - Dubuque, IA;Dubuque;Iowa;42.5002;-90.707;;United States;美國;
;Clarks Summit University;Clarks Summit;Pennsylvania;41.4902;-75.7065;;United States;美國;
;Clarkson College;Omaha;Nebraska;41.2627;-96.0529;;United States;美國;
;Clarkson University;Potsdam;New York;44.66978;-74.98131;;United States;美國;
;Clayton State University;Morrow;Georgia;33.5815;-84.3391;;United States;美國;
;Clear Creek Baptist Bible College;Pineville;Louisiana;31.3414;-92.4096;;United States;美國;
;Cleary University;Howell;Michigan;42.6078;-83.9339;;United States;美國;
;Clemson University;Clemson;South Carolina;34.6837;-82.8124;;United States;美國;
;Cleveland Institute of Art;Cleveland;Ohio;41.4764;-81.6805;;United States;美國;
;Cleveland Institute of Music;Cleveland;Ohio;41.4764;-81.6805;;United States;美國;
;Cleveland State University;Cleveland;Ohio;41.4764;-81.6805;;United States;美國;
;Cleveland University-Kansas City;Overland Park;Kansas;38.887;-94.687;;United States;美國;
;Coastal Carolina University;Conway;Arkansas;35.0753;-92.4692;;United States;美國;
柯依大學;Coe College;Cedar Rapids;Iowa;41.9662;-91.6783;;United States;美國;
美國柯依大學;Coe College;Cedar Rapids;Iowa;41.9662;-91.6783;;United States;美國;
;Coker University;Hartsville;South Carolina;34.3675;-80.0829;;United States;美國;
;Colby College;Waterville;Maine;44.5441;-69.6624;;United States;美國;
;Colby-Sawyer College;New London;Connecticut;41.3502;-72.1022;;United States;美國;
;Colgate University;Hamilton;New York;42.82701;-75.54462;;United States;美國;
;College for Creative Studies;Detroit;Michigan;42.3834;-83.1024;;United States;美國;
;College of Biblical Studies;Houston;Texas;29.786;-95.3885;;United States;美國;
;College of Central Florida;Ocala;Florida;29.178;-82.1511;;United States;美國;
;College of Charleston;Charleston;South Carolina;32.8168;-79.9687;;United States;美國;
;College of Coastal Georgia;Brunswick;Maine;43.91452;-69.96533;;United States;美國;
;College of Mount Saint Vincent;Riverdale;New York;43.0407;-76.1437;;United States;美國;
;College of Our Lady of the Elms;Chicopee;Massachusetts;42.1487;-72.60787;;United States;美國;
;College of Saint Benedict/Saint John's University;St. Joseph;Minnesota;45.5655;-94.3035;;United States;美國;
聖伊麗莎白學院;College of Saint Elizabeth;Morris Township;New Jersey;-74.424913985548;41.4326226127273;;United States;美國;
;College of Saint Mary;Omaha;Nebraska;41.2627;-96.0529;;United States;美國;
;College of Southern Nevada;Las Vegas;Nevada;36.2333;-115.2654;;United States;美國;
;College of Staten Island;Staten Island;New York;40.5834;-74.1496;;United States;美國;
;College of the Atlantic;Bar Harbor;Maine;44.93036;-67.05109;;United States;美國;
聖十字學院;College of the Holy Cross;Worcester;Massachusetts;42.2705;-71.8079;;United States;美國;
;College of the Ozarks;Point Lookout;Missouri;36.61756;-93.23935;;United States;美國;
;College of William & Mary;Williamsburg;Virginia;37.2693;-76.7076;;United States;美國;
;Colorado Christian University;Lakewood;Colorado;39.6977;-105.1172;;United States;美國;
;Colorado College;Colorado Springs;Colorado;38.8674;-104.7605;;United States;美國;
;Colorado Mesa University;Grand Junction;Colorado;39.0877;-108.5673;;United States;美國;
克省礦校;Colorado School of Mines;Golden;Colorado;39.7406;-105.2118;;United States;美國;
科羅拉多州礦業學院;Colorado School of Mines;Golden;Colorado;39.7406;-105.2118;;United States;美國;
科羅拉多州立礦業學校;Colorado State School of Mines;Golden;Colorado;39.7406;-105.2118;;United States;美國;
科羅拉多州大學;Colorado State University;Fort Collins;Colorado;40.5477;-105.0656;;United States;美國;
科羅拉多州州立大學;Colorado State University;Fort Collins;Colorado;40.5477;-105.0656;;United States;美國;
科羅拉多州立大學;Colorado State University;Fort Collins;Colorado;40.5477;-105.0656;;United States;美國;
;Colorado State University-Pueblo;Pueblo;Colorado;38.2701;-104.6114;;United States;美國;
;Colorado Technical University;Colorado Springs;Colorado;38.8674;-104.7605;;United States;美國;
;Columbia Basin College;Pasco;Washington;46.2506;-119.1305;;United States;美國;
;Columbia College;Columbia;South Carolina;34.0378;-80.9036;;United States;美國;
;Columbia College Chicago;Chicago;Illinois;41.8375;-87.6866;;United States;美國;
;Columbia College Hollywood;Tarzana;California;34.17334;-118.55397;;United States;美國;
;Columbia International University;Columbia;South Carolina;34.0378;-80.9036;;United States;美國;
哥倫比亞大學;Columbia University;New York City;New York;40.6943;-73.9249;;United States;美國;
哥倫比亞醫學院;Columbia University Medical School;New York City;New York;40.6943;-73.9249;;United States;美國;
哥倫比亞大學師範學院;Columbia University Teacher's College;New York City;New York;40.6943;-73.9249;;United States;美國;
;Columbus College of Art and Design;Columbus;Ohio;39.9862;-82.9855;;United States;美國;
;Columbus State University;Columbus;Ohio;39.9862;-82.9855;;United States;美國;
;Concord University;Athens;West Virginia;37.4231;-81.0151;;United States;美國;
;Concordia College;Moorhead;Minnesota;46.8673;-96.7461;;United States;美國;
;Concordia College-New York;Bronxville;New York;40.9395;-73.8265;;United States;美國;
;Concordia University;St. Paul;Minnesota;44.9478;-93.1039;;United States;美國;
;Concordia University Ann Arbor;Ann Arbor;Michigan;42.2759;-83.731;;United States;美國;
;Concordia University Chicago;River Forest;Illinois;41.895;-87.8194;;United States;美國;
;Concordia University Irvine;Irvine;California;33.6772;-117.7738;;United States;美國;
;Concordia University Texas;Austin;Texas;30.3005;-97.7522;;United States;美國;
;Concordia University Wisconsin;Mequon;Wisconsin;43.2352;-87.9839;;United States;美國;
;Connecticut College;New London;Connecticut;41.3502;-72.1022;;United States;美國;
康涅狄格州濕沙煙草試驗站;Connecticut Tobacco Testing Station;New Haven;Connecticut;41.3113;-72.9246;;United States;美國;
;Converse College;Spartanburg;South Carolina;34.9442;-81.9251;;United States;美國;
;Conway School of Landscape Design;Northampton;Massachusetts;42.3266;-72.6745;;United States;美國;
庫伯聯盟學院;Cooper Union for the Advancement of Science and Art;New York City;New York;40.6943;-73.9249;;United States;美國;
;Coppin State University;Baltimore;Maryland;39.3051;-76.6144;;United States;美國;
;Corban University;Salem;Oregon;44.9233;-123.0244;;United States;美國;
;Cornell College;Mount Vernon;Ohio;40.3854;-82.4737;;United States;美國;
康南耳大學;Cornell University;Ithaca;New York;42.4442;-76.5032;;United States;美國;
康奈爾大學;Cornell University;Ithaca;New York;42.4442;-76.5032;;United States;美國;
康奈爾大學醫學院;Cornell University Medical School;Ithaca;New York;42.4442;-76.5032;;United States;美國;
康奈爾大學研究院;Cornell University Research Institute;Ithaca;New York;42.4442;-76.5032;;United States;美國;
;Cornerstone University;Grand Rapids;Michigan;42.9619;-85.6562;;United States;美國;
;Cornish College of the Arts;Seattle;Washington;47.6211;-122.3244;;United States;美國;
;Cottey College;Nevada;Missouri;37.8445;-94.3492;;United States;美國;
;Covenant College;Lookout Mountain;Georgia;34.9664;-85.3622;;United States;美國;
;Cox College;Springfield;Missouri;37.1943;-93.2916;;United States;美國;
;Cox College - Springfield, Missouri;Springfield;Missouri;37.1943;-93.2916;;United States;美國;
;Cranbrook Academy of Art;Bloomfield Hills;Michigan;42.578;-83.2456;;United States;美國;
;Creighton University;Omaha;Nebraska;41.2627;-96.0529;;United States;美國;
;Criswell College;Dallas;Texas;32.7935;-96.7667;;United States;美國;
;Crowley's Ridge College;Paragould;Arkansas;36.0555;-90.5149;;United States;美國;
;Crown College;St. Bonifacius;Minnesota;44.9054;-93.7477;;United States;美國;
;Culver-Stockton College;Canton;Ohio;40.8078;-81.3676;;United States;美國;
;Cumberland University;Lebanon;Tennessee;36.204;-86.3481;;United States;美國;
;CUNY School of Law;Long Island City;New York;40.74482;-73.94875;;United States;美國;
;Curry College;Milton;Massachusetts;42.24954;-71.06616;;United States;美國;
紐約寇蒂斯航空學校;Curtis Aviation School of New York;New York City;New York;40.6943;-73.9249;;United States;美國;
;Curtis Institute of Music;Philadelphia;Pennsylvania;40.0077;-75.1339;;United States;美國;
寇蒂斯航空學校;Curtiss Flying School;San Diego;California;32.8313;-117.1222;;United States;美國;School started in 1914 -  and closed in 1922
;D'Youville College;Buffalo;New York;42.9018;-78.8487;;United States;美國;
;Daemen College;Amherst;Massachusetts;42.36723;-72.51852;;United States;美國;
;Dakota State University;Madison;South Dakota;44.0062;-97.1085;;United States;美國;
;Dakota Wesleyan University;Mitchell;South Dakota;43.7294;-98.0337;;United States;美國;
;Dallas Baptist University;Dallas;Texas;32.7935;-96.7667;;United States;美國;
;Dallas Christian College;Dallas;Texas;32.7935;-96.7667;;United States;美國;
;Dalton State College;Dalton;Georgia;34.769;-84.972;;United States;美國;
;Dartmouth College;Hanover;New Hampshire;43.70229;-72.28954;;United States;美國;
;Davenport University;Grand Rapids;Michigan;42.9619;-85.6562;;United States;美國;
戴維森學院;Davidson College;Davidson;North Carolina;35.484;-80.8247;;United States;美國;Radcliffe College (1879-1999) -  full integration with Harvard University in 1999
;Davis and Elkins College;Elkins;West Virginia;38.9237;-79.8541;;United States;美國;
;Davis College;Johnson City;Tennessee;36.3406;-82.3806;;United States;美國;
;Daytona State College;Daytona Beach;Florida;29.1995;-81.0982;;United States;美國;
;Dean College;Franklin;Indiana;39.4948;-86.0544;;United States;美國;
;Defiance College;Defiance;Ohio;41.2813;-84.3657;;United States;美國;
;Delaware State University;Dover;Delaware;39.161;-75.5202;;United States;美國;
德洛威大學;Delaware University;Dover;Delaware;39.161;-75.5202;;United States;美國;
;Delaware Valley University;Doylestown;Pennsylvania;40.19758;-77.72138;;United States;美國;
;Delta State University;Cleveland;Ohio;41.4764;-81.6805;;United States;美國;
丹尼森大學;Denison University;Granville;Ohio;40.0646;-82.5024;;United States;美國;
丹佛航空技校;Denver Aviation Technical School;Denver;Colorado;39.762;-104.8758;;United States;美國;
;Denver College of Nursing;Denver;Colorado;39.762;-104.8758;;United States;美國;
農業部昆蟲與植檢局殺蟲藥劑研究室;Department of Agriculture, Entomology and Pest Control Laboratory;Beltsville;Maryland;39.038507214737045;-76.90804441557053;;United States;美國;
國防部衛生勤務學校;Department of Defense Medical School;Bethesda;Maryland;38.9866;-77.1188;;United States;美國;不是大学。
;DePaul University;Chicago;Illinois;41.8375;-87.6866;;United States;美國;
;DePauw University;Greencastle;Indiana;39.6432;-86.8418;;United States;美國;
;Des Moines University;Des Moines;Iowa;41.5725;-93.6105;;United States;美國;
;DeSales University;Center Valley;Pennsylvania;40.70729;-79.56977;;United States;美國;
第缺羅脫汽車區校;Detroit Automotive District School;Detroit;"	Michigan";42.3834;-83.1024;;United States;美國;Middlesex University (1914 - 1947) -  then closed
底特律理工學院;Detroit Institute of Technology;Detroit;Michigan;42.3834;-83.1024;;United States;美國;Closed in 1981
底特律科技大學;Detroit University of Technology;Detroit;Illinois;39.6202;-90.6759;;United States;美國;
;DeVry University;Chicago;Illinois;41.8375;-87.6866;;United States;美國;
;Dharma Realm Buddhist University;Ukiah;California;39.1464;-123.2105;;United States;美國;
狄金斯學院;Dickinson College;Carlisle;Pennsylvania;40.2;-77.2034;;United States;美國;
狄金森學院;Dickinson College;Carlisle;Pennsylvania;40.2;-77.2034;;United States;美國;
;Dickinson State University;Dickinson;North Dakota;46.8918;-102.7925;;United States;美國;
;Dillard University;New Orleans;Louisiana;30.0687;-89.9288;;United States;美國;
;Doane University;Crete;Nebraska;40.6253;-96.9575;;United States;美國;
;Dominican College;Orangeburg;South Carolina;33.4928;-80.8671;;United States;美國;
;Dominican School of Philosophy & Theology;Berkeley;California;37.8722;-122.276;;United States;美國;
;Dominican University;River Forest;Illinois;41.895;-87.8194;;United States;美國;
;Dominican University of California;San Rafael;California;37.9905;-122.5221;;United States;美國;
;Donnelly College;Kansas City;Missouri;39.1238;-94.5541;;United States;美國;
;Dordt University;Sioux Center;Iowa;43.0748;-96.1707;;United States;美國;
;Dordt University - Sioux Center, Iowa;Sioux Center;Iowa;43.0748;-96.1707;;United States;美國;
德雷克大學;Drake University;Des Moines;Iowa;41.5725;-93.6105;;United States;美國;
德魯大學;Drew University;Madison;New Jersey;40.7586;-74.4169;;United States;美國;
德雷塞爾大學;Drexel University;Philadelphia;Pennsylvania;40.0077;-75.1339;;United States;美國;
;Drury University;Springfield;Missouri;37.1943;-93.2916;;United States;美國;
杜克大學;Duke University;Durham;North Carolina;35.9792;-78.9022;;United States;美國;
;Dunwoody College of Technology;Minneapolis;Minnesota;44.9635;-93.2678;;United States;美國;
;Duquesne University;Pittsburgh;Pennsylvania;40.4397;-79.9763;;United States;美國;
杜肯大學;Duquesne University of the Holy Spirit;Pittsburgh;Pennsylvania;40.4397;-79.9763;;United States;美國;第50行和第56行 - 是同一个学校 - 不同的中文名字。
迪凱納大學;Duquesne University of the Holy Spirit;Pittsburgh;Pennsylvania;40.4397;-79.9763;;United States;美國;第50行和第56行 - 是同一个学校 - 不同的中文名字。
德萊姆大學;Durham University;Durham;North Carolina;35.9792;-78.9022;;United States;美國;
;Earlham College;Richmond;Virginia;37.5295;-77.4756;;United States;美國;
伊斯特陸軍航校;East Army Air School;Fort Benning;Georgia;32.35237;-84.96882;;United States;美國;
;East Carolina University;Greenville;North Carolina;35.5943;-77.376;;United States;美國;
;East Central University;Ada;Ohio;40.7681;-83.8251;;United States;美國;
;East Georgia State College;Swainsboro;Georgia;32.5866;-82.3345;;United States;美國;
;East Stroudsburg University;East Stroudsburg;Pennsylvania;41.0023;-75.1779;;United States;美國;
;East Tennessee State University;Johnson City;Tennessee;36.3406;-82.3806;;United States;美國;
;East Texas Baptist University;Marshall;Texas;32.537;-94.3515;;United States;美國;
;East-West University;Chicago;Illinois;41.8375;-87.6866;;United States;美國;
;Eastern Connecticut State University;Willimantic;Connecticut;41.7171;-72.2114;;United States;美國;
;Eastern Illinois University;Charleston;South Carolina;32.8168;-79.9687;;United States;美國;
;Eastern Kentucky University;Richmond;Virginia;37.5295;-77.4756;;United States;美國;
;Eastern Mennonite University;Harrisonburg;Virginia;38.4362;-78.8735;;United States;美國;
;Eastern Michigan University;Ypsilanti;Michigan;42.244;-83.6208;;United States;美國;
;Eastern Nazarene College;Quincy;Massachusetts;42.2506;-71.0187;;United States;美國;
;Eastern New Mexico University;Portales;New Mexico;34.1754;-103.3565;;United States;美國;
;Eastern Oregon University;La Grande;Oregon;45.3242;-118.0865;;United States;美國;
;Eastern University;St. Davids;Pennsylvania;-75.3725481301943;40.1851524416398;;United States;美國;
東弗吉尼亞醫學院;Eastern Virginia Medical School;Norfolk;Virginia;36.8945;-76.259;;United States;美國;
;Eastern Washington University;Cheney;Washington;47.4901;-117.579;;United States;美國;
伊斯曼音樂學院;Eastman School of Music;Rochester;New York;43.168;-77.6162;;United States;美國;
希敦飛機實驗學校;Eaton Aerospace Laboratories;Bloomfield;New Jersey;40.919409249069744;-74.17183543988862;;United States;美國;
;Ecclesia College;Springdale;Arkansas;36.1901;-94.1574;;United States;美國;
;Eckerd College;Saint Petersburg;Florida;-82.6496727689618;27.7696317998119;;United States;美國;
;ECPI University;Virginia Beach;Virginia;36.7335;-76.0435;;United States;美國;
;Edgewood College;Madison;Wisconsin;43.0822;-89.393;;United States;美國;
;Edinboro University of Pennsylvania;Edinboro;Pennsylvania;41.8762;-80.1247;;United States;美國;
;Edward Waters University;Jacksonville;Florida;30.3322;-81.6749;;United States;美國;
;Elizabeth City State University;Elizabeth City;North Carolina;36.2942;-76.236;;United States;美國;
;Elizabethtown College;Elizabethtown;Pennsylvania;40.1533;-76.599;;United States;美國;
;Elmhurst University;Elmhurst;Illinois;41.8973;-87.9432;;United States;美國;
艾邁拉大學;Elmira College;Elmira;New York;42.0938;-76.8097;;United States;美國;
;Elon University;Elon;North Carolina;36.1016;-79.5086;;United States;美國;
;Embry-Riddle Aeronautical University;Daytona Beach;Florida;29.1995;-81.0982;;United States;美國;
安柏瑞德航天航空大學;Embry–Riddle Aeronautical University;Daytona Beach;Florida;29.1995;-81.0982;;United States;美國;Missouri School of Mines and Metallurgy (1870–1964) -  University of Missouri at Rolla (1964–1968) -  University of Missouri–Rolla (1968–2008) -  Missouri University of Science and Technology (2008 - present)
;Emerson College;Boston;Massachusetts;42.3188;-71.0852;;United States;美國;
;Emmanuel College;Boston;Massachusetts;42.3188;-71.0852;;United States;美國;
;Emmaus Bible College;Dubuque;Iowa;42.5002;-90.707;;United States;美國;
艾默裏和亨利學院;Emory & Henry College;Emory;Virginia;36.78;-81.828;;United States;美國;
埃默裏大學;Emory University;Atlanta;Georgia;33.7628;-84.422;;United States;美國;
;Emporia State University;Emporia;Kansas;38.4028;-96.1932;;United States;美國;
;Endicott College;Beverly;Massachusetts;42.5681;-70.8627;;United States;美國;
;Erskine College;Due West;South Carolina;34.3335;-82.3885;;United States;美國;
;Eureka College;Eureka;California;40.7943;-124.1564;;United States;美國;
;Evangel University;Springfield;Missouri;37.1943;-93.2916;;United States;美國;
;Everglades University;Boca Raton;Florida;26.3752;-80.108;;United States;美國;
;Fairfield University;Fairfield;Connecticut;41.14121;-73.26373;;United States;美國;
;Fairleigh Dickinson University;Teaneck;New Jersey;40.8976;-74.01597;;United States;美國;
;Fairmont State University;Fairmont;West Virginia;39.4768;-80.1491;;United States;美國;
;Faith Baptist Bible College and Theological Seminary;Ankeny;Iowa;41.7288;-93.6031;;United States;美國;
;Farmingdale State College;Farmingdale;New York;40.7328;-73.4468;;United States;美國;
;Fashion Institute of Technology;New York City;New York;40.6943;-73.9249;;United States;美國;
;Faulkner University;Montgomery;Alabama;32.3482;-86.2668;;United States;美國;
;Fayetteville State University;Fayetteville;Arkansas;36.0714;-94.1661;;United States;美國;
;Felician University;Lodi;New Jersey;40.8784;-74.0814;;United States;美國;
;Ferris State University;Big Rapids;Michigan;43.6992;-85.4806;;United States;美國;
;Ferrum College;Ferrum;Virginia;36.9314;-80.0148;;United States;美國;
;Fielding Graduate University;Santa Barbara;California;34.4285;-119.7202;;United States;美國;
;Finlandia University;Hancock;Michigan;47.1367;-88.5979;;United States;美國;
;Fisher College;Boston;Massachusetts;42.3188;-71.0852;;United States;美國;
;Fisk University;Nashville;Tennessee;36.1715;-86.7842;;United States;美國;
;Fitchburg State University;Fitchburg;Massachusetts;42.58342;-71.8023;;United States;美國;
;Five Towns College;Dix Hills;New York;40.8033;-73.3375;;United States;美國;
;Flagler College;St. Augustine;Florida;29.8976;-81.31;;United States;美國;
;Florida Agricultural and Mechanical University;Tallahassee;Florida;30.4551;-84.2527;;United States;美國;
;Florida Atlantic University;Boca Raton;Florida;26.3752;-80.108;;United States;美國;
;Florida College;Temple Terrace;Florida;28.0436;-82.3773;;United States;美國;
;Florida Gateway College;Lake City;Florida;30.1901;-82.6471;;United States;美國;
;Florida Gulf Coast University;Fort Myers;Florida;26.6194;-81.8302;;United States;美國;
;Florida Institute of Technology;Melbourne;Florida;28.1086;-80.6627;;United States;美國;
;Florida International University;Miami;Florida;25.784;-80.2101;;United States;美國;
;Florida Memorial University;Miami Gardens;Florida;25.9433;-80.2426;;United States;美國;
;Florida National University;Hialeah;Florida;25.8696;-80.3045;;United States;美國;
;Florida Pillar College;Newark;New Jersey;40.7245;-74.1725;;United States;美國;
佛羅裏達南方大學;Florida Southern College;Lakeland;Florida;28.0557;-81.9545;;United States;美國;
;Florida SouthWestern State College;Fort Myers;Florida;26.6194;-81.8302;;United States;美國;
;Florida State College at Jacksonville;Jacksonville;North Carolina;34.7289;-77.3941;;United States;美國;
;Florida State University;Tallahassee;Florida;30.4551;-84.2527;;United States;美國;
;Fontbonne University;St. Louis;Missouri;38.6359;-90.2451;;United States;美國;
福特汽車學校;Ford Motos School;Detroit;Illinois;39.6202;-90.6759;;United States;美國;
福特漢姆大學;Fordham University;New York;New York;40.6943;-73.9249;;United States;美國;
福克聯合軍校;Fork Union Military Academy;Fork Union;Virginia;37.7632;-78.26223;;United States;美國;
伏利堡大學;Fort Hays State University;Hays;Kansas;38.8821;-99.3221;;United States;美國;
利文沃恩堡指揮參謀大學;Fort Leavenworth Command and  General Staff College;Fort Leavenworth;Kansas;39.35684;-94.91529;;United States;美國;
;Fort Lewis College;Durango;Colorado;37.2659;-107.8781;;United States;美國;
;Fort Valley State University;Fort Valley;Georgia;32.552;-83.8817;;United States;美國;
;Framingham State University;Framingham;Massachusetts;42.27926;-71.41617;;United States;美國;
;Francis Marion University;Florence;Alabama;34.8303;-87.6655;;United States;美國;
;Franciscan Missionaries of Our Lady University;Baton Rouge;Louisiana;30.442;-91.1311;;United States;美國;
;Franciscan University of Steubenville;Steubenville;Ohio;40.3653;-80.6519;;United States;美國;
;Franklin and Marshall College;Lancaster;Pennsylvania;40.042;-76.3012;;United States;美國;
;Franklin College;Franklin;Indiana;39.4948;-86.0544;;United States;美國;
;Franklin Pierce University;Rindge;New Hampshire;42.7512;-72.0098;;United States;美國;
;Franklin University;Columbus;Ohio;39.9862;-82.9855;;United States;美國;
;Franklin W. Olin College of Engineering;Needham;Massachusetts;42.28343;-71.23283;;United States;美國;
;Freed-Hardeman University;Henderson;Nevada;36.0133;-115.0381;;United States;美國;
;Fresno Pacific University;Fresno;California;36.783;-119.7939;;United States;美國;
;Friends University;Wichita;Kansas;37.6895;-97.3443;;United States;美國;
;Frostburg State University;Frostburg;Maryland;39.6506;-78.9269;;United States;美國;
;Furman University;Greenville;North Carolina;35.5943;-77.376;;United States;美國;
;Gallaudet University;Washington;District of Columbia;38.9047;-77.0163;;United States;美國;
;Gannon University;Erie;Pennsylvania;42.1167;-80.0733;;United States;美國;
;Gardner-Webb University;Boiling Springs;North Carolina;35.2522;-81.6636;;United States;美國;
;Geisinger Commonwealth School of Medicine;Scranton;Pennsylvania;41.4044;-75.6649;;United States;美國;
孟菲斯市蓋勒醫院;Geller Hospital;Memphis;Tennessee;35.1087;-89.9663;;United States;美國;
聖公會總會神學院;General Theological Seminary of the Episcopal Church;New York City;New York;40.6943;-73.9249;;United States;美國;
;Geneva College;Beaver Falls;Pennsylvania;40.7619;-80.3226;;United States;美國;
;George Fox University;Newberg;Oregon;45.3075;-122.9601;;United States;美國;
;George Mason University;Fairfax;Virginia;38.8531;-77.2997;;United States;美國;
喬治•華盛頓大學;George Washington University;Washington;District of Columbia;38.9047;-77.0163;;United States;美國;
喬治威廉姆斯學院;George Williams College;Williams Bay;Wisconsin;42.5788;-88.5457;;United States;美國;George Williams College (1890–2000) -  then merged into Aurora University
;Georgetown College;Georgetown;Kentucky;38.2247;-84.5487;;United States;美國;
喬治城大學;Georgetown University;Washington;District of Columbia;38.9047;-77.0163;;United States;美國;
;Georgia College and State University;Milledgeville;Georgia;33.0874;-83.2414;;United States;美國;
;Georgia Gwinnett College;Lawrenceville;Georgia;33.9523;-83.9932;;United States;美國;
佐治亞理工學院;Georgia Institute of Technology;Atlanta;Georgia;33.7628;-84.422;;United States;美國;
喬治亞南方大學;Georgia Southern University;Statesboro;Georgia;32.4375;-81.7751;;United States;美國;Georgia Southern College (1959–1990) -  then became the fifth-largest institution in the University System of Georgia Georgia Southern University
;Georgia Southwestern State University;Americus;Georgia;32.0736;-84.2248;;United States;美國;
;Georgia State University;Atlanta;Georgia;33.7628;-84.422;;United States;美國;
;Georgian Court University;Lakewood;New Jersey;40.09789;-74.21764;;United States;美國;
;Gettysburg College;Gettysburg;Pennsylvania;39.8304;-77.2339;;United States;美國;
格蘭維爾學院;Glenville State College;Glenville;West Virginia;38.9379;-80.834;;United States;美國;Glenville State College (1943–2022) -  Glenville State University (2022-present)
;God's Bible School and College;Cincinnati;Ohio;39.1413;-84.506;;United States;美國;
;Goddard College;Plainfield;Vermont;44.27812;-72.42649;;United States;美國;
;Golden Gate University;San Francisco;California;37.7558;-122.4449;;United States;美國;
;Goldey-Beacom College;Wilmington;North Carolina;34.2099;-77.8866;;United States;美國;
;Goldfarb School of Nursing at Barnes-Jewish College;St. Louis;Missouri;38.6359;-90.2451;;United States;美國;
岡紮加大學;Gonzaga University;Spokane;Washington;47.6671;-117.433;;United States;美國;
;Good Samaritan College of Nursing and Health Science;Cincinnati;Ohio;39.1413;-84.506;;United States;美國;
;Goodwin University;East Hartford;Connecticut;41.78232;-72.61203;;United States;美國;
;Gordon College;Wenham;Massachusetts;42.60426;-70.89116;;United States;美國;
;Gordon State College;Barnesville;Georgia;33.0508;-84.1528;;United States;美國;
;Goshen College;Goshen;Indiana;41.5743;-85.8309;;United States;美國;
戈切爾學院;Goucher College;Towson;Maryland;39.3944;-76.619;;United States;美國;
;Governors State University;University Park;Pennsylvania;40.80201;-77.85639;;United States;美國;
;Grace Christian University;Wyoming;Michigan;42.8908;-85.7066;;United States;美國;
;Grace College;Winona Lake;Indiana;41.2166;-85.8105;;United States;美國;
;Graceland University;Lamoni;Iowa;40.6201;-93.9308;;United States;美國;
;Graduate Theological Union;Berkeley;California;37.8722;-122.276;;United States;美國;
;Grambling State University;Grambling;Louisiana;32.5275;-92.7124;;United States;美國;
;Grand Canyon University;Phoenix;Arizona;33.5722;-112.0892;;United States;美國;
;Grand Valley State University;Allendale;Michigan;42.9845;-85.9499;;United States;美國;
;Grand View University;Des Moines;Iowa;41.5725;-93.6105;;United States;美國;
;Granite State College;Concord;North Carolina;35.3933;-80.6369;;United States;美國;
;Gratz College;Melrose Park;Illinois;41.903;-87.8636;;United States;美國;
;Great Basin College;Elko;Nevada;40.8381;-115.7678;;United States;美國;
;Great Lakes Christian College;Lansing;Michigan;42.7142;-84.5601;;United States;美國;
;Greensboro College;Greensboro;North Carolina;36.0956;-79.8271;;United States;美國;
;Greenville University;Greenville;Illinois;38.8867;-89.3894;;United States;美國;
格林奈爾學院;Grinnell College;Grinnell;Iowa;41.7359;-92.7244;;United States;美國;
愛荷華州格林內爾大學;Grinnell University;Grinnell;Iowa;41.7359;-92.7244;;United States;美國;
;Grove City College;Grove City;Pennsylvania;41.1572;-80.0894;;United States;美國;
紐約故根漢兒童牙醫研究所;Gugenhan Children's Dental Institute;New York City;New York;40.6943;-73.9249;;United States;美國;
;Guilford College;Greensboro;North Carolina;36.0956;-79.8271;;United States;美國;
;Gulf Coast State College;Panama City;Florida;30.1995;-85.6003;;United States;美國;
;Gustavus Adolphus College;St. Peter;Minnesota;44.3295;-93.9658;;United States;美國;
;Gwynedd Mercy University;Gwynedd Valley;Pennsylvania;40.18427;-75.25629;;United States;美國;
漢密爾頓學院;Hamilton College;Clinton;New York;43.0489;-75.3784;;United States;美國;Mount Mary College (1928–2013) -  Mount Mary University (2013 - present)
哈姆林大學;Hamline University;Saint Paul;Minnesota;44.94441;-93.09327;;United States;美國;La Salle College (1863-1984) -  La Salle University (1984-present)
;Hampden-Sydney College;Hampden-Sydney;Virginia;37.2415;-78.4693;;United States;美國;
;Hampshire College;Amherst;Massachusetts;42.36723;-72.51852;;United States;美國;
;Hampton University;Hampton;Virginia;37.0551;-76.363;;United States;美國;
;Hannibal-LaGrange University;Hannibal;Missouri;39.7098;-91.3939;;United States;美國;
;Hanover College;Hanover;New Hampshire;43.70229;-72.28954;;United States;美國;
;Hardin-Simmons University;Abilene;Texas;32.4543;-99.7384;;United States;美國;
;Harding University;Searcy;Arkansas;35.2418;-91.7351;;United States;美國;
加利福尼亞州哈哩大學;Harley University of California;San Francisco;California;37.7558;-122.4449;;United States;美國;
;Harris-Stowe State University;St. Louis;Missouri;38.6359;-90.2451;;United States;美國;
;Harrisburg University of Science and Technology;Harrisburg;Pennsylvania;40.2752;-76.8843;;United States;美國;
;Hartwick College;Oneonta;New York;42.4551;-75.0666;;United States;美國;
哈佛金研究所;Harvard Gold Institute;Cambridge;Massachusetts;42.3759;-71.1185;;United States;美國;
哈佛公共衛生學校;Harvard School of Public Health;Cambridge;Massachusetts;42.3759;-71.1185;;United States;美國;
哈佛大學;Harvard University;Cambridge;Massachusetts;42.3759;-71.1185;;United States;美國;
哈佛大學醫學院;Harvard University Medical School;Cambridge;Massachusetts;42.3759;-71.1185;;United States;美國;
哈佛大學企業管理學院;Harvard University School of Business Administration;Cambridge;Massachusetts;42.3759;-71.1185;;United States;美國;
;Harvey Mudd College;Claremont;California;34.1259;-117.7153;;United States;美國;
哈斯汀學院;Hastings College;Hastings;Nebraska;40.5961;-98.39;;United States;美國;Georgia Southern College (1959–1990) -  then became the fifth-largest institution in the University System of Georgia
海斯汀耶稣會文學院;Hastings Jesuit College of Arts;Hastings;Nebraska;40.5961;-98.39;;United States;美國;
;Haverford College;Haverford;Pennsylvania;40.01317;-75.29435;;United States;美國;
;Hawaii Pacific University;Honolulu;Hawaii;21.3294;-157.846;;United States;美國;
希爾德學院;Heald College;San Francisco;California;37.7558;-122.4449;;United States;美國;
;Hebrew College;Newton;Massachusetts;42.3316;-71.2085;;United States;美國;
;Heidelberg University;Tiffin;Ohio;41.1165;-83.1805;;United States;美國;
;Helene Fuld College of Nursing;New York City;New York;40.6943;-73.9249;;United States;美國;
;Henderson State University;Arkadelphia;Arkansas;34.1253;-93.0729;;United States;美國;
;Hendrix College;Conway;Arkansas;35.0753;-92.4692;;United States;美國;
;Heritage Christian University;Florence;Alabama;34.8303;-87.6655;;United States;美國;
;Heritage University;Toppenish;Washington;46.3806;-120.3122;;United States;美國;
;Herzing University;Madison;Wisconsin;43.0822;-89.393;;United States;美國;
;High Point University;High Point;North Carolina;35.991;-79.9937;;United States;美國;
;Hilbert College;Hamburg;New York;42.23425;-73.85013;;United States;美國;
;Hillsdale College;Hillsdale;Michigan;41.9267;-84.6356;;United States;美國;
;Hiram College;Hiram;Ohio;41.3115;-81.1429;;United States;美國;
;Hobart and William Smith Colleges;Geneva;New York;42.8645;-76.9826;;United States;美國;
;Hodges University;Naples;Florida;26.1504;-81.7936;;United States;美國;
;Hofstra University;Hempstead;New York;40.70621;-73.61874;;United States;美國;
;Hollins University;Roanoke;Virginia;37.2785;-79.9581;;United States;美國;
;Holy Apostles College and Seminary;Cromwell;Connecticut;41.5951;-72.64537;;United States;美國;
;Holy Cross College;Notre Dame;Indiana;41.7014;-86.2378;;United States;美國;
;Holy Family University;Philadelphia;Pennsylvania;40.0077;-75.1339;;United States;美國;
;Holy Names University;Oakland;California;37.7904;-122.2166;;United States;美國;
;Hood College;Frederick;Maryland;39.4337;-77.4141;;United States;美國;
;Hope College;Holland;Michigan;42.7677;-86.0984;;United States;美國;
;Hope International University;Fullerton;California;33.8841;-117.9279;;United States;美國;
霍頓學院;Houghton College;Houghton;New York;42.4277;-78.1638;;United States;美國;Houghton College (1923-2022) -  Houghton University  (2022-present)
;Houston Baptist University;Houston;Texas;29.786;-95.3885;;United States;美國;
;Howard Payne University;Brownwood;Texas;31.7127;-98.9767;;United States;美國;
;Howard University;Washington;District of Columbia;38.9047;-77.0163;;United States;美國;
;Hult International Business School;Cambridge;Massachusetts;42.3759;-71.1185;;United States;美國;
;Humboldt State University;Arcata;California;40.8615;-124.0758;;United States;美國;
;Humphreys University;Stockton;California;37.9765;-121.3109;;United States;美國;
;Hunter College;New York City;New York;40.6943;-73.9249;;United States;美國;
;Hunter College CUNY;New York;New York;40.6943;-73.9249;;United States;美國;
;Huntingdon College;Montgomery;Alabama;32.3482;-86.2668;;United States;美國;
;Huntington University;Huntington;Indiana;40.881;-85.5063;;United States;美國;
;Husson University;Bangor;Maine;44.8323;-68.7906;;United States;美國;
;Huston-Tillotson University;Austin;Texas;30.3005;-97.7522;;United States;美國;
;Icahn School of Medicine at Mount Sinai;New York City;New York;40.6943;-73.9249;;United States;美國;
;Idaho State University;Pocatello;Idaho;42.8724;-112.4647;;United States;美國;
;Illinois College;Jacksonville;North Carolina;34.7289;-77.3941;;United States;美國;
;Illinois College of Optometry;Chicago;Illinois;41.8375;-87.6866;;United States;美國;
伊利諾伊理工學院;Illinois Institute of Technology;Chicago;Illinois;41.8375;-87.6866;;United States;美國;
伊利諾理工學院;Illinois Institute of Technology;Chicago;Illinois;41.8375;-87.6866;;United States;美國;
伊林工藝學院;Illinois Institute of Technology;Chicago;Illinois;41.8375;-87.6866;;United States;美國;
伊利諾州立大學;Illinois State University;Normal;Illinois;40.5217;-88.9884;;United States;美國;
伊利諾斯州立大學;Illinois State University;Normal;Illinois;40.5217;-88.9884;;United States;美國;
;Illinois Wesleyan University;Bloomington;Minnesota;44.8306;-93.3151;;United States;美國;
;Immaculata University;East Whiteland;Pennsylvania;-75.5684494423293;40.0286248518723;;United States;美國;
;Indian River State College;Fort Pierce;Florida;27.4255;-80.3431;;United States;美國;
;Indiana Institute of Technology;Fort Wayne;Indiana;41.0888;-85.1436;;United States;美國;
印第安納州大學;Indiana State University;Terre Haute;Indiana;39.466;-87.3751;;United States;美國;
印第安納州立大學;Indiana State University;Terre Haute;Indiana;39.466;-87.3751;;United States;美國;
印第安納理工學院;Indiana Technical College;Fort Wayne;Indiana;41.0888;-85.1436;;United States;美國;Indiana Technical College (1930–1963) -  Indiana Institute of Technology (1963 - present)
印地安納大學;Indiana University;Bloomington;Indiana;39.1637;-86.5257;;United States;美國;
印第安納大學;Indiana University;Indianapolis;Indiana;39.7771;-86.1458;;United States;美國;
;Indiana University Bloomington;Bloomington;Minnesota;44.8306;-93.3151;;United States;美國;
;Indiana University East;Richmond;Virginia;37.5295;-77.4756;;United States;美國;
;Indiana University Fort Wayne;Fort Wayne;Indiana;41.0888;-85.1436;;United States;美國;
;Indiana University Kokomo;Kokomo;Indiana;40.464;-86.1277;;United States;美國;
;Indiana University Northwest;Gary;Indiana;41.5905;-87.3473;;United States;美國;
;Indiana University of Pennsylvania;Indiana;Indiana;40.00032;-86.25027;;United States;美國;
;Indiana University South Bend;South Bend;Indiana;41.6767;-86.2696;;United States;美國;
;Indiana University Southeast;New Albany;Indiana;38.309;-85.8234;;United States;美國;
;Indiana Wesleyan University;Marion;Indiana;40.5497;-85.6604;;United States;美國;
意奧蘭尼學校;Iolani School;Honolulu;Hawaii;21.3294;-157.846;;United States;美國;
;Iona College;New Rochelle;New York;40.9304;-73.7836;;United States;美國;
愛荷華農工學院;Iowa A&M College;Ames;Iowa;42.0256;-93.6217;;United States;美國;
依阿華私立克義大學;Iowa Private University;Cedar Rapids;Iowa;41.9662;-91.6783;;United States;美國;
依阿華州立農工學院;Iowa State Agricultural and Engineering College;Ames;Iowa;42.0256;-93.6217;;United States;美國;
愛荷華州立農學院;Iowa State Agricultural College;Ames;Iowa;42.0256;-93.6217;;United States;美國;
依阿華州立大學;Iowa State University;Ames;Iowa;42.0256;-93.6217;;United States;美國;
愛荷華州立大學;Iowa State University;Ames;Iowa;42.0256;-93.6217;;United States;美國;
愛荷華州立農業與理工科大學;Iowa State University of Agriculture and Technology;Ames;Iowa;42.0256;-93.6217;;United States;美國;
依阿華州立大學研究院;Iowa State University Research Institute;Ames;Iowa;42.0256;-93.6217;;United States;美國;
伊阿華大學;Iowa University;Iowa City;Iowa;41.6559;-91.5303;;United States;美國;
;Iowa Wesleyan University;Mount Pleasant;Iowa;40.9625;-91.5452;;United States;美國;
;Irell and Manella Graduate School of Biological Sciences;Duarte;California;34.161;-117.9504;;United States;美國;
;Ithaca College;Ithaca;New York;42.4442;-76.5032;;United States;美國;
;Jackson State University;Jackson;Mississippi;32.3157;-90.2125;;United States;美國;
;Jacksonville State University;Jacksonville;North Carolina;34.7289;-77.3941;;United States;美國;
;Jacksonville University;Jacksonville;North Carolina;34.7289;-77.3941;;United States;美國;
;James Madison University;Harrisonburg;Virginia;38.4362;-78.8735;;United States;美國;
;Jamestown Business College;Jamestown;North Dakota;46.9063;-98.6937;;United States;美國;
;Jarvis Christian College;Hawkins;Texas;32.5917;-95.2027;;United States;美國;
;John Brown University;Siloam Springs;Arkansas;36.1844;-94.5315;;United States;美國;
;John Carroll University;University Heights;Ohio;41.4948;-81.535;;United States;美國;
;John F. Kennedy University;Pleasant Hill;California;37.9539;-122.0759;;United States;美國;
;John Jay College of Criminal Justice;New York City;New York;40.6943;-73.9249;;United States;美國;
;John Paul the Great Catholic University;Escondido;California;33.1348;-117.0723;;United States;美國;
約翰•霍普金斯大學;Johns Hopkins University;Baltimore;Maryland;39.3051;-76.6144;;United States;美國;
約翰•霍普金斯醫科大學;Johns Hopkins University;Baltimore;Maryland;39.3051;-76.6144;;United States;美國;
約翰霍普金斯大學;Johns Hopkins University;Baltimore;Maryland;39.3051;-76.6144;;United States;美國;
霍普金斯大學;Johns Hopkins University;Baltimore;Maryland;39.3051;-76.6144;;United States;美國;
約翰霍普金斯大學皮博迪音樂學院;Johns Hopkins University Peabody institute;Baltimore;Maryland;39.3051;-76.6144;;United States;美國;
;Johnson and Wales University;Providence;Rhode Island;41.823;-71.4187;;United States;美國;
;Johnson C. Smith University;Charlotte;North Carolina;35.2083;-80.8303;;United States;美國;
;Johnson University;Knoxville;Tennessee;35.9692;-83.9496;;United States;美國;
;Judson College;Marion;Alabama;32.6318;-87.3172;;United States;美國;
;Judson University;Elgin;Illinois;42.0383;-88.324;;United States;美國;
朱利亞音樂學院;Juilliard School;New York City;New York;40.6943;-73.9249;;United States;美國;
朱麗亞德音樂院;Juilliard School;New York City;New York;40.6943;-73.9249;;United States;美國;
茱莉亞音樂學院;Juilliard School of Music;New York City;New York;40.6943;-73.9249;;United States;美國;
;Juniata College;Huntingdon;Pennsylvania;40.5;-78.0097;;United States;美國;
;Kalamazoo College;Kalamazoo;Michigan;42.2749;-85.5882;;United States;美國;
;Kansas City Art Institute;Kansas City;Missouri;39.1238;-94.5541;;United States;美國;
;Kansas City University;Kansas City;Missouri;39.1238;-94.5541;;United States;美國;
堪薩斯州立大學;Kansas State University;Kansas City;Kansas;39.1235;-94.7443;;United States;美國;
堪薩斯州農業大學;Kansas State University College of Agriculture;Manhattan;Kansas;39.1886;-96.6048;;United States;美國;不是大学。United States Reclamation Service (1902-1923) -  Bureau of Reclamation (1923-present)
;Kansas Wesleyan University;Salina;Kansas;38.8136;-97.6143;;United States;美國;
;Kean University;Union;New Jersey;40.6966;-74.2693;;United States;美國;
;Keck Graduate Institute;Claremont;California;34.1259;-117.7153;;United States;美國;
;Keene State College;Keene;New Hampshire;42.9494;-72.2998;;United States;美國;
;Keiser University;Fort Lauderdale;Florida;26.1412;-80.1464;;United States;美國;
;Kennesaw State University;Kennesaw;Georgia;34.026;-84.6177;;United States;美國;
;Kent State University;Kent;Ohio;41.149;-81.361;;United States;美國;
;Kentucky Christian University;Grayson;Kentucky;38.3317;-82.9371;;United States;美國;
;Kentucky State University;Frankfort;Kentucky;38.1924;-84.8643;;United States;美國;
;Kentucky Wesleyan College;Owensboro;Kentucky;37.7575;-87.1172;;United States;美國;
;Kenyon College;Gambier;Ohio;40.3764;-82.3949;;United States;美國;
;Kettering College;Kettering;Ohio;39.6956;-84.1494;;United States;美國;
;Kettering University;Flint;Michigan;43.0236;-83.6921;;United States;美國;
;Keuka College;Keuka Park;New York;42.613;-77.0922;;United States;美國;
;Keystone College;La Plume;Pennsylvania;41.55674;-75.7538;;United States;美國;
;King University;Bristol;Tennessee;36.5572;-82.2154;;United States;美國;
;King's College;Wilkes-Barre;Pennsylvania;41.2469;-75.876;;United States;美國;
;Knox College;Galesburg;Illinois;40.9506;-90.3763;;United States;美國;
;Kutztown University of Pennsylvania;Kutztown;Pennsylvania;40.5212;-75.7772;;United States;美國;
;Kuyper College;Grand Rapids;Michigan;42.9619;-85.6562;;United States;美國;
;La Roche University;Pittsburgh;Pennsylvania;40.4397;-79.9763;;United States;美國;
喇沙書院;La Salle College;Philadelphia;Pennsylvania;40.0077;-75.1339;;United States;美國;La Salle College (1863-1984) -  La Salle University (1984-present)
拉薩爾大學;La Salle University;Philadelphia;Pennsylvania;40.0077;-75.1339;;United States;美國;
;La Sierra University;Riverside;California;33.9381;-117.3949;;United States;美國;
;Labouré College;Milton;Massachusetts;42.24954;-71.06616;;United States;美國;
拉斐特學院;Lafayette College;Easton;Pennsylvania;40.6858;-75.2209;;United States;美國;同一个学校。不同的中文名字。
拉法耶特學院;Lafayette College;Easton;Pennsylvania;40.6858;-75.2209;;United States;美國;同一个学校。不同的中文名字。
賴發約地大學;Lafayette College;Easton;Pennsylvania;40.6858;-75.2209;;United States;美國;
;LaGrange College;LaGrange;Illinois;41.80568;-87.86942;;United States;美國;
;Laguna College of Art and Design;Laguna Beach;California;33.5455;-117.7613;;United States;美國;
;Lake Erie College;Painesville;Ohio;41.724;-81.2536;;United States;美國;
;Lake Forest College;Lake Forest;Illinois;42.238;-87.8596;;United States;美國;
;Lake Forest Graduate School of Management;Lake Forest;Illinois;42.238;-87.8596;;United States;美國;
;Lake Superior State University;Sault Ste. Marie;Michigan;46.4817;-84.3723;;United States;美國;
;Lake Washington Institute of Technology;Kirkland;Washington;47.697;-122.2057;;United States;美國;
;Lakeland University;Plymouth;Wisconsin;43.7447;-87.966;;United States;美國;
;Lakeview College of Nursing;Danville;Virginia;36.5831;-79.4088;;United States;美國;
;Lamar University;Beaumont;Texas;30.0849;-94.1451;;United States;美國;
;Lancaster Bible College;Lancaster;Pennsylvania;40.042;-76.3012;;United States;美國;
;Lander University;Greenwood;South Carolina;34.1947;-82.1542;;United States;美國;
;Landmark College;Putney;Vermont;42.9748;-72.52176;;United States;美國;
;Lane College;Jackson;Mississippi;32.3157;-90.2125;;United States;美國;
;Langston University;Langston;Oklahoma;35.9308;-97.2807;;United States;美國;
;Lasell University;Newton;Massachusetts;42.3316;-71.2085;;United States;美國;
;Lawrence Technological University;Southfield;Michigan;42.4765;-83.2605;;United States;美國;
勞倫斯大學;Lawrence University;Appleton;Wisconsin;44.278;-88.3892;;United States;美國;
威斯康辛勞倫斯大學;Lawrence University of Wisconsin;Appleton;Wisconsin;44.278;-88.3892;;United States;美國;
;Le Moyne College;Syracuse;New York;43.0407;-76.1437;;United States;美國;
;Lebanon Valley College;Annville;Pennsylvania;40.32954;-76.51524;;United States;美國;
;Lee University;Cleveland;Ohio;41.4764;-81.6805;;United States;美國;
;Lees-McRae College;Banner Elk;North Carolina;36.1589;-81.8677;;United States;美國;
麥克萊大學;Lees–McRae College [?];Banner Elk;North Carolina;36.1589;-81.8677;;United States;美國;
理海大學;Lehigh University;Bethlehem;Pennsylvania;40.6266;-75.3679;;United States;美國;
;Lehman College;New York City;New York;40.6943;-73.9249;;United States;美國;
;Lehman College CUNY;Bronx;New York;40.8501;-73.8662;;United States;美國;
;LeMoyne-Owen College;Memphis;Tennessee;35.1087;-89.9663;;United States;美國;
;Lenoir-Rhyne University;Hickory;North Carolina;35.741;-81.3223;;United States;美國;
勒努瓦雷恩學院;Lenoir–Rhyne University;Hickory;North Carolina;35.741;-81.3223;;United States;美國;
萊斯利大學;Lesley University;Cambridge;Massachusetts;42.3759;-71.1185;;United States;美國;
;LeTourneau University;Longview;Texas;32.5193;-94.7622;;United States;美國;
;Lewis & Clark College;Portland;Oregon;45.5371;-122.65;;United States;美國;
;Lewis University;Romeoville;Illinois;41.6318;-88.0997;;United States;美國;
;Lewis-Clark State College;Lewiston;Idaho;46.3934;-116.9933;;United States;美國;
;Liberty University;Lynchburg;Virginia;37.4003;-79.1909;;United States;美國;
;Life Pacific College;San Dimas;California;34.1082;-117.809;;United States;美國;
;Life University;Marietta;Georgia;33.9533;-84.5422;;United States;美國;
;LIM College;New York City;New York;40.6943;-73.9249;;United States;美國;
;Limestone College;Gaffney;South Carolina;35.0743;-81.6552;;United States;美國;
;Lincoln Christian University;Lincoln;Nebraska;40.8099;-96.6784;;United States;美國;
;Lincoln College;Lincoln;Nebraska;40.8099;-96.6784;;United States;美國;
林肯法律學院;Lincoln Law School;Sacramento;California;38.5677;-121.4685;;United States;美國;
;Lincoln Memorial University;Harrogate;Tennessee;36.5752;-83.6462;;United States;美國;
;Lincoln School of Law;San Francisco;California;37.7558;-122.4449;;United States;美國;
林肯大學;Lincoln University;Jefferson City;Missouri;38.5676;-92.1759;;United States;美國;
;Lincoln University;Lincoln University;Pennsylvania;39.8064;-75.9279;;United States;美國;
;Lindenwood University;St. Charles;Missouri;38.7954;-90.5157;;United States;美國;
;Lindsey Wilson College;Columbia;South Carolina;34.0378;-80.9036;;United States;美國;
林菲爾德學院;Linfield College;McMinnville;Oregon;45.211;-123.1918;;United States;美國;Linfield College
;Lipscomb University;Nashville;Tennessee;36.1715;-86.7842;;United States;美國;
;Livingstone College;Salisbury;North Carolina;35.6658;-80.4905;;United States;美國;
;Lock Haven University;Lock Haven;Pennsylvania;41.1365;-77.4521;;United States;美國;
;Logan University;Chesterfield;Missouri;38.6589;-90.5803;;United States;美國;
;Loma Linda University;Loma Linda;California;34.045;-117.2498;;United States;美國;
;Long Island University;Brooklyn;New York;40.6501;-73.9496;;United States;美國;
;Longwood University;Farmville;Virginia;37.2959;-78.4002;;United States;美國;
;Loras College;Dubuque;Iowa;42.5002;-90.707;;United States;美國;
洛杉磯城市學院;Los Angeles City College;East Hollywood;California;-118.293579476784;34.0952734845441;;United States;美國;
;Louisiana College;Pineville;Louisiana;31.3414;-92.4096;;United States;美國;
路易斯安娜州立大學;Louisiana State University;Baton Rouge;Louisiana;30.442;-91.1311;;United States;美國;
;Louisiana State University Health Sciences Center;New Orleans;Louisiana;30.0687;-89.9288;;United States;美國;
;Louisiana State University Health Sciences Center-Shreveport;Shreveport;Louisiana;32.4653;-93.7955;;United States;美國;
;Louisiana State University in Shreveport;Shreveport;Louisiana;32.4653;-93.7955;;United States;美國;
;Louisiana State University of Alexandria;Alexandria;Virginia;38.8185;-77.0861;;United States;美國;
;Louisiana Tech University;Ruston;Louisiana;32.5328;-92.6363;;United States;美國;
路易維爾大學研究院;Louisville University;Louisville;Kentucky;-85.757262070999;38.2632704185104;;United States;美國;
;Lourdes University;Sylvania;Ohio;41.71;-83.7092;;United States;美國;
羅威爾紡織學院;Lowell Textile Institute of Massachusetts;Lowell;Massachusetts;42.6389;-71.3217;;United States;美國;
麻省羅威爾紡織學院;Lowell Textile Institute of Massachusetts;Lowell;Massachusetts;42.6389;-71.3217;;United States;美國;
;Loyola Marymount University;Los Angeles;California;34.1141;-118.4068;;United States;美國;
芝加哥洛約拉大學;Loyola University Chicago;Chicago;Illinois;41.8375;-87.6866;;United States;美國;
;Loyola University Maryland;Baltimore;Maryland;39.3051;-76.6144;;United States;美國;
;Loyola University New Orleans;New Orleans;Louisiana;30.0687;-89.9288;;United States;美國;
;Lubbock Christian University;Lubbock;Texas;33.5657;-101.8879;;United States;美國;
;Luther College;Decorah;Iowa;43.3012;-91.7839;;United States;美國;
;Lycoming College;Williamsport;Pennsylvania;41.2399;-77.037;;United States;美國;
馬薩諸塞州赫門工讀學校;Lyman School for Boys in Massachusetts;Westborough;Massachusetts;42.26954;-71.61618;;United States;美國;existed only from 1886 until 1971 NOT 100% sure of the translation from 赫門 to Lyman -  but they are very close
;Lynn University;Boca Raton;Florida;26.3752;-80.108;;United States;美國;
;Lyon College;Batesville;Arkansas;35.7687;-91.6227;;United States;美國;
瑪卡萊斯特學院;Macalester College;Saint Paul;Minnesota;44.94441;-93.09327;;United States;美國;
;MacMurray College;Jacksonville;Illinois;39.7292;-90.2317;;United States;美國;
;Madonna University;Livonia;Michigan;42.3972;-83.3733;;United States;美國;
;Magdalen College of the Liberal Arts;Warner;Oklahoma;35.4905;-95.3087;;United States;美國;
;Maharishi International University;Fairfield;Iowa;41.0064;-91.9667;;United States;美國;
;Maine College of Art;Portland;Oregon;45.5371;-122.65;;United States;美國;
;Maine Maritime Academy;Castine;Maine;44.38785;-68.79975;;United States;美國;
;Malone University;Canton;Ohio;40.8078;-81.3676;;United States;美國;
;Manchester University;North Manchester;Indiana;41.0044;-85.7751;;United States;美國;
;Manhattan Christian College;Manhattan;Kansas;39.1886;-96.6048;;United States;美國;
曼哈頓大學;Manhattan College;Riverdale;New York;43.21035;-75.4324;;United States;美國;
;Manhattan School of Music;New York City;New York;40.6943;-73.9249;;United States;美國;
晨邊音樂學院;Manhattan School of Music;New York City;New York;40.6943;-73.9249;;United States;美國;
;Manhattanville College;Purchase;New York;41.04093;-73.71457;;United States;美國;
;Mansfield University of Pennsylvania;Mansfield;Pennsylvania;41.8062;-77.0787;;United States;美國;
;Maranatha Baptist University;Watertown;Wisconsin;43.1893;-88.7285;;United States;美國;
;Maria College;Albany;New York;42.6664;-73.7987;;United States;美國;
;Marian University;Fond du Lac;Wisconsin;43.7718;-88.4397;;United States;美國;
;Marian University Wisconsin;Fond du Lac;Wisconsin;43.7718;-88.4397;;United States;美國;
;Marietta College;Marietta;Georgia;33.9533;-84.5422;;United States;美國;
;Marist College;Poughkeepsie;New York;41.695;-73.9211;;United States;美國;
馬奎特大學;Marquette University;Milwaukee;Wisconsin;43.0642;-87.9675;;United States;美國;
;Mars Hill University;Mars Hill;North Carolina;35.8283;-82.549;;United States;美國;
;Marshall B. Ketchum University;Fullerton;California;33.8841;-117.9279;;United States;美國;
;Marshall University;Huntington;West Virginia;38.4109;-82.4345;;United States;美國;
;Martin Luther College;New Ulm;Minnesota;44.312;-94.4685;;United States;美國;
;Martin University;Indianapolis;Indiana;39.7771;-86.1458;;United States;美國;
鮑而溫學院;Mary Baldwin University;Staunton;Virginia;38.1593;-79.0611;;United States;美國;
瑪麗曼斯學院;Mary Manse College;Toledo;Ohio;41.6638;-83.5827;;United States;美國;existed only from 1922 until 1975
;Maryland Institute College of Art;Baltimore;Maryland;39.3051;-76.6144;;United States;美國;
;Maryland University of Integrative Health;Laurel;Maryland;39.0949;-76.8622;;United States;美國;
;Marymount California University;Rancho Palos Verdes;California;33.7554;-118.3634;;United States;美國;
;Marymount Manhattan College;New York City;New York;40.6943;-73.9249;;United States;美國;
;Marymount University;Arlington;Virginia;38.8786;-77.1011;;United States;美國;
;Maryville College;Maryville;Tennessee;35.7468;-83.9789;;United States;美國;
;Maryville University;St. Louis;Missouri;38.6359;-90.2451;;United States;美國;
;Marywood University;Scranton;Pennsylvania;41.4044;-75.6649;;United States;美國;
麻省農業專門學校;Massachusetts Agricultural College;Amherst;Massachusetts;42.36723;-72.51852;;United States;美國;Massachusetts Agricultural College (1863–1931) -  Massachusetts State College (1931–1947) -  University of Massachusetts Amherst (1947 - present)
;Massachusetts College of Art and Design;Boston;Massachusetts;42.3188;-71.0852;;United States;美國;
;Massachusetts College of Liberal Arts;North Adams;Massachusetts;42.6844;-73.1166;;United States;美國;
麻省眼科研究所;Massachusetts Institute of Eye Research;Cambridge;Massachusetts;42.3759;-71.1185;;United States;美國;
麻省理工學院;Massachusetts Institute of Technology;Cambridge;Massachusetts;42.3759;-71.1185;;United States;美國;
;Massachusetts Maritime Academy;Buzzards Bay;Massachusetts;41.755;-70.6128;;United States;美國;
;Massachusetts School of Law;Andover;Massachusetts;42.65843;-71.137;;United States;美國;
馬薩諸塞州立大學;Massachusetts State University;Bridgewater;Massachusetts;41.99038;-70.97504;;United States;美國;
;Mayo Clinic College of Medicine and Science;Rochester;Minnesota;44.0154;-92.478;;United States;美國;
;Mayville State University;Mayville;North Dakota;47.4982;-97.3264;;United States;美國;
;McDaniel College;Westminster;Maryland;39.5796;-77.0067;;United States;美國;
;McKendree University;Lebanon;Illinois;38.6005;-89.8114;;United States;美國;
;McMurry University;Abilene;Texas;32.4543;-99.7384;;United States;美國;
;McNeese State University;Lake Charles;Louisiana;30.201;-93.2111;;United States;美國;
;McPherson College;McPherson;Kansas;38.3714;-97.6605;;United States;美國;
;MCPHS University;Boston;Massachusetts;42.3188;-71.0852;;United States;美國;
;Medaille College;Buffalo;New York;42.9018;-78.8487;;United States;美國;
;Medgar Evers College;Brooklyn;New York;40.6501;-73.9496;;United States;美國;
;Medical College of Wisconsin;Milwaukee;Wisconsin;43.0642;-87.9675;;United States;美國;
;Medical University of South Carolina;Charleston;South Carolina;32.8168;-79.9687;;United States;美國;
;Meharry Medical College;Nashville;Tennessee;36.1715;-86.7842;;United States;美國;
;Menlo College;Atherton;California;37.454;-122.2031;;United States;美國;
摩斯大學;Mercer University;Macon;Georgia;32.8065;-83.6974;;United States;美國;
;Mercy College;Dobbs Ferry;New York;41.0127;-73.8697;;United States;美國;
;Mercy College of Health Sciences;Des Moines;Iowa;41.5725;-93.6105;;United States;美國;
;Mercy College of Ohio;Toledo;Ohio;41.6638;-83.5827;;United States;美國;
;Mercyhurst University;Erie;Pennsylvania;42.1167;-80.0733;;United States;美國;
;Meredith College;Raleigh;North Carolina;35.8324;-78.6429;;United States;美國;
;Merrimack College;North Andover;Massachusetts;42.6987;-71.13506;;United States;美國;
;Messiah University;Mechanicsburg;Pennsylvania;40.2115;-77.006;;United States;美國;
;Methodist College;Peoria;Illinois;40.752;-89.6154;;United States;美國;
;Methodist University;Fayetteville;Arkansas;36.0714;-94.1661;;United States;美國;
;Metropolitan College of New York;New York City;New York;40.6943;-73.9249;;United States;美國;
;Metropolitan State University;Saint Paul;Minnesota;44.94441;-93.09327;;United States;美國;
;Metropolitan State University of Denver;Denver;Colorado;39.762;-104.8758;;United States;美國;
;MGH Institute of Health Professions;Boston;Massachusetts;42.3188;-71.0852;;United States;美國;
;Miami Dade College;Miami;Florida;25.784;-80.2101;;United States;美國;
邁阿密海軍訓練團;Miami Naval Training Corps;Miami;Florida;25.784;-80.2101;;United States;美國;
;Miami University;Oxford;Ohio;39.5061;-84.7446;;United States;美國;
俄亥俄州邁阿密大學;Miami University of Ohio;Oxford;Florida;28.92748;-82.03731;;United States;美國;
密歇根航空學院;Michigan Institute of Aeronautics;Belleville;Michigan;42.20474761095053;-83.48534611205486;;United States;美國;
密執安礦業學院;Michigan Mining School;Houghton;Michigan;47.1118;-88.5675;;United States;美國;Michigan Mining School (1885–1897) -  Michigan College of Mines (1897–1927) -  Michigan College of Mining and Technology (1927–1964) -  Michigan Technological University (1964 - present)
;Michigan School of Psychology;Farmington Hills;Michigan;42.486;-83.3771;;United States;美國;
密執安州立學院;Michigan State College;East Lansing;Michigan;42.748;-84.4836;;United States;美國;
密執安州大學;Michigan State University;East Lansing;Michigan;42.748;-84.4836;;United States;美國;
密執安州立大學;Michigan State University;East Lansing;Michigan;42.748;-84.4836;;United States;美國;
;Michigan State Western University;Kalamazoo;Michigan;42.2749;-85.5882;;United States;美國;
;Michigan Technological University;Houghton;Michigan;47.1118;-88.5675;;United States;美國;
;Michigan University;Ann Arbor;Michigan;42.2759;-83.731;;United States;美國;
;Mid-America Christian University;Oklahoma City;Oklahoma;35.4676;-97.5136;;United States;美國;
;Mid-Atlantic Christian University;Elizabeth City;North Carolina;36.2942;-76.236;;United States;美國;
;MidAmerica Nazarene University;Olathe;Kansas;38.8833;-94.82;;United States;美國;
;Middle Georgia State University;Macon;Georgia;32.8065;-83.6974;;United States;美國;
;Middle Tennessee School of Anesthesia;Madison;Tennessee;36.25616;-86.71389;;United States;美國;
;Middle Tennessee State University;Murfreesboro;Tennessee;35.849;-86.4121;;United States;美國;
;Middlebury College;Middlebury;Vermont;-73.1611181357085;44.0801679348877;;United States;美國;
米德賽克斯大學;Middlesex University;Cambridge;Massachusetts;42.3759;-71.1185;;United States;美國;Middlesex University (1914 - 1947) -  then closed
;Midland College;Midland;Texas;32.0243;-102.1147;;United States;美國;
;Midland University;Fremont;Nebraska;41.4395;-96.4873;;United States;美國;
;Midway University;Midway;Kentucky;38.1562;-84.676;;United States;美國;
;Midwestern State University;Wichita Falls;Texas;33.9072;-98.5291;;United States;美國;
;Midwestern University;Downers Grove;Illinois;41.7949;-88.0172;;United States;美國;
;Miles College;Fairfield;Connecticut;41.14121;-73.26373;;United States;美國;
;Millersville University of Pennsylvania;Millersville;Pennsylvania;40.0047;-76.3522;;United States;美國;
;Milligan University;Elizabethton;Tennessee;36.3367;-82.237;;United States;美國;
;Millikin University;Decatur;Illinois;39.8557;-88.9342;;United States;美國;
米爾斯學院;Mills College;Oakland;California;37.7904;-122.2166;;United States;美國;
米爾薩普斯學院;Millsaps College;Jackson;Mississippi;32.3157;-90.2125;;United States;美國;
米爾頓學院;Milton College;Milton;Wisconsin;42.775;-88.9429;;United States;美國;Milton College (1844 - 1982) -  then closed
;Milwaukee Institute of Art and Design;Milwaukee;Wisconsin;43.0642;-87.9675;;United States;美國;
密爾沃基工程學院;Milwaukee School of Engineering;Milwaukee;Wisconsin;43.0642;-87.9675;;United States;美國;Missouri School of Mines and Metallurgy (1870–1964) -  University of Missouri at Rolla (1964–1968) -  University of Missouri–Rolla (1968–2008) -  Missouri University of Science and Technology (2008 - present)
;Minneapolis College of Art and Design;Minneapolis;Minnesota;44.9635;-93.2678;;United States;美國;
;Minnesota Oakwood University;Huntsville;Alabama;34.6981;-86.6412;;United States;美國;
明尼蘇達州立大學;Minnesota State University;Mankato;Minnesota;44.1715;-93.9772;;United States;美國;
;Minnesota State University Moorhead;Moorhead;Minnesota;46.8673;-96.7461;;United States;美國;
;Minot State University;Minot;North Dakota;48.2375;-101.278;;United States;美國;
;Misericordia University;Dallas;Texas;32.7935;-96.7667;;United States;美國;
;Mississippi College;Clinton;New York;43.0489;-75.3784;;United States;美國;
;Mississippi State University;Starkville;Mississipi;-88.8053431564688;33.7309322450967;;United States;美國;
;Mississippi University for Women;Columbus;Ohio;39.9862;-82.9855;;United States;美國;
;Mississippi Valley State University;Itta Bena;Mississippi;33.5003;-90.3256;;United States;美國;
;Missouri Baptist University;Saint Louis;Missouri;-90.2063849943261;38.6246455755308;;United States;美國;
密蘇裏礦冶學院;Missouri Institute of Mining and Metallurgy;Rolla;Missouri;37.9459;-91.7607;;United States;美國;
密蘇裏新聞學院;Missouri School of Journalism;Columbia;Missouri;38.9472;-92.3268;;United States;美國;
密蘇裏礦業和冶金學院;Missouri School of Mines and Metallurgy;Rolla;Missouri;37.9459;-91.7607;;United States;美國;
;Missouri Southern State University;Joplin;Missouri;37.0757;-94.5018;;United States;美國;
密蘇裏州立腫瘤醫院;Missouri State Cancer Hospital;Columbia;Missouri;38.9472;-92.3268;;United States;美國;
;Missouri State College;Springfield;Missouri;37.1943;-93.2916;;United States;美國;
密蘇裏州立大學;Missouri State University;Springfield;Missouri;37.1943;-93.2916;;United States;美國;
密蘇裏州立學院;Missouri State University;Springfield;Missouri;37.1943;-93.2916;;United States;美國;
;Missouri University of Science and Technology;Rolla;Missouri;37.9459;-91.7607;;United States;美國;
;Missouri Valley College;Marshall;Missouri;39.1147;-93.201;;United States;美國;
;Missouri Western State University;Saint Joseph;Missouri;39.76861;-94.84663;;United States;美國;
;Mitchell College;New London;Connecticut;41.3502;-72.1022;;United States;美國;
;Mitchell Hamline School of Law;Saint Paul;Minnesota;44.94441;-93.09327;;United States;美國;
;Molloy College;Rockville Centre;New York;40.6643;-73.6383;;United States;美國;
蒙莫斯學院;Monmouth College;West Long Branch;New Jersey;40.2883;-74.0185;;United States;美國;Monmouth College (1956–1995) -  Monmouth University (1995 - present)
;Monmouth University;West Long Branch;New Jersey;40.2883;-74.0185;;United States;美國;
;Monroe College;New York City;New York;43.0407;-76.1437;;United States;美國;
孟松學院;Monson Academy;Wilbraham;Massachusetts;42.12371;-72.43147;;United States;美國;Monson Academy (1804 - 1971) -  then merged into Wilbraham & Monson Academy (1971 - present)
蒙大拿州立大學;Montana State University;Bozeman;Montana;45.6833;-111.0558;;United States;美國;
;Montana State University Billings;Billings;Montana;45.7891;-108.5526;;United States;美國;
;Montana State University-Northern;Havre;Montana;48.5427;-109.6804;;United States;美國;
;Montana Tech;Butte;Montana;45.902;-112.6571;;United States;美國;
蒙大拿大學理工分校;Montana Tech of the University of Montana;Butte;Montana;45.902;-112.6571;;United States;美國;Montana Tech of the University of Montana (1994–2018) - Montana Technological University (2018 - present)
;Montclair State University;Montclair;New Jersey;40.82553;-74.21109;;United States;美國;
;Montreat College;Montreat;North Carolina;35.6478;-82.3001;;United States;美國;
;Montserrat College of Art;Beverly;Massachusetts;42.5681;-70.8627;;United States;美國;
慕迪聖經學院;Moody Bible Institute;Chicago;Illinois;41.8375;-87.6866;;United States;美國;
;Moore College of Art and Design;Philadelphia;Pennsylvania;40.0077;-75.1339;;United States;美國;
;Moravian College;Bethlehem;Pennsylvania;40.6266;-75.3679;;United States;美國;
;Morehead State University;Morehead;Kentucky;38.1906;-83.4466;;United States;美國;
;Morehouse College;Atlanta;Georgia;33.7628;-84.422;;United States;美國;
;Morehouse School of Medicine;Atlanta;Georgia;33.7628;-84.422;;United States;美國;
;Morgan State University;Baltimore;Maryland;39.3051;-76.6144;;United States;美國;
;Morningside College;Sioux City;Iowa;42.4959;-96.3901;;United States;美國;
晨邊大學;Morningside University;Sioux City;Iowa;42.4959;-96.3901;;United States;美國;
;Morris College;Sumter;South Carolina;33.9392;-80.393;;United States;美國;
;Morrisville State College;Morrisville;North Carolina;35.8368;-78.8348;;United States;美國;
;Mount Aloysius College;Cresson;Pennsylvania;40.4626;-78.5866;;United States;美國;
;Mount Carmel College of Nursing;Columbus;Ohio;39.9862;-82.9855;;United States;美國;
麻省霍利山女子大學;Mount Holly Women's University;South Hadley;Massachusetts;42.25842;-72.57453;;United States;美國;
曼荷蓮女子學院;Mount Holyoke College;South Hadley;Massachusetts;42.25842;-72.57453;;United States;美國;
;Mount Holyoke Women's University;South Hadley;Massachusetts;42.25842;-72.57453;;United States;美國;
;Mount Marty University;Yankton;South Dakota;42.8901;-97.3927;;United States;美國;
瑪麗山學院;Mount Mary College;Milwaukee;Wisconsin;43.0642;-87.9675;;United States;美國;Mount Mary College (1928–2013) -  Mount Mary University (2013 - present)
;Mount Mary University;Milwaukee;Wisconsin;43.0642;-87.9675;;United States;美國;
;Mount Mercy University;Cedar Rapids;Iowa;41.9662;-91.6783;;United States;美國;
;Mount Saint Mary College;Newburgh;New York;41.50343;-74.01042;;United States;美國;
;Mount Saint Mary's University;Los Angeles;California;34.1141;-118.4068;;United States;美國;
;Mount Saint Mary's University;Emmitsburg;Maryland;39.7051;-77.3217;;United States;美國;
;Mount St. Joseph University;Cincinnati;Ohio;39.1413;-84.506;;United States;美國;
;Mount St. Mary's University;Emmitsburg;Maryland;39.7051;-77.3217;;United States;美國;
;Mount Vernon Nazarene University;Mount Vernon;Ohio;40.3854;-82.4737;;United States;美國;
丹佛航空技術學院;MSU Denver’s Aviation and Aerospace Science Department (AVS);Denver;Colorado;39.762;-104.8758;;United States;美國;
蒙脫霍育克大學;Mt. Holyoke College;South Hadley;Massachusetts;42.25842;-72.57453;;United States;美國;
;Muhlenberg College;Allentown;Pennsylvania;40.5961;-75.4756;;United States;美國;
摩爾特諾馬大學;Multnomah University;Portland;Oregon;45.5371;-122.65;;United States;美國;Multnomah School of the Bible (1936–1993) -  Multnomah Bible College (1993–2008) -  Multnomah University (2008 - present)
;Murray State University;Murray;Kentucky;36.6146;-88.3207;;United States;美國;
;Muskingum University;New Concord;Ohio;39.9937;-81.7381;;United States;美國;
;Naropa University;Boulder;Colorado;40.0248;-105.2524;;United States;美國;
;National American University;Rapid City;South Dakota;44.0716;-103.2204;;United States;美國;
商務部國立標準局;National Bureau of Standards;Washington;District of Columbia;38.9047;-77.0163;;United States;美國;National Bureau of Standards (1901 - 1988) -   National Institute of Standards and Technology (1988 - present) It's an agency of the United States Department of Commerce
;National Defense University;Fort Lesley J McNair;District of Columbia;38.8687709006026;-77.0139514730121;;United States;美國;
美國國立衛生研究院;National Institute of Health;Bethesda;Maryland;38.9866;-77.1188;;United States;美國;
;National Louis University;Chicago;Illinois;41.8375;-87.6866;;United States;美國;
;National University;La Jolla;California;33.85752;-117.87645;;United States;美國;
;National University of Health Sciences;Lombard;Illinois;41.8741;-88.0157;;United States;美國;
;Naval Postgraduate School;Monterey;California;36.5919;-121.8808;;United States;美國;
;Nazarene Bible College;Colorado Springs;Colorado;38.8674;-104.7605;;United States;美國;
;Nazareth College;Rochester;New York;43.168;-77.6162;;United States;美國;
;Nebraska Christian College;Papillion;Nebraska;41.1511;-96.0665;;United States;美國;
;Nebraska Methodist College;Omaha;Nebraska;41.2627;-96.0529;;United States;美國;
;Nebraska University;Lincoln;Nebraska;40.8099;-96.6784;;United States;美國;
尼布拉斯卡大學;Nebraska University Lincoln;Lincoln;Nebraska;40.8099;-96.6784;;United States;美國;
;Nebraska Wesleyan University;Lincoln;Nebraska;40.8099;-96.6784;;United States;美國;
;Neumann University;Aston;Pennsylvania;39.87428;-75.44825;;United States;美國;
;Nevada State College;Henderson;Nevada;36.0133;-115.0381;;United States;美國;
新貝德福德紡織工業學校;New Bedford Textile School;New Bedford;Massachusetts;41.6697;-70.9428;;United States;美國;New Bedford Textile School (1899 - 1946) -  New Bedford Textile Institute (1946 - 1957) -   New Bedford Institute of Textiles and Technology (1957 - 1964)
;New College of Florida;Sarasota;Florida;27.3387;-82.5432;;United States;美國;
新英格蘭飛機學院;New England Aviation Academy;Brunswick;Maine;43.91452;-69.96533;;United States;美國;
;New England College;Henniker;New Hampshire;43.1798;-71.8223;;United States;美國;
;New England College of Optometry;Boston;Massachusetts;42.3188;-71.0852;;United States;美國;
;New England Conservatory;Boston;Massachusetts;42.3188;-71.0852;;United States;美國;
;New England Institute of Technology;East Greenwich;Rhode Island;41.66038;-71.45589;;United States;美國;
;New England Law | Boston;Boston;Massachusetts;42.3188;-71.0852;;United States;美國;
;New Hope Christian College;Eugene;Oregon;44.0564;-123.1174;;United States;美國;
;New Jersey City University;Jersey City;New Jersey;40.7184;-74.0686;;United States;美國;
;New Jersey Institute of Technology;Newark;New Jersey;40.7245;-74.1725;;United States;美國;
新林肯大學;New Lincoln University;Lincoln;Nebraska;40.8099;-96.6784;;United States;美國;
;New Mexico Highlands University;Las Vegas;Nevada;36.2333;-115.2654;;United States;美國;
;New Mexico Institute of Mining and Technology;Socorro;New Mexico;34.0543;-106.9065;;United States;美國;
;New Mexico State University;Las Cruces;New Mexico;32.3265;-106.7893;;United States;美國;
;New York Academy of Art;New York City;New York;40.6943;-73.9249;;United States;美國;
;New York City College of Technology;New York City;New York;40.6943;-73.9249;;United States;美國;
;New York City College of Technology CUNY;Brooklyn;New York;40.6501;-73.9496;;United States;美國;
;New York College of Podiatric Medicine;New York City;New York;40.6943;-73.9249;;United States;美國;
紐約協和神學院;New York Concord Theological Seminary;New York City;New York;40.6943;-73.9249;;United States;美國;
紐約音樂學院;New York Conservatory of Music;New York City;New York;40.6943;-73.9249;;United States;美國;
紐約花柳病研究所;New York Flower Willow Institute;New York City;New York;40.6943;-73.9249;;United States;美國;
紐約衛生研究院;New York Institute of Health;New York City;New York;40.6943;-73.9249;;United States;美國;
紐約科技大學;New York Institute of Technology;Old Westbury;New York;40.7866;-73.5975;;United States;美國;
;New York Law School;New York City;New York;40.6943;-73.9249;;United States;美國;
紐約圖書館專科學校;New York Library College;New York City;New York;40.6943;-73.9249;;United States;美國;
紐約醫學院;New York Medical College;Valhalla;New York;41.0773;-73.7778;;United States;美國;
紐約腫瘤紀念醫院;New York Memorial Cancer Hospital;New York City;New York;40.6943;-73.9249;;United States;美國;
紐約紀念中心;New York Memorial Center;New York City;New York;40.6943;-73.9249;;United States;美國;
紐約進修學院;New York School of Advanced Studies;New York City;New York;40.6943;-73.9249;;United States;美國;
;New York School of Interior Design;New York City;New York;40.6943;-73.9249;;United States;美國;
紐約州立圖書館學校;New York State Library School;New York City;New York;40.6943;-73.9249;;United States;美國;
紐約大學;New York University;New York City;New York;40.6943;-73.9249;;United States;美國;
布魯克林工學院;New York University Tandon School of Engineering;New York City;New York;40.6943;-73.9249;;United States;美國;
;Newberry College;Newberry;South Carolina;34.2813;-81.601;;United States;美國;
麻省紐必弗紡織學院;Newbever Textile Institute of Massachusetts;Boston;Massachusetts;42.3188;-71.0852;;United States;美國;
;Newman University;Wichita;Kansas;37.6895;-97.3443;;United States;美國;
;NewSchool of Architecture and Design;San Diego;California;32.8313;-117.1222;;United States;美國;
尼亞加拉大學;Niagara University;Lewiston;New York;43.17256;-79.03588;;United States;美國;同一个学校 - 不同的中文翻译。
;Nicholls State University;Thibodaux;Louisiana;29.7949;-90.8146;;United States;美國;
;Nichols College;Dudley;Massachusetts;42.0451;-71.93007;;United States;美國;
;Norfolk State University;Norfolk;Virginia;36.8945;-76.259;;United States;美國;
;North Carolina Agricultural and Technical State University;Greensboro;North Carolina;36.0956;-79.8271;;United States;美國;
;North Carolina Central University;Durham;North Carolina;35.9792;-78.9022;;United States;美國;
北卡羅萊納州立農工大學;North Carolina State A&M University;Raleigh;North Carolina;35.8324;-78.6429;;United States;美國;
北卡羅來納州立大學;North Carolina State University;Raleigh;North Carolina;35.8324;-78.6429;;United States;美國;
;North Carolina Wesleyan College;Rocky Mount;North Carolina;35.9685;-77.804;;United States;美國;
;North Central College;Naperville;Illinois;41.748;-88.1659;;United States;美國;
;North Central University;Minneapolis;Minnesota;44.9635;-93.2678;;United States;美國;
;North Dakota State University;Fargo;North Dakota;46.8651;-96.8292;;United States;美國;
;North Greenville University;Tigerville;South Carolina;35.0669;-82.3695;;United States;美國;
;North Park University;Chicago;Illinois;41.8375;-87.6866;;United States;美國;
;Northeast Ohio Medical University;Rootstown;Ohio;41.09895;-81.2426;;United States;美國;
;Northeastern Illinois University;Chicago;Illinois;41.8375;-87.6866;;United States;美國;
;Northeastern State University;Tahlequah;Oklahoma;35.9112;-94.977;;United States;美國;
東北大學;Northeastern University;Boston;Massachusetts;42.3188;-71.0852;;United States;美國;应该在德国
;Northern Arizona University;Flagstaff;Arizona;35.1872;-111.6194;;United States;美國;
北方浸會神學院;Northern Baptist Theological Seminary;Lombard;Illinois;41.8741;-88.0157;;United States;美國;
;Northern Illinois University;DeKalb;Illinois;41.9314;-88.7481;;United States;美國;
;Northern Kentucky University;Highland Heights;Kentucky;39.0354;-84.4567;;United States;美國;
;Northern Michigan University;Marquette;Michigan;46.544;-87.4082;;United States;美國;
;Northern New Mexico College;Espanola;New Mexico;-106.010444016066;36.7023107919474;;United States;美國;
;Northern State University;Aberdeen;South Dakota;45.4649;-98.4686;;United States;美國;
;Northern Vermont University;Johnson;Arkansas;36.1328;-94.1757;;United States;美國;
;Northland College;Ashland;Virginia;37.7597;-77.4716;;United States;美國;
;Northpoint Bible College;Haverhill;Massachusetts;42.7838;-71.0871;;United States;美國;
;Northwest Florida State College;Niceville;Florida;30.529;-86.4748;;United States;美國;
;Northwest Missouri State University;Maryville;Missouri;40.3428;-94.8702;;United States;美國;
;Northwest Nazarene University;Nampa;Idaho;43.5844;-116.5638;;United States;美國;
西北大學;Northwest University;Kirkland;Washington;47.697;-122.2057;;United States;美國;
;Northwestern College;Orange City;Florida;28.9348;-81.2881;;United States;美國;
;Northwestern Health Sciences University;Bloomington;Minnesota;44.8306;-93.3151;;United States;美國;
;Northwestern Oklahoma State University;Alva;Oklahoma;36.7895;-98.6649;;United States;美國;
;Northwestern State University of Louisiana;Natchitoches;Louisiana;31.7315;-93.0975;;United States;美國;
;Northwestern University;Evanston;Illinois;42.0464;-87.6943;;United States;美國;
芝加哥西北大學;Northwestern University of Chicago;Chicago;Illinois;41.8375;-87.6866;;United States;美國;
伊利諾州西北大學;Northwestern University of Illinois;Evanston;Illinois;42.0464;-87.6943;;United States;美國;
;Northwood University;Midland;Michigan;43.6241;-84.2319;;United States;美國;
;Norwich University;Northfield;Minnesota;44.455;-93.1698;;United States;美國;
北田大學;Norwich University (Northfield);Northfield;Vermont;44.15117;-72.6565;;United States;美國;
;Notre Dame College;Cleveland;Ohio;41.4764;-81.6805;;United States;美國;
諾威奇大學;Notre Dame de Namur University;Belmont;California;37.5154;-122.2953;;United States;美國;
;Notre Dame of Maryland University;Baltimore;Maryland;39.3051;-76.6144;;United States;美國;
諾特丹大學;Notre Dame University;Notre Dame;Indiana;41.7014;-86.2378;;United States;美國;
;Nova Southeastern University;Fort Lauderdale;Florida;26.1412;-80.1464;;United States;美國;
;Nyack College;Nyack;New York;41.0919;-73.9143;;United States;美國;
;Oak Hills Christian College;Bemidji;Minnesota;47.4828;-94.8797;;United States;美國;
;Oak Point University;Chicago;Illinois;41.8375;-87.6866;;United States;美國;
;Oakland City University;Oakland City;Indiana;38.3378;-87.3493;;United States;美國;
;Oakland University;Rochester;New York;43.168;-77.6162;;United States;美國;
;Oakwood University;Huntsville;Alabama;34.6981;-86.6412;;United States;美國;
奧伯林大學;Oberlin College;Oberlin;Ohio;41.286;-82.2198;;United States;美國;
奧伯林學院;Oberlin College;Oberlin;Ohio;41.286;-82.2198;;United States;美國;
歐柏林音樂學院;Oberlin Music College;Oberlin;Ohio;41.286;-82.2198;;United States;美國;
奧柏林神學院;Oberlin Theological Seminary;Oberlin;Ohio;41.286;-82.2198;;United States;美國;
歐柏林大學;Occidental College;Los Angeles;California;34.1141;-118.4068;;United States;美國;
;Oglethorpe University;Atlanta;Georgia;33.7628;-84.422;;United States;美國;
;Ohio Christian University;Circleville;Ohio;39.6063;-82.9334;;United States;美國;
;Ohio Dominican University;Columbus;Ohio;39.9862;-82.9855;;United States;美國;
北俄亥俄大學;Ohio Northern University;Ada;Ohio;40.7681;-83.8251;;United States;美國;
俄亥俄州格乃爾學院;Ohio State College;Columbus;Ohio;39.9862;-82.9855;;United States;美國;
俄亥俄州大學;Ohio State University;Columbus;Ohio;39.9862;-82.9855;;United States;美國;
俄亥俄州立大學;Ohio State University;Columbus;Ohio;39.9862;-82.9855;;United States;美國;
歐省大學;Ohio State University;Columbus;Ohio;39.9862;-82.9855;;United States;美國;
俄亥俄大學;Ohio University;Athens;Ohio;39.327;-82.0987;;United States;美國;
歐海歐大學;Ohio University;Athens;Ohio;39.327;-82.0987;;United States;美國;
;Ohio University Southern;Ironton;Ohio;38.5323;-82.6779;;United States;美國;
;Ohio University-Chillicothe;Chillicothe;Ohio;39.3393;-82.9939;;United States;美國;
;Ohio Valley University;Vienna;West Virginia;39.324;-81.5383;;United States;美國;
俄亥俄州衛斯理大學;Ohio Wesleyan University;Delaware;Ohio;40.2851;-83.0741;;United States;美國;
威斯靈大學;Ohio Wesleyan University;Delaware;Ohio;40.2851;-83.0741;;United States;美國;
俄克拉荷馬農業機械學院;Oklahoma Agricultural and Mechanical College;Stillwater;Oklahoma;36.1317;-97.0742;;United States;美國;Oklahoma Agricultural and Mechanical College (1980-1957) -  then: Oklahoma State University (1957-present)
;Oklahoma Baptist University;Shawnee;Oklahoma;35.3531;-96.9647;;United States;美國;
;Oklahoma Christian University;Oklahoma City;Oklahoma;35.4676;-97.5136;;United States;美國;
;Oklahoma Christian University;Edmond;Oklahoma;35.6689;-97.416;;United States;美國;
;Oklahoma City University;Oklahoma City;Oklahoma;35.4676;-97.5136;;United States;美國;
;Oklahoma Panhandle State University;Goodwell;Oklahoma;36.5948;-101.6224;;United States;美國;
俄克拉荷馬州立大學;Oklahoma State University;Stillwater;Oklahoma;36.1317;-97.0742;;United States;美國;
;Oklahoma Wesleyan University;Bartlesville;Oklahoma;36.7365;-95.9456;;United States;美國;
;Old Dominion University;Norfolk;Virginia;36.8945;-76.259;;United States;美國;
;Olivet College;Olivet;Michigan;42.444;-84.9246;;United States;美國;
;Olivet Nazarene University;Bourbonnais;Illinois;41.183;-87.8784;;United States;美國;
;Oral Roberts University;Tulsa;Oklahoma;36.1283;-95.9042;;United States;美國;
;Oregon Health & Science University;Portland;Oregon;45.5371;-122.65;;United States;美國;
;Oregon Institute of Technology;Klamath Falls;Oregon;42.2195;-121.7754;;United States;美國;
;Oregon Otis College of Art and Design;Los Angeles;California;34.1141;-118.4068;;United States;美國;
俄勒岡州立大學;Oregon State University;Corvallis;Oregon;44.5698;-123.2779;;United States;美國;
;Otis College of Art and Design;Los Angeles;California;34.1141;-118.4068;;United States;美國;
;Ottawa University;Ottawa;Kansas;38.5996;-95.2636;;United States;美國;
;Otterbein University;Westerville;Ohio;40.1241;-82.921;;United States;美國;
;Ouachita Baptist University;Arkadelphia;Arkansas;34.1253;-93.0729;;United States;美國;
;Our Lady of the Lake University;San Antonio;Texas;29.4632;-98.5238;;United States;美國;
;Ozark Christian College;Joplin;Missouri;37.0757;-94.5018;;United States;美國;
;Pace University;New York City;New York;40.6943;-73.9249;;United States;美國;
;Pacific Lutheran University;Tacoma;Washington;47.2431;-122.4531;;United States;美國;
;Pacific Oaks College;Pasadena;California;34.1597;-118.139;;United States;美國;
太平洋宗教學校;Pacific School of Religion;Berkeley;California;37.8722;-122.276;;United States;美國;
太平洋聯合學院;Pacific Union College;Angwin;California;38.5776;-122.4513;;United States;美國;
;Pacific University;Forest Grove;Oregon;45.5243;-123.1097;;United States;美國;
;Pacifica Graduate Institute;Carpinteria;California;34.3962;-119.5118;;United States;美國;
;Paine College;Augusta;Georgia;33.3645;-82.0708;;United States;美國;
;Palm Beach Atlantic University;West Palm Beach;Florida;26.7469;-80.132;;United States;美國;
;Palm Beach State College;Lake Worth;Florida;26.70194;-80.04549;;United States;美國;
;Palo Alto University;Palo Alto;California;37.3905;-122.1468;;United States;美國;
;Pardee RAND Graduate School;Santa Monica;California;34.0235;-118.481;;United States;美國;
帕克大學;Park University;Parkville;Missouri;39.2005;-94.7225;;United States;美國;
;Parker University;Dallas;Texas;32.7935;-96.7667;;United States;美國;
;Paul Quinn College;Dallas;Texas;32.7935;-96.7667;;United States;美國;
;Paul Smith's College;Paul Smiths;New York;44.4341;-74.2533;;United States;美國;
;Peirce College;Philadelphia;Pennsylvania;40.0077;-75.1339;;United States;美國;
;Penn State College of Medicine;Hershey;Pennsylvania;40.2806;-76.6458;;United States;美國;
;Penn State University;University Park;Pennsylvania;40.80201;-77.85639;;United States;美國;
;Pennsylvania Academy of the Fine Arts;Philadelphia;Pennsylvania;40.0077;-75.1339;;United States;美國;
;Pennsylvania College of Art and Design;Lancaster;Pennsylvania;40.042;-76.3012;;United States;美國;
;Pennsylvania College of Health Sciences;Lancaster;Pennsylvania;40.042;-76.3012;;United States;美國;
;Pennsylvania College of Technology;Williamsport;Pennsylvania;41.2399;-77.037;;United States;美國;
柏省醫院護士學校;Pennsylvania Hospital School of Nursing;Philadelphia;Pennsylvania;40.0077;-75.1339;;United States;美國;不是大学。
賓夕法尼亞州大學;Pennsylvania State University;State College;Pennsylvania;40.7909;-77.8567;;United States;美國;
賓夕法尼亞州州立大學;Pennsylvania State University;State College;Pennsylvania;40.7909;-77.8567;;United States;美國;
賓夕法尼亞州立大學;Pennsylvania State University;State College;Pennsylvania;40.7909;-77.8567;;United States;美國;
;Pensacola State College;Pensacola;Florida;30.4413;-87.1911;;United States;美國;
;Pepperdine University;Malibu;California;34.037;-118.7839;;United States;美國;
;Peru State College;Peru;Nebraska;40.4786;-95.7313;;United States;美國;
;Pfeiffer University;Misenheimer;North Carolina;35.4819;-80.287;;United States;美國;
;Philander Smith College;Little Rock;Arkansas;34.7256;-92.3577;;United States;美國;
;Piedmont College;Demorest;Georgia;34.5648;-83.5424;;United States;美國;
;Pillar College;Newark;New Jersey;40.7245;-74.1725;;United States;美國;
皮勞耳大學;Pillsbury Baptist Bible College;Owatonna;Minnesota;44.09021133714722;-93.22642663745347;;United States;美國;
松堡大學;Pine Manor College;Chestnut Hill;Massachusetts;42.33602465214456;-71.16821555028065;;United States;美國;
;Pittsburg State University;Pittsburg;Kansas;37.4129;-94.6985;;United States;美國;
匹茲堡加尼基理工學院;Pittsburgh Garniki Institute of Technology;Pittsburgh;Pennsylvania;40.4397;-79.9763;;United States;美國;
;Pitzer College;Claremont;California;34.1259;-117.7153;;United States;美國;
;Plaza College;Jackson Heights;New York;40.6943;-73.9249;;United States;美國;
;Plymouth State University;Plymouth;New Hampshire;43.75702;-71.68813;;United States;美國;
;Point Loma Nazarene University;San Diego;California;32.8313;-117.1222;;United States;美國;
;Point Park University;Pittsburgh;Pennsylvania;40.4397;-79.9763;;United States;美國;
;Point University;West Point;New York;41.3645;-74.0123;;United States;美國;
;Polk State College;Winter Haven;Florida;28.0118;-81.7014;;United States;美國;
普蒙那大學;Pomona College;Claremont;California;34.1259;-117.7153;;United States;美國;
波莫納學院;Pomona College ;Claremont;California;34.1259;-117.7153;;United States;美國;
普蒙那大學;Pomona University;Pomona;California;34.0585;-117.7626;;United States;美國;
;Pontifical Faculty of the Immaculate Conception;Washington;District of Columbia;38.9047;-77.0163;;United States;美國;
;Portland State University;Portland;Oregon;45.5371;-122.65;;United States;美國;
;Post University;Waterbury;Connecticut;41.5582;-73.0361;;United States;美國;
;Prairie View A&M University;Prairie View;Texas;30.0847;-95.9892;;United States;美國;
普瑞特學院;Pratt Institute;Brooklyn;New York;40.6501;-73.9496;;United States;美國;第50行和第56行 - 是同一个学校 - 不同的中文名字。
;Presbyterian College;Clinton;New York;43.0489;-75.3784;;United States;美國;
;Prescott College;Prescott;Arizona;34.5849;-112.4473;;United States;美國;
;Presentation College;Aberdeen;South Dakota;45.4649;-98.4686;;United States;美國;
普林斯頓神學院;Princeton Theological Seminary;Princeton;New Jersey;40.3562;-74.6693;;United States;美國;
普林斯頓大學;Princeton University;Princeton;New Jersey;40.3562;-74.6693;;United States;美國;
普林斯頓大學研究院;Princeton University;Princeton;New Jersey;40.3562;-74.6693;;United States;美國;
普林斯頓研究所;Princeton University;Princeton;New Jersey;40.3562;-74.6693;;United States;美國;
普林斯頓高等研究所;Princeton University;Princeton;New Jersey;40.3562;-74.6693;;United States;美國;
普林斯頓高等研究院;Princeton University;Princeton;New Jersey;40.3562;-74.6693;;United States;美國;
普西學院;Princeton University;Princeton;New Jersey;40.3562;-74.6693;;United States;美國;
;Principia College;Elsah;Illinois;38.9541;-90.3553;;United States;美國;
;Providence Christian College;Pasadena;California;34.1597;-118.139;;United States;美國;
;Providence College;Providence;Rhode Island;41.823;-71.4187;;United States;美國;
;Purchase College;Purchase;New York;41.04093;-73.71457;;United States;美國;
普度大學;Purdue University;West Lafayette;Indiana;40.4432;-86.9238;;United States;美國;
普渡大學;Purdue University;West Lafayette;Indiana;40.4432;-86.9238;;United States;美國;
;Purdue University Fort Wayne;Fort Wayne;Indiana;41.0888;-85.1436;;United States;美國;
;Purdue University Northwest;Hammond;Indiana;41.6168;-87.4909;;United States;美國;
;Queens College;New York City;New York;40.6943;-73.9249;;United States;美國;
;Queens College City University of New York;Queens;New York;40.7498;-73.7976;;United States;美國;
;Queens University of Charlotte;Charlotte;North Carolina;35.2083;-80.8303;;United States;美國;
;Quincy University;Quincy;Illinois;39.9336;-91.3799;;United States;美國;
昆西大學;Quincy University ;Quincy;Illinois;39.9336;-91.3799;;United States;美國;
;Quinnipiac University;Hamden;Connecticut;41.39593;-72.89677;;United States;美國;
拉德克利夫學院;Radcliffe College;Cambridge;Massachusetts;42.3759;-71.1185;;United States;美國;Radcliffe College (1879-1999) -  full integration with Harvard University in 1999
拉格比學院;Radcliffe Institute, Harvard University;Cambridge;Massachusetts;42.3759;-71.1185;;United States;美國;
萊德克列夫女子學院;Radcliffe Women's College;Cambridge;Massachusetts;42.3759;-71.1185;;United States;美國;
;Radford University;Radford;Virginia;37.1229;-80.5587;;United States;美國;
;Ramapo College of New Jersey;Mahwah;New Jersey;41.08871;-74.14376;;United States;美國;
;Randolph College;Lynchburg;Virginia;37.4003;-79.1909;;United States;美國;
;Randolph-Macon College;Ashland;Virginia;37.7597;-77.4716;;United States;美國;
蘭道爾夫-麥肯學院;Randolph–Macon College;Ashland;Virginia;37.7597;-77.4716;;United States;美國;
;Rasmussen College;Bloomington;Minnesota;44.8306;-93.3151;;United States;美國;
萊佛士學院;Rasmussen College;St. Cloud;Minnesota;45.534;-94.1718;;United States;美國;
;Reed College;Portland;Oregon;45.5371;-122.65;;United States;美國;
;Regent University;Virginia Beach;Virginia;36.7335;-76.0435;;United States;美國;
;Regis College;Weston;Massachusetts;42.36676;-71.30311;;United States;美國;
;Regis University;Denver;Colorado;39.762;-104.8758;;United States;美國;
;Reinhardt University;Waleska;Georgia;34.3172;-84.5499;;United States;美國;
;Relay Graduate School of Education;New York City;New York;40.6943;-73.9249;;United States;美國;
仁塞利爾理工學院;Rensselaer Polytechnic Institute;Troy;New York;42.7354;-73.6751;;United States;美國;University of Houston–University Park (1983–1991) -   University of Houston (1991 - present)
仁斯利尔理工大学;Rensselaer Polytechnic Institute;Troy;New York;42.7354;-73.6751;;United States;美國;
伦塞勒工学院;Rensselaer Polytechnic Institute;Troy;New York;42.7354;-73.6751;;United States;美國;
伦塞勒理工学院;Rensselaer Polytechnic Institute;Troy;New York;42.7354;-73.6751;;United States;美國;
伦斯勒工业学院;Rensselaer Polytechnic Institute;Troy;New York;42.7354;-73.6751;;United States;美國;
伦氏理工学院;Rensselaer Polytechnic Institute;Troy;New York;42.7354;-73.6751;;United States;美國;
倫斯勒理工學院;Rensselaer Polytechnic Institute;Troy;New York;42.7354;-73.6751;;United States;美國;Case Institute of Technology (1947–1967) -  Case Western Reserve University (1967-present)
壬色列理工学院;Rensselaer Polytechnic Institute;Troy;New York;42.7354;-73.6751;;United States;美國;
壬色利理工學院;Rensselaer Polytechnic Institute;Troy;New York;42.7354;-73.6751;;United States;美國;
的伦瑟雷尔技术学院;Rensselaer Polytechnic Institute;Troy;New York;42.7354;-73.6751;;United States;美國;
紐約州瑞沙裏爾工學院;Rensselaer Polytechnic Institute;Troy;New York;42.7354;-73.6751;;United States;美國;
;Research College of Nursing;Kansas City;Missouri;39.1238;-94.5541;;United States;美國;
雷諾金屬學校;Reynolds Metals Company Technical Center;Richmond;Virginia;37.5295;-77.4756;;United States;美國;
;Rhode Island College;Providence;Rhode Island;41.823;-71.4187;;United States;美國;
;Rhode Island School of Design;Providence;Rhode Island;41.823;-71.4187;;United States;美國;
;Rhodes College;Memphis;Tennessee;35.1087;-89.9663;;United States;美國;
;Rice University;Houston;Texas;29.786;-95.3885;;United States;美國;
;Richmont Graduate University;Chattanooga;Tennessee;35.066;-85.2481;;United States;美國;
;Rider University;Lawrenceville;New Jersey;40.3018;-74.7378;;United States;美國;
;Ringling College of Art and Design;Sarasota;Florida;27.3387;-82.5432;;United States;美國;
;Ripon College;Ripon;Wisconsin;43.8436;-88.8386;;United States;美國;
;Rivier University;Nashua;New Hampshire;42.7491;-71.491;;United States;美國;
;Roanoke College;Salem;Virginia;37.2864;-80.0555;;United States;美國;
;Robert Morris University;Moon Township;Pennsylvania;-80.1849126240957;40.6893613614024;;United States;美國;
;Roberts Wesleyan College;Rochester;New York;43.168;-77.6162;;United States;美國;
特羅斯特工業大學;Rochester Institute of Technology;Rochester;New York;43.168;-77.6162;;United States;美國;
;Rochester University;Rochester Hills;Michigan;42.6645;-83.1563;;United States;美國;
紐約洛克菲勒研究所;Rockefeller Institute of New York;New York City;New York;40.6943;-73.9249;;United States;美國;
羅克福德學院;Rockford University;Rockford;Illinois;42.2596;-89.064;;United States;美國;
;Rockhurst University;Kansas City;Missouri;39.1238;-94.5541;;United States;美國;
;Rocky Mountain College;Billings;Montana;45.7891;-108.5526;;United States;美國;
;Rocky Mountain College of Art and Design;Lakewood;Colorado;39.6977;-105.1172;;United States;美國;
;Rocky Mountain University of Health Professions;Provo;Utah;40.2457;-111.6457;;United States;美國;
;Rocky Vista University;Parker;Colorado;39.5084;-104.7753;;United States;美國;
;Roger Williams University;Bristol;Tennessee;36.5572;-82.2154;;United States;美國;
;Rogers State University;Claremore;Oklahoma;36.3146;-95.6095;;United States;美國;
;Rollins College;Winter Park;Florida;28.5989;-81.3442;;United States;美國;
;Roosevelt University;Chicago;Illinois;41.8375;-87.6866;;United States;美國;
;Rosalind Franklin University of Medicine and Science;North Chicago;Illinois;42.3172;-87.8595;;United States;美國;
;Rose-Hulman Institute of Technology;Terre Haute;Indiana;39.466;-87.3751;;United States;美國;
;Roseman University of Health Sciences;Henderson;Nevada;36.0133;-115.0381;;United States;美國;
;Rosemont College;Rosemont;Pennsylvania;40.0306;-75.327;;United States;美國;
;Rowan University;Glassboro;New Jersey;39.7014;-75.1113;;United States;美國;
拉什大學;Rush University;Chicago;Illinois;41.8375;-87.6866;;United States;美國;同一个学校。不同的中文名字。
;Rust College;Holly Springs;Mississippi;34.7768;-89.4466;;United States;美國;
洛格斯大學;Rutgers University;New Brunswick;New Jersey;40.8158536588864;-74.4611610076916;;United States;美國;
羅格斯大學;Rutgers University;New Brunswick;New Jersey;40.8158536588864;-74.4611610076916;;United States;美國;also called Rutgers University since 1924
;Sacred Heart University;Fairfield;Connecticut;41.14121;-73.26373;;United States;美國;
;Saginaw Valley State University;University Center;Michigan;43.55836;-83.98248;;United States;美國;
;Saint Anselm College;Manchester;New Hampshire;42.9848;-71.4447;;United States;美國;
;Saint Anthony College of Nursing;Rockford;Illinois;42.2596;-89.064;;United States;美國;
;Saint Augustine College;Chicago;Illinois;41.8375;-87.6866;;United States;美國;
;Saint Augustine's University;Raleigh;North Carolina;35.8324;-78.6429;;United States;美國;
;Saint Elizabeth University;Morristown;New Jersey;40.7967;-74.4772;;United States;美國;
;Saint Francis Medical Center College of Nursing;Peoria;Illinois;40.752;-89.6154;;United States;美國;
;Saint Francis University;Loretto;Pennsylvania;40.5086;-78.6349;;United States;美國;
;Saint Joseph's College of Maine;Standish;Maine;43.73591;-70.552;;United States;美國;
;Saint Joseph's University;Philadelphia;Pennsylvania;40.0077;-75.1339;;United States;美國;
;Saint Leo University;Saint Leo;Florida;28.33723;-82.25842;;United States;美國;
聖路易斯大學;Saint Louis University;Saint Louis;Missouri;-90.2063849943261;38.6246455755308;;United States;美國;
;Saint Martin's University;Lacey;Washington;47.0462;-122.7933;;United States;美國;
;Saint Mary-of-the-Woods College;Saint Mary of the Woods;India;-87.4673927262661;39.544117904917;;United States;美國;
;Saint Mary's College;Notre Dame;Indiana;41.7014;-86.2378;;United States;美國;
;Saint Mary's College of California;Moraga;California;37.8439;-122.1225;;United States;美國;
;Saint Mary's University of Minnesota;Winona;Minnesota;44.0505;-91.6684;;United States;美國;
;Saint Michael's College;Burlington;Vermont;44.4876;-73.2316;;United States;美國;
聖帕特裏克神學院;Saint Patrick's Seminary and University;Menlo Park;California;37.4685;-122.1673;;United States;美國;
;Saint Peter's University;Jersey City;New Jersey;-74.0703115497194;40.7275346011466;;United States;美國;
;Saint Vincent College;Latrobe;Pennsylvania;40.3125;-79.3825;;United States;美國;
;Saint Xavier University;Chicago;Illinois;41.8375;-87.6866;;United States;美國;
;Salem College;Winston-Salem;North Carolina;36.1029;-80.261;;United States;美國;
;Salem State University;Salem;Massachusetts;42.5129;-70.9021;;United States;美國;
;Salem University;Salem;West Virginia;39.2849;-80.5645;;United States;美國;
;Salisbury University;Salisbury;Maryland;38.3756;-75.5865;;United States;美國;
;Salus University;Elkins Park;Pennsylvania;40.0775;-75.128;;United States;美國;
;Salve Regina University;Newport;Rhode Island;41.4801;-71.3203;;United States;美國;
;Sam Houston State University;Huntsville;Alabama;34.6981;-86.6412;;United States;美國;
;Samford University;Birmingham;Alabama;33.5279;-86.7971;;United States;美國;
;Samuel Merritt University;Oakland;California;37.7904;-122.2166;;United States;美國;
;San Diego Christian College;Santee;California;32.8554;-116.9851;;United States;美國;
;San Diego State University;San Diego;California;32.8313;-117.1222;;United States;美國;
;San Francisco Art Institute;San Francisco;California;37.7558;-122.4449;;United States;美國;
;San Francisco Conservatory of Music;San Francisco;California;37.7558;-122.4449;;United States;美國;
舊金山州立大學;San Francisco State University;San Francisco;California;37.7558;-122.4449;;United States;美國;
舊金山神學院;San Francisco Theological Seminary;San Anselmo;California;37.97465;-122.56164;;United States;美國;
;San Joaquin College of Law;Clovis;California;-119.697689327417;36.8246399985437;;United States;美國;
聖何塞州立大學;San José State University;San Jose;California;37.3012;-121.848;;United States;美國;
;Santa Clara University;Santa Clara;California;37.3646;-121.968;;United States;美國;
;Santa Fe College;Gainesville;Florida;29.6804;-82.3459;;United States;美國;
莎拉勞倫斯學院;Sarah Lawrence College;Bronxville;New York;40.9395;-73.8265;;United States;美國;
;Savannah College of Art and Design;Savannah;Georgia;32.0286;-81.1821;;United States;美國;
;Savannah State University;Savannah;Georgia;32.0286;-81.1821;;United States;美國;
;Saybrook University;Pasadena;California;34.1597;-118.139;;United States;美國;
;Scarritt College;Neosho;Missouri;36.8437;-94.3758;;United States;美國;Scarritt College (1878 - 1907) Closed in 1907 There's another college which has the similiar name: Scarritt College for Christian Workers (located in Nashville -  Tennessee Actived from 1892 to 1988 -  and closed in 1988)
;School of Mines and Technology;Rapid City;South Dakota;44.0716;-103.2204;;United States;美國;
;School of Technology at Versailles;Versailles;Indiana;39.0634;-85.2566;;United States;美國;School of Technology at Versailles
芝加哥藝術學院;School of the Art Institute of Chicago;Chicago;Illinois;41.8375;-87.6866;;United States;美國;
;School of Visual Arts;New York City;New York;40.6943;-73.9249;;United States;美國;
;Schreiner University;Kerrville;Texas;30.0398;-99.132;;United States;美國;
;Scripps College;Claremont;California;34.1259;-117.7153;;United States;美國;
;Seattle Central College;Seattle;Washington;47.6211;-122.3244;;United States;美國;
西雅圖工程大學;Seattle College of Engineering;Seattle;Washington;47.6211;-122.3244;;United States;美國;
;Seattle Pacific University;Seattle;Washington;47.6211;-122.3244;;United States;美國;
;Seattle University;Seattle;Washington;47.6211;-122.3244;;United States;美國;
;Seminole State College of Florida;Sanford;Florida;28.7891;-81.2757;;United States;美國;
西頓霍爾大學;Seton Hall University;South Orange;New Jersey;40.74899;-74.26126;;United States;美國;Seton Hall University
;Seton Hill University;Greensburg;Pennsylvania;40.3113;-79.5445;;United States;美國;
;Sewanee: The University of the South;Sewanee;Tennessee;35.1975;-85.9213;;United States;美國;
;Shaw University;Raleigh;North Carolina;35.8324;-78.6429;;United States;美國;
;Shawnee State University;Portsmouth;Ohio;38.7538;-82.9445;;United States;美國;
;Shenandoah University;Winchester;Virginia;39.1735;-78.1746;;United States;美國;
;Shepherd University;Shepherdstown;West Virginia;39.432;-77.8046;;United States;美國;
;Shippensburg University of Pennsylvania;Shippensburg;Pennsylvania;40.0484;-77.5227;;United States;美國;
;Shorter University;Rome;Georgia;34.2662;-85.1863;;United States;美國;
;Siena College;Loudonville;New York;42.7068;-73.7665;;United States;美國;
;Siena Heights University;Adrian;Michigan;41.8994;-84.0447;;United States;美國;
;Sierra Nevada University;Incline Village;Nevada;39.2639;-119.9455;;United States;美國;
西裏亞大學;Sierra Nevada University;Incline Village;Nevada;39.2639;-119.9455;;United States;美國;
;Simmons University;Boston;Massachusetts;42.3188;-71.0852;;United States;美國;
;Simpson College;Indianola;Iowa;41.3629;-93.5652;;United States;美國;
;Simpson University;Redding;California;40.5698;-122.365;;United States;美國;
;SIT Graduate Institute;Brattleboro;Vermont;42.85092;-72.55787;;United States;美國;
;Skidmore College;Saratoga Springs;New York;43.0674;-73.7775;;United States;美國;
;Slippery Rock University of Pennsylvania;Slippery Rock;Pennsylvania;41.0695;-80.058;;United States;美國;
;Smith College;Northampton;Massachusetts;42.3266;-72.6745;;United States;美國;
史密斯學院;Smith College of Women;Northampton;Massachusetts;42.3266;-72.6745;;United States;美國;
;Snow College;Ephraim;Utah;39.3563;-111.5845;;United States;美國;
;Sofia University;Palo Alto;California;37.3905;-122.1468;;United States;美國;
;Soka University of America;Aliso Viejo;California;33.5792;-117.7289;;United States;美國;
;Sonoma State University;Rohnert Park;California;38.3479;-122.6965;;United States;美國;
;South Carolina State University;Orangeburg;South Carolina;33.4928;-80.8671;;United States;美國;
;South College;Knoxville;Tennessee;35.9692;-83.9496;;United States;美國;
;South Dakota Northwest Florida State College;Niceville;Florida;30.529;-86.4748;;United States;美國;
;South Dakota School of Mines and Technology;Rapid City;South Dakota;44.0716;-103.2204;;United States;美國;
;South Dakota State University;Brookings;South Dakota;44.3022;-96.7859;;United States;美國;
;South Georgia State College;Douglas;Georgia;31.5065;-82.8544;;United States;美國;
;South Texas College;McAllen;Texas;26.2252;-98.2467;;United States;美國;
;South Texas College of Law;Houston;Texas;29.786;-95.3885;;United States;美國;
;South University;Savannah;Georgia;32.0286;-81.1821;;United States;美國;
;Southeast Missouri State University;Cape Girardeau;Missouri;37.3109;-89.5597;;United States;美國;
;Southeastern Baptist College;Laurel;Mississippi;31.6956;-89.1449;;United States;美國;
;Southeastern Louisiana University;Hammond;Indiana;41.6168;-87.4909;;United States;美國;
;Southeastern Oklahoma State University;Durant;Oklahoma;33.9949;-96.3923;;United States;美國;
;Southeastern University;Lakeland;Florida;28.0557;-81.9545;;United States;美國;
;Southern Adventist University;Collegedale;Tennessee;35.0526;-85.0488;;United States;美國;
;Southern Arkansas University;Magnolia;Arkansas;33.2775;-93.2261;;United States;美國;
南方浸會神學院;Southern Baptist Theological Seminary;Louisville;Kentucky;38.1663;-85.6485;;United States;美國;这两个是同一个大学 - 不同的中文翻译。
;Southern California Institute of Architecture;Los Angeles;California;34.1141;-118.4068;;United States;美國;
;Southern College of Optometry;Memphis;Tennessee;35.1087;-89.9663;;United States;美國;
;Southern Connecticut State University;New Haven;Connecticut;41.3113;-72.9246;;United States;美國;
;Southern Illinois University;Carbondale;Illinois;37.7221;-89.2237;;United States;美國;
;Southern Illinois University;Edwardsville;Illinois;38.7922;-89.9874;;United States;美國;
;Southern Methodist University;Dallas;Texas;32.7935;-96.7667;;United States;美國;
;Southern Nazarene University;Bethany;West Virginia;40.2053;-80.5629;;United States;美國;
;Southern New Hampshire University;Manchester;New Hampshire;42.9848;-71.4447;;United States;美國;
;Southern Oregon University;Ashland;Virginia;37.7597;-77.4716;;United States;美國;
;Southern University and A&M College;Baton Rouge;Louisiana;30.442;-91.1311;;United States;美國;
;Southern University at New Orleans;New Orleans;Louisiana;30.0687;-89.9288;;United States;美國;
;Southern University Law Center;Baton Rouge;Louisiana;30.442;-91.1311;;United States;美國;
;Southern Utah University;Cedar City;Utah;37.6834;-113.0956;;United States;美國;
;Southern Virginia University;Buena Vista;Virginia;37.7319;-79.3568;;United States;美國;
;Southern Wesleyan University;Central;South Carolina;34.7235;-82.7788;;United States;美國;
;Southwest Baptist University;Bolivar;Missouri;37.6059;-93.4175;;United States;美國;
;Southwest Minnesota State University;Marshall;Minnesota;44.4488;-95.7897;;United States;美國;
西南音樂研究院;Southwest Music Research Institute;San Antonio;Texas;29.4632;-98.5238;;United States;美國;
;Southwestern Adventist University;Keene;New Hampshire;42.9494;-72.2998;;United States;美國;
;Southwestern Assemblies of God University;Waxahachie;Texas;32.4035;-96.8446;;United States;美國;
西南浸會神學院;Southwestern Baptist Theological Seminary;Waco;Texas;31.5599;-97.1882;;United States;美國;
;Southwestern Christian University;Bethany;Oklahoma;35.5071;-97.6418;;United States;美國;
;Southwestern College;Chula Vista;California;32.6281;-117.0144;;United States;美國;
;Southwestern College;Santa Fe;California;37.84233;-122.27255;;United States;美國;
;Southwestern College;Winfield;Kansas;37.274;-96.95;;United States;美國;Southwestern College
;Southwestern Law School;Los Angeles;California;34.1141;-118.4068;;United States;美國;
;Southwestern Oklahoma State University;Weatherford;Oklahoma;35.538;-98.6853;;United States;美國;
西南大學;Southwestern University;Georgetown;Texas;30.666;-97.6966;;United States;美國;
;Spalding University;Louisville;Kentucky;38.1663;-85.6485;;United States;美國;
;Spelman College;Atlanta;Georgia;33.7628;-84.422;;United States;美國;
;Spring Arbor University;Spring Arbor;Michigan;42.2055;-84.5551;;United States;美國;
;Spring Hill College;Mobile;Alabama;30.6782;-88.1162;;United States;美國;
斯普林菲爾德學院;Springfield College;Springfield;Missouri;37.1943;-93.2916;;United States;美國;
春田大學;Springfield College;Springfield;Missouri;37.1943;-93.2916;;United States;美國;
春田學院;Springfield College;Springfield;Missouri;37.1943;-93.2916;;United States;美國;
麻省春田學院;Springfield College of Massachusetts;Springfield;Missouri;37.1943;-93.2916;;United States;美國;
麻省春田高中;Springfield High School;Springfield;Missouri;37.1943;-93.2916;;United States;美國;
;St Andrews University;Laurinburg;North Carolina;34.7602;-79.4773;;United States;美國;
;St John's College;Annapolis;Maryland;38.9706;-76.5047;;United States;美國;
;St Petersburg College;Clearwater;Florida;27.979;-82.7623;;United States;美國;
;St. Ambrose University;Davenport;Iowa;41.5565;-90.6053;;United States;美國;
;St. Bonaventure University;St. Bonaventure;New York;42.0802;-78.4748;;United States;美國;
;St. Catherine University;Saint Paul;Minnesota;44.94441;-93.09327;;United States;美國;
;St. Cloud State University;St. Cloud;Minnesota;45.534;-94.1718;;United States;美國;
;St. Edward's University;Austin;Texas;30.3005;-97.7522;;United States;美國;
;St. Francis College;Brooklyn Heights;New York;40.69538;-73.99375;;United States;美國;
;St. John Fisher University;Rochester;New York;43.168;-77.6162;;United States;美國;
;St. John's University;Queens;New York;40.7498;-73.7976;;United States;美國;
;St. Johns River State College;Palatka;Florida;29.6493;-81.6705;;United States;美國;
;St. Joseph's College;Brooklyn;New York;40.6501;-73.9496;;United States;美國;
聖勞倫斯大學;St. Lawrence University;Canton;New York;44.59562;-75.16909;;United States;美國;
;St. Louis Christian College;Florissant;Missouri;38.7996;-90.3269;;United States;美國;
;St. Mary's College of Maryland;St. Mary's City;Maryland;-76.4702188894308;38.7464400303997;;United States;美國;
聖瑪麗大學;St. Mary's University;San Antonio;Texas;29.4632;-98.5238;;United States;美國;
;St. Norbert College;De Pere;Wisconsin;44.4308;-88.0785;;United States;美國;
;St. Olaf College;Northfield;Minnesota;44.455;-93.1698;;United States;美國;
聖特蕾莎學校;St. Teresa's Academy;Kansas City;Missouri;39.1238;-94.5541;;United States;美國;It's a secondary school for girls
;St. Thomas Aquinas College;Sparkill;New York;41.0289;-73.9333;;United States;美國;
;St. Thomas University;Miami Gardens;Florida;25.9433;-80.2426;;United States;美國;
斯坦福大學;Stanford University;Stanford;California;37.4252;-122.1674;;United States;美國;
;State College of Florida-Manatee-Sarasota;Bradenton;Florida;27.4901;-82.5757;;United States;美國;
紐約州立大學;State University of New York;New York City;New York;40.6943;-73.9249;;United States;美國;
;State University of New York at Fredonia;Fredonia;New York;42.4407;-79.3319;;United States;美國;
;State University of New York at New Paltz;New Paltz;New York;41.74759;-74.08681;;United States;美國;
;State University of New York at Oswego;Oswego;New York;43.4516;-76.5005;;United States;美國;
紐約州立大學石溪分校;State University of New York at Stony Brook;Stony Brook;New York;40.9061;-73.1278;;United States;美國;
;State University of New York College at Plattsburgh;Plattsburgh;New York;44.6951;-73.4563;;United States;美國;
;Stephen F. Austin State University;Nacogdoches;Texas;31.6134;-94.6528;;United States;美國;
;Stephens College;Columbia;South Carolina;34.0378;-80.9036;;United States;美國;
;Sterling College;Sterling;Kansas;38.2094;-98.2064;;United States;美國;
;Sterling College Vermont;Craftsbury Common;Vermont;44.65366;-72.38316;;United States;美國;
;Stetson University;DeLand;Florida;29.0225;-81.2875;;United States;美國;
史蒂文工學院;Steven Institute of Technology;Hoboken;New Jersey;40.7452;-74.0281;;United States;美國;
史蒂文斯理工學院;Stevens Institute of Technology;Hoboken;New Jersey;40.7452;-74.0281;;United States;美國;这两个是同一个大学 - 不同的中文翻译。
斯蒂文斯理工學院;Stevens Institute of Technology;Hoboken;New Jersey;40.7452;-74.0281;;United States;美國;
;Stevenson University;Stevenson;Maryland;39.41038;-76.71303;;United States;美國;
;Stillman College;Tuscaloosa;Alabama;33.2348;-87.5268;;United States;美國;
;Stockton University;Galloway;New Jersey;39.48788;-74.47598;;United States;美國;
;Stonehill College;Easton;Pennsylvania;40.6858;-75.2209;;United States;美國;
石溪大學;Stony Brook University;Stony Brook;New York;40.9061;-73.1278;;United States;美國;
;Strayer University;Washington;District of Columbia;38.9047;-77.0163;;United States;美國;
;Suffolk University;Boston;Massachusetts;42.3188;-71.0852;;United States;美國;
;Sul Ross State University;Alpine;Texas;30.364;-103.665;;United States;美國;
;Sullivan University;Louisville;Kentucky;38.1663;-85.6485;;United States;美國;
;SUNY Canton;Canton;Ohio;40.8078;-81.3676;;United States;美國;
;SUNY Cobleskill;Cobleskill;New York;42.67785;-74.48542;;United States;美國;
;SUNY College at Old Westbury;Old Westbury;New York;40.7866;-73.5975;;United States;美國;
;SUNY College at Oneonta;Oneonta;New York;42.4551;-75.0666;;United States;美國;
;SUNY College of Environmental Science and Forestry;Syracuse;New York;43.0407;-76.1437;;United States;美國;
;SUNY College of Optometry;New York City;New York;40.6943;-73.9249;;United States;美國;
;SUNY Cortland;Cortland;New York;42.6004;-76.1784;;United States;美國;
;SUNY Downstate Medical Center;Brooklyn;New York;40.6501;-73.9496;;United States;美國;
;SUNY Empire State College;Saratoga Springs;New York;43.0674;-73.7775;;United States;美國;
;SUNY Geneseo;Geneseo;New York;42.7959;-77.81695;;United States;美國;
;SUNY Maritime College;Throggs Neck;New York;-73.7903083183364;41.1589129875166;;United States;美國;
;SUNY Polytechnic Institute;Utica;New York;43.0962;-75.2261;;United States;美國;
;SUNY Upstate Medical University;Syracuse;New York;43.0407;-76.1437;;United States;美國;
;Susquehanna University;Selinsgrove;Pennsylvania;40.8003;-76.8646;;United States;美國;
;Swarthmore College;Swarthmore;Pennsylvania;39.9023;-75.3488;;United States;美國;
斯威特布萊爾學院;Sweet Briar College;Sweet Briar;Virginia;37.55292;-79.06641;;United States;美國;Sweet Briar College
塞拉丘斯大學;Syracuse University;Syracuse;New York;43.0407;-76.1437;;United States;美國;与第235行是同一个大学 - 不同的中文翻译。
塞拉庫西大學;Syracuse University;Syracuse;New York;43.0407;-76.1437;;United States;美國;
紐約州賽拉丘斯大學;Syracuse University;Syracuse;New York;43.0407;-76.1437;;United States;美國;
紐約州雪城大學;Syracuse University;Syracuse;New York;43.0407;-76.1437;;United States;美國;
西拉求斯大學;Syracuse University;Syracuse;New York;43.0407;-76.1437;;United States;美國;
雪城大學;Syracuse University;Syracuse;New York;43.0407;-76.1437;;United States;美國;与第184行是同一个大学 - 不同的中文翻译。
;Tabor College;Hillsboro;Oregon;45.5273;-122.936;;United States;美國;
;Talladega College;Talladega;Alabama;33.4333;-86.0986;;United States;美國;
;Tarleton State University;Stephenville;Texas;32.2147;-98.2205;;United States;美國;
泰勒大學;Taylor University;Upland;Indiana;40.4639;-85.5008;;United States;美國;Taylor University
天普大學;Temple University;Philadelphia;Pennsylvania;40.0077;-75.1339;;United States;美國;
伊爾門電腦工程學院;Tennessee State University;Nashville;Tennessee;36.1715;-86.7842;;United States;美國;
田納西州立大學;Tennessee Tech University;Cookeville;Tennessee;36.1482;-85.5109;;United States;美國;
;Tennessee Wesleyan University;Athens;Tennessee;35.4573;-84.6045;;United States;美國;
德克薩斯州農業試驗站;Texas A&M AgriLife Research;College Station;Texas;30.5852;-96.2959;;United States;美國;
;Texas A&M International University;Laredo;Texas;27.5625;-99.4874;;United States;美國;
德克薩斯農工大學;Texas A&M University;College Station;Texas;30.5852;-96.2959;;United States;美國;
;Texas A&M University at Galveston;Galveston;Texas;29.2484;-94.8913;;United States;美國;
;Texas A&M University-Commerce;Commerce;Texas;33.2421;-95.8992;;United States;美國;
;Texas A&M University-Corpus Christi;Corpus Christi;Texas;27.7254;-97.3767;;United States;美國;
;Texas A&M University-Kingsville;Kingsville;Texas;27.5094;-97.861;;United States;美國;
;Texas A&M University-San Antonio;San Antonio;Texas;29.4632;-98.5238;;United States;美國;
;Texas A&M University-Texarkana;Texarkana;Texas;33.42513;-94.04769;;United States;美國;
;Texas Christian University;Fort Worth;Texas;32.7817;-97.3474;;United States;美國;
;Texas College;Tyler;Texas;32.3184;-95.3062;;United States;美國;
;Texas Lutheran University;Seguin;Texas;29.5891;-97.9676;;United States;美國;
;Texas Southern University;Houston;Texas;29.786;-95.3885;;United States;美國;
得克薩斯州立農工學院;Texas State A&M College;College Station;Texas;30.5852;-96.2959;;United States;美國;
德克薩斯州立大學;Texas State A&M College;College Station;Texas;30.5852;-96.2959;;United States;美國;
;Texas State University;San Marcos;Texas;29.8734;-97.9356;;United States;美國;
德克薩斯州立大學;Texas Tech University;Lubbock;Texas;33.5657;-101.8879;;United States;美國;
;Texas Tech University Health Sciences Center;Lubbock;Texas;33.5657;-101.8879;;United States;美國;
;Texas Wesleyan University;Fort Worth;Texas;32.7817;-97.3474;;United States;美國;
;Texas Woman's University;Denton;Texas;33.2175;-97.1418;;United States;美國;
;The American College of Financial Services;Bryn Mawr;Pennsylvania;40.0208;-75.3161;;United States;美國;
;The Baptist College of Florida;Graceville;Florida;30.9609;-85.5123;;United States;美國;
;The Catholic University of America;Washington;District of Columbia;38.9047;-77.0163;;United States;美國;
;The Chicago School of Professional Psychology;Los Angeles;California;34.1141;-118.4068;;United States;美國;
;The Citadel;Charleston;South Carolina;32.8168;-79.9687;;United States;美國;
;The Citadel The Military College of South Carolina;Charleston;South Carolina;32.8168;-79.9687;;United States;美國;
南加州要塞軍事學院;The Citadel, The Military College of South Carolina;Charleston;South Carolina;32.8168;-79.9687;;United States;美國;"与第185行的""""塞特多大學"""" - 应属于同一个学校 - 不同的中文翻译。南加州的中文是指south California - 但是查询不到相关学校。我觉得应该是翻译错误：不是南加州(California) - 而是南卡州(Carolina)。如果是南卡州（south Carolina）的话 - 就找到相关学校了。美国有6所public senior military college - 这是其中之一。"
塞特多大學;The Citadel, The Military College of South Carolina;Charleston;South Carolina;32.8168;-79.9687;;United States;美國;"与第167行的""""南加州要塞軍事學院"""" - 应属于同一个学校 - 不同的中文翻译。"
;The City College of New York;New York City;New York;40.6943;-73.9249;;United States;美國;
;The College at Brockport;Brockport;New York;43.2137;-77.9404;;United States;美國;
;The College of Idaho;Caldwell;New Jersey;40.8389;-74.2776;;United States;美國;
;The College of New Jersey;Ewing;New Jersey;40.26508;-74.8006;;United States;美國;
;The College of Saint Rose;Albany;New York;42.6664;-73.7987;;United States;美國;
;The College of St. Scholastica;Duluth;Minnesota;46.7756;-92.1393;;United States;美國;
;The College of Westchester;White Plains;New York;41.022;-73.7547;;United States;美國;
;The College of Wooster;Wooster;Ohio;40.8172;-81.9336;;United States;美國;
;The Cooper Union for the Advancement of Science and Art;New York City;New York;40.6943;-73.9249;;United States;美國;
;The Culinary Institute of America;Hyde Park;Utah;41.8008;-111.8121;;United States;美國;
;The Evergreen State College;Olympia;Washington;47.0417;-122.8959;;United States;美國;
福塞斯研究所;The Forsyth Institute;Cambridge;Massachusetts;42.3759;-71.1185;;United States;美國;
喬治華盛頓大學;The George Washington University;Washington;District of Columbia;38.9047;-77.0163;;United States;美國;
;The Graduate Center;New York City;New York;40.6943;-73.9249;;United States;美國;
;The Institute of World Politics;Washington;District of Columbia;38.9047;-77.0163;;United States;美國;
;The Juilliard School;New York City;New York;40.6943;-73.9249;;United States;美國;
;The King's College;New York City;New York;40.6943;-73.9249;;United States;美國;
;The King's University;Southlake;Texas;32.9545;-97.1503;;United States;美國;
;The Master's University;Santa Clarita;California;34.4175;-118.4964;;United States;美國;
;The New School;New York City;New York;40.6943;-73.9249;;United States;美國;
紐約社會研究新學院;The New School for Social Research;New York;New York;40.6943;-73.9249;;United States;美國;The New School For Social Research (1919–1997) -  New School University (1997–2005) -  The New School (2005 - present)
;The Ohio State University;Columbus;Ohio;39.9862;-82.9855;;United States;美國;
洛克菲勒醫學研究所;The Rockefeller University;New York City;New York;40.6943;-73.9249;;United States;美國;
;The Sage Colleges;Troy;New York;42.7354;-73.6751;;United States;美國;
;The School of Architecture;Paradise Valley;Arizona;-111.943188736626;33.5336983804274;;United States;美國;
;The State University of New York at Potsdam;Potsdam;New York;44.66978;-74.98131;;United States;美國;
;The University of Alabama;Tuscaloosa;Alabama;33.2348;-87.5268;;United States;美國;
;The University of Alabama in Huntsville;Huntsville;Alabama;34.6981;-86.6412;;United States;美國;
;The University of Arizona;Tucson;Arizona;32.1541;-110.8787;;United States;美國;
;The University of Maine;Orono;Maine;44.88312;-68.67198;;United States;美國;
;The University of Memphis;Memphis;Tennessee;35.1087;-89.9663;;United States;美國;
赫爾大學;The University of Montana;Missoula;Montana;46.8751;-114.0214;;United States;美國;
;The University of Montana Western;Dillon;Montana;45.218;-112.6345;;United States;美國;
;The University of Oklahoma;Norman;Oklahoma;35.2335;-97.3471;;United States;美國;
;The University of Oklahoma Health Sciences Center;Oklahoma City;Oklahoma;35.4676;-97.5136;;United States;美國;
;The University of Tampa;Tampa;Florida;27.9945;-82.4447;;United States;美國;
;The University of Tennessee;Knoxville;Tennessee;35.9692;-83.9496;;United States;美國;
;The University of Tennessee at Chattanooga;Chattanooga;Tennessee;35.066;-85.2481;;United States;美國;
;The University of Tennessee at Martin;Martin;Tennessee;36.3385;-88.8513;;United States;美國;
;The University of Tennessee Health Science Center;Memphis;Tennessee;35.1087;-89.9663;;United States;美國;
;The University of Tennessee Southern;Pulaski;Tennessee;35.1933;-87.035;;United States;美國;
;The University of Texas at Arlington;Arlington;Virginia;38.8786;-77.1011;;United States;美國;
;The University of Texas at Austin;Austin;Texas;30.3005;-97.7522;;United States;美國;
;The University of Texas at Dallas;Richardson;Texas;32.9716;-96.7093;;United States;美國;
;The University of Texas at El Paso;El Paso;Texas;31.8476;-106.43;;United States;美國;
;The University of Texas at San Antonio;San Antonio;Texas;29.4632;-98.5238;;United States;美國;
;The University of Texas at Tyler;Tyler;Texas;32.3184;-95.3062;;United States;美國;
;The University of Texas Health Science Center at Houston;Houston;Texas;29.786;-95.3885;;United States;美國;
;The University of Texas Health Science Center at San Antonio;San Antonio;Texas;29.4632;-98.5238;;United States;美國;
;The University of Texas Health Science Center at Tyler;Tyler;Texas;32.3184;-95.3062;;United States;美國;
;The University of Texas MD Anderson Cancer Center;Houston;Texas;29.786;-95.3885;;United States;美國;
;The University of Texas Medical Branch at Galveston;Galveston;Texas;29.2484;-94.8913;;United States;美國;
;The University of Texas Permian Basin;Odessa;Texas;31.8801;-102.3448;;United States;美國;
德克薩斯大學;The University of Texas System;Austin;Texas;30.3005;-97.7522;;United States;美國;
;The University of the Arts;Philadelphia;Pennsylvania;40.0077;-75.1339;;United States;美國;
;The University of Tulsa;Tulsa;Oklahoma;36.1283;-95.9042;;United States;美國;
;The University of Utah;Salt Lake City;Utah;40.7776;-111.9311;;United States;美國;
佛蒙特大學;The University of Vermont;Burlington;Vermont;44.4876;-73.2316;;United States;美國;University of Nevada (1906–1969) -  University of Nevada -  Reno (1969 - present)
;The University of Virginia's College at Wise;Wise;Virginia;36.9767;-82.5809;;United States;美國;
;The University of West Alabama;Livingston;Alabama;32.5982;-88.1891;;United States;美國;
;The University of West Los Angeles;Inglewood;California;33.9566;-118.3444;;United States;美國;
;The Wright Institute;Berkeley;California;37.8722;-122.276;;United States;美國;
;Thiel College;Greenville;North Carolina;35.5943;-77.376;;United States;美國;
;Thomas Aquinas College;Santa Paula;California;34.3545;-119.0656;;United States;美國;
;Thomas College;Waterville;Maine;44.5441;-69.6624;;United States;美國;
;Thomas Edison State University;Trenton;New Jersey;40.2237;-74.7641;;United States;美國;
;Thomas Jefferson School of Law;San Diego;California;32.8313;-117.1222;;United States;美國;
托馬斯傑斐遜大學;Thomas Jefferson University;Philadelphia;Pennsylvania;40.0077;-75.1339;;United States;美國;
;Thomas More College of Liberal Arts;Merrimack;New Hampshire;42.86509;-71.4934;;United States;美國;
;Thomas More University;Crestview Hills;Kentucky;39.0249;-84.5695;;United States;美國;
;Thomas University;Thomasville;Georgia;30.8394;-83.9782;;United States;美國;
;Tiffin University;Tiffin;Ohio;41.1165;-83.1805;;United States;美國;
;tiol Defense University;Fort Lesley J Mcir;District of Columbia;-77.0138012987798;38.8690043388092;;United States;美國;
;Toccoa Falls College;Toccoa Falls;Georgia;34.59371;-83.35822;;United States;美國;
;Tougaloo College;Tougaloo;Mississippi;32.39764;-90.15898;;United States;美國;
;Touro College;New York City;New York;40.6943;-73.9249;;United States;美國;
;Touro University California;Vallejo;California;38.1125;-122.2342;;United States;美國;
;Towson University;Towson;Maryland;39.3944;-76.619;;United States;美國;
;Transylvania University;Lexington;Kentucky;38.0423;-84.4587;;United States;美國;
;Trevecca Nazarene University;Nashville;Tennessee;36.1715;-86.7842;;United States;美國;
;Tri-State Bible College;South Point;Ohio;38.4214;-82.5784;;United States;美國;
;Tri-State College;Angola;Indiana;41.6433;-85.005;;United States;美國;Tri-State College (1906–1975) -  Tri-State University (1975–2008) -  Trine University (2008 - present) Tri-Stata College可能是拼写错误 - 应该是Tri-State。
;Trine University;Angola;Indiana;41.6433;-85.005;;United States;美國;
;Trinity Bible College;Ellendale;North Dakota;46.0043;-98.5254;;United States;美國;
;Trinity Christian College;Palos Heights;Illinois;41.6637;-87.7958;;United States;美國;
;Trinity College;Hartford;Connecticut;41.7661;-72.6834;;United States;美國;
;Trinity College of Florida;Trinity;Texas;30.9445;-95.3736;;United States;美國;
;Trinity College of Nursing & Health Sciences;Rock Island;Illinois;41.4699;-90.5827;;United States;美國;
;Trinity International University;Deerfield;Illinois;42.1654;-87.8516;;United States;美國;
;Trinity University;San Antonio;Texas;29.4632;-98.5238;;United States;美國;
;Trinity Washington University;Washington;District of Columbia;38.9047;-77.0163;;United States;美國;
;Trocaire College;Buffalo;New York;42.9018;-78.8487;;United States;美國;
;Troy University;Troy;Alabama;31.8021;-85.9664;;United States;美國;
;Truett McConnell University;Cleveland;Ohio;41.4764;-81.6805;;United States;美國;
;Truman State University;Kirksville;Missouri;40.1986;-92.5752;;United States;美國;
塔夫脫大學;Tufts University;Medford;Massachusetts;42.4234;-71.1087;;United States;美國;
塔夫茨大學;Tufts University;Medford;Massachusetts;42.4234;-71.1087;;United States;美國;
新奧爾良城吐蘭大學;Tulane University;New Orleans;Louisiana;30.0687;-89.9288;;United States;美國;
杜蘭大學;Tulane University;New Orleans;Louisiana;30.0687;-89.9288;;United States;美國;
圖蘭大學;Tulane University of Louisiana;New Orleans;Louisiana;30.0687;-89.9288;;United States;美國;
;Tusculum University;Greeneville;Tennessee;36.168;-82.8197;;United States;美國;
;Tuskegee University;Tuskegee;Alabama;32.4409;-85.7131;;United States;美國;
美國陸軍指揮參謀大學;U.S. Army Command and Staff University;Fort Leavenworth;Kansas;39.35684;-94.91529;;United States;美國;
美國陸軍大學;U.S. Army University;Carlisle Barracks;Pennsylvania;40.2101;-77.173;;United States;美國;
美國關港戰術研究班;U.S. Customs Tactics Research Class;Harpers Ferry;West Virginia;39.3252;-77.741;;United States;美國;
;U.S. Naval Academy;Annapolis;Maryland;38.9706;-76.5047;;United States;美國;
;Uniformed Services University of the Health Sciences;Bethesda;Maryland;38.9866;-77.1188;;United States;美國;
;Union College;Barbourville;Kentucky;-83.8883515933723;36.8716480037936;;United States;美國;
;Union College;Lincoln;Nebraska;40.83278;-96.6864;;United States;美國;
聯合學院;Union College;Schenectady;New York;42.8025;-73.9275;;United States;美國;
;Union College;Schenectady;New York;42.8025;-73.9275;;United States;美國;
;Union Institute & University;Cincinnati;Ohio;39.1413;-84.506;;United States;美國;
;Union University;Jackson;Mississippi;32.3157;-90.2125;;United States;美國;
空軍機械學院;United States Air Force Academy;Colorado Springs;Colorado;38.8674;-104.7605;;United States;美國;
;United States Air Force Academy;Colorado Springs;Colorado;38.8674;-104.7605;;United States;美國;
;United States Coast Guard Academy;New London;Connecticut;41.3502;-72.1022;;United States;美國;
聯邦地質調查所;United States Geological Survey;Reston;Virginia;38.9497;-77.3461;;United States;美國;
;United States Merchant Marine Academy;Kings Point;New York;40.8161;-73.7405;;United States;美國;
;United States Military Academy;West Point;New York;41.3645;-74.0123;;United States;美國;
美國海軍學校;United States Naval Academy;Annapolis;Maryland;38.9706;-76.5047;;United States;美國;
美國海軍研究院;United States Naval Academy;Annapolis;Maryland;38.9706;-76.5047;;United States;美國;
墾務局;United States Reclamation Service/ Bureau of Reclamation;Washington;District of Columbia;38.9047;-77.0163;;United States;美國;
;United States Sports Academy;Daphne;Alabama;30.6263;-87.8816;;United States;美國;
;United States University;San Diego;California;32.8313;-117.1222;;United States;美國;
;Unity College;Unity;Maine;44.61118;-69.33449;;United States;美國;
;University at Albany;Albany;New York;42.6664;-73.7987;;United States;美國;
;University at Buffalo;Buffalo;New York;42.9018;-78.8487;;United States;美國;
布法羅大學;University at Buffalo，the State University of New York;Buffalo;New York;42.9018;-78.8487;;United States;美國;
;University of Advancing Technology;Tempe;Arizona;33.3881;-111.9319;;United States;美國;
;University of Akron;Akron;Ohio;41.0798;-81.5219;;United States;美國;
阿拉巴馬大學;University of Alabama;Tuscaloosa;Alabama;33.2348;-87.5268;;United States;美國;
;University of Alabama at Birmingham;Birmingham;Alabama;33.5279;-86.7971;;United States;美國;
;University of Alaska Anchorage;Anchorage;Alaska;61.1508;-149.1091;;United States;美國;
;University of Alaska Fairbanks;Fairbanks;Alaska;64.8353;-147.6533;;United States;美國;
;University of Alaska Southeast;Juneau;Alaska;58.4546;-134.1739;;United States;美國;
亞利桑那大學;University of Arizona;Tucson;Arizona;32.1541;-110.8787;;United States;美國;
;University of Arkansas;Fayetteville;Arkansas;36.0714;-94.1661;;United States;美國;
;University of Arkansas - Fort Smith;Fort Smith;Arkansas;35.3495;-94.3695;;United States;美國;
;University of Arkansas at Little Rock;Little Rock;Arkansas;34.7256;-92.3577;;United States;美國;
;University of Arkansas at Monticello;Monticello;Arkansas;33.6257;-91.7934;;United States;美國;
;University of Arkansas at Pine Bluff;Pine Bluff;Arkansas;34.2116;-92.0173;;United States;美國;
;University of Arkansas for Medical Sciences;Little Rock;Arkansas;34.7256;-92.3577;;United States;美國;
;University of Baltimore;Baltimore;Maryland;39.3051;-76.6144;;United States;美國;
;University of Bridgeport;Bridgeport;Connecticut;41.1918;-73.1954;;United States;美國;
;University of California;San Diego;California;32.8313;-117.1222;;United States;美國;
;University of California;Irvine;California;33.6772;-117.7738;;United States;美國;
;University of California;Riverside;California;33.9381;-117.3949;;United States;美國;
;University of California;Los Angeles;California;34.1141;-118.4068;;United States;美國;
;University of California;Santa Barbara;California;34.4285;-119.7202;;United States;美國;
;University of California;Santa Cruz;California;36.9789;-122.0346;;United States;美國;
;University of California;Merced;California;37.3057;-120.4779;;United States;美國;
;University of California;San Francisco;California;37.7558;-122.4449;;United States;美國;
加利福尼亞大學;University of California;Berkeley;California;37.8722;-122.276;;United States;美國;
加利福尼亞州立大學;University of California;Berkeley;California;37.8722;-122.276;;United States;美國;
加州大學;University of California;Berkeley;California;37.8722;-122.276;;United States;美國;
;University of California;Davis;California;38.5553;-121.737;;United States;美國;
加利福尼亞大學伯克萊分校;University of California (Berkeley);Berkeley;California;37.8722;-122.276;;United States;美國;
;University of California (Davis);Davis;California;38.5553;-121.737;;United States;美國;
加利福尼亞大學伯克萊分校;University of California Berkeley;Berkeley;California;37.8722;-122.276;;United States;美國;
加州大學伯克利分校;University of California Berkeley;Berkeley;California;37.8722;-122.276;;United States;美國;
加州大學伯克萊分校;University of California Berkeley;Berkeley;California;37.8722;-122.276;;United States;美國;
加州柏克萊大學;University of California Berkeley;Berkeley;California;37.8722;-122.276;;United States;美國;
柏克萊分校;University of California Berkeley;Berkeley;California;37.8722;-122.276;;United States;美國;
柏克萊加州大學;University of California Berkeley;Berkeley;California;37.8722;-122.276;;United States;美國;
加州大學神經病研究所;University of California Institute of Neurology;San Francisco;California;37.7558;-122.4449;;United States;美國;
加州大學舊金山分校;University of California, San Francisco;San Francisco;California;37.7558;-122.4449;;United States;美國;
;University of Central Arkansas;Conway;Arkansas;35.0753;-92.4692;;United States;美國;
;University of Central Florida;Orlando;Florida;28.4773;-81.337;;United States;美國;
;University of Central Missouri;Warrensburg;Missouri;38.7627;-93.726;;United States;美國;
;University of Central Oklahoma;Edmond;Oklahoma;35.6689;-97.416;;United States;美國;
芝加哥大學;University of Chicago;Chicago;Illinois;41.8375;-87.6866;;United States;美國;
辛辛那提大學;University of Cincinnati;Cincinnati;Ohio;39.1413;-84.506;;United States;美國;
克利弗蘭大學;University of Cleveland;Cleveland;Ohio;41.4764;-81.6805;;United States;美國;
科羅拉多大學;University of Colorado;Boulder;Colorado;40.0248;-105.2524;;United States;美國;
;University of Colorado Colorado Springs;Colorado Springs;Colorado;38.8674;-104.7605;;United States;美國;
;University of Colorado Denver;Denver;Colorado;39.762;-104.8758;;United States;美國;
康涅狄格大學;University of Connecticut;Storrs;Connecticut;41.8083;-72.2514;;United States;美國;
;University of Dallas;Irving;Texas;32.8583;-96.9702;;United States;美國;
;University of Dayton;Dayton;Ohio;39.7805;-84.2003;;United States;美國;
特拉華大學研究生院;University of Delaware;Newark;New Jersey;40.7245;-74.1725;;United States;美國;
丹佛大學;University of Denver;Denver;Colorado;39.762;-104.8758;;United States;美國;
底特律大學;University of Detroit Mercy;Detroit;Michigan;42.3834;-83.1024;;United States;美國;
迪比克大學;University of Dubuque;Dubuque;Iowa;42.5002;-90.707;;United States;美國;
第比大學;University of Dubuque;Dubuque;Iowa;42.5002;-90.707;;United States;美國;
;University of Evansville;Evansville;Indiana;37.9881;-87.5341;;United States;美國;
;University of Findlay;Findlay;Ohio;41.0469;-83.6379;;United States;美國;
佛羅裏達大學;University of Florida;Gainesville;Florida;29.6804;-82.3459;;United States;美國;
佐治亞大學;University of Georgia;Athens;Tennessee;35.4573;-84.6045;;United States;美國;
喬治亞大學;University of Georgia;Athens;Tennessee;35.4573;-84.6045;;United States;美國;
;University of Hartford;West Hartford;Connecticut;41.76204;-72.74204;;United States;美國;
夏威夷大學;University of Hawaii;Honolulu;Hawaii;21.3294;-157.846;;United States;美國;
;University of Hawaii at Hilo;Hilo;Hawaii;19.6883;-155.0863;;United States;美國;
;University of Hawaii at Manoa;Honolulu;Hawaii;21.3294;-157.846;;United States;美國;
;University of Hawaii-West Oahu;Kapolei;Hawaii;21.3399;-158.0677;;United States;美國;
;University of Health Sciences and Pharmacy in St. Louis;St. Louis;Missouri;38.6359;-90.2451;;United States;美國;
;University of Holy Cross;New Orleans;Louisiana;30.0687;-89.9288;;United States;美國;
休斯頓大學;University of Houston;Houston;Texas;29.786;-95.3885;;United States;美國;University of Houston–University Park (1983–1991) -   University of Houston (1991 - present)
;University of Houston-Clear Lake;Houston;Texas;29.786;-95.3885;;United States;美國;
;University of Houston-Downtown;Houston;Texas;29.786;-95.3885;;United States;美國;
;University of Houston-Victoria;Victoria;Texas;28.8287;-96.9849;;United States;美國;
;University of Idaho;Moscow;Idaho;46.7308;-116.9986;;United States;美國;
伊利諾大學;University of Illinois;Chicago;Illinois;41.8375;-87.6866;;United States;美國;
;University of Illinois at Chicago;Chicago;Illinois;41.8375;-87.6866;;United States;美國;
;University of Illinois at Springfield;Springfield;Missouri;37.1943;-93.2916;;United States;美國;
;University of Illinois at Urbana-Champaign;Champaign;Illinois;40.1142;-88.2737;;United States;美國;
;University of Indianapolis;Indianapolis;Indiana;39.7771;-86.1458;;United States;美國;
依阿華大學;University of Iowa;Iowa City;Iowa;41.6559;-91.5303;;United States;美國;
愛荷華大學;University of Jamestown;Jamestown;North Dakota;46.9063;-98.6937;;United States;美國;
;University of Kansas;Lawrence;Kansas;38.9597;-95.2642;;United States;美國;
堪薩斯大學;University of Kansas Wichita;Wichita;Kansas;37.6895;-97.3443;;United States;美國;
肯塔基大學;University of Kentucky;Lexington;Kentucky;38.0423;-84.4587;;United States;美國;
堪薩斯偉其塔大學;University of La Verne;La Verne;California;34.1207;-117.7703;;United States;美國;
;University of Los Angeles;Los Angeles;California;34.1141;-118.4068;;United States;美國;
;University of Louisiana;Lafayette;Louisiana;30.2082;-92.0325;;United States;美國;
;University of Louisiana at Lafayette;Lafayette;Louisiana;30.2082;-92.0325;;United States;美國;
洛杉矶大學;University of Louisiana at Monroe;Monroe;Louisiana;32.5185;-92.0774;;United States;美國;
;University of Louisville;Louisville;Kentucky;38.1663;-85.6485;;United States;美國;
路易維爾大學;University of Lynchburg;Lynchburg;Virginia;37.4003;-79.1909;;United States;美國;
緬因大學;University of Maine;Orono;Maine;44.88312;-68.67198;;United States;美國;
;University of Maine at Augusta;Augusta;Georgia;33.3645;-82.0708;;United States;美國;
;University of Maine at Farmington;Farmington;Maine;44.67062;-70.15117;;United States;美國;
;University of Maine at Fort Kent;Fort Kent;Maine;47.25865;-68.58949;;United States;美國;
;University of Maine at Machias;Machias;Maine;44.71508;-67.46138;;United States;美國;
;University of Maine at Presque Isle;Presque Isle;Maine;46.6868;-67.9874;;United States;美國;
;University of Mary;Bismarck;North Dakota;46.8143;-100.7694;;United States;美國;
;University of Mary Hardin-Baylor;Belton;Texas;31.0525;-97.479;;United States;美國;
;University of Mary Washington;Fredericksburg;Virginia;38.2992;-77.4872;;United States;美國;
;University of Maryland;College Park;Maryland;38.996;-76.9337;;United States;美國;
馬裏蘭大學;University of Maryland;Baltimore;Maryland;39.3051;-76.6144;;United States;美國;
;University of Maryland Eastern Shore;Princess Anne;Maryland;38.2054;-75.697;;United States;美國;
;University of Massachusetts;Boston;Massachusetts;42.3188;-71.0852;;United States;美國;
馬薩諸塞大學;University of Massachusetts;Amherst;Massachusetts;42.36723;-72.51852;;United States;美國;It's a  five-campus public university system -  and the system administration is in Boston and Shrewsbury
;University of Massachusetts Amherst;Amherst;Massachusetts;42.36723;-72.51852;;United States;美國;
;University of Massachusetts Dartmouth;North Dartmouth;Massachusetts;41.63899;-70.97032;;United States;美國;
;University of Massachusetts Global;Irvine;California;33.6772;-117.7738;;United States;美國;
;University of Massachusetts Lowell;Lowell;Massachusetts;42.6389;-71.3217;;United States;美國;
;University of Massachusetts Medical School;Worcester;Massachusetts;42.2705;-71.8079;;United States;美國;
邁阿密大學;University of Miami;Coral Gables;Florida;25.7037;-80.2715;;United States;美國;
密執安大學;University of Michigan;Ann Arbor;Michigan;42.2759;-83.731;;United States;美國;
密執安大學教育學院;University of Michigan;Ann Arbor;Michigan;42.2759;-83.731;;United States;美國;
密歇根大學;University of Michigan;Ann Arbor;Michigan;42.2759;-83.731;;United States;美國;
密西根大學;University of Michigan;Ann Arbor;Michigan;42.2759;-83.731;;United States;美國;
;University of Michigan-Dearborn;Dearborn;Michigan;42.3127;-83.213;;United States;美國;
;University of Michigan-Flint;Flint;Michigan;43.0236;-83.6921;;United States;美國;
明尼蘇達大學;University of Minnesota;Minneapolis;Minnesota;44.9635;-93.2678;;United States;美國;
;University of Minnesota-Twin Cities;Minneapolis;Minnesota;44.9635;-93.2678;;United States;美國;
密西西比大學;University of Mississipi;Oxford;Mississipi;-89.5385677070479;34.3649524709763;;United States;美國;
;University of Mississippi;University;Mississippi;34.3655;-89.5379;;United States;美國;
;University of Mississippi Medical Center;Jackson;Mississippi;32.3157;-90.2125;;United States;美國;
密蘇裏大學;University of Missouri;Columbia;South Carolina;34.0378;-80.9036;;United States;美國;
密蘇裏大學新聞學院;University of Missouri;Columbia;South Carolina;34.0378;-80.9036;;United States;美國;
密蘇裏大學烏諾那工學院;University of Missouri;Columbia;South Carolina;34.0378;-80.9036;;United States;美國;
密蘇裏大學羅拉分校;University of Missouri;Columbia;South Carolina;34.0378;-80.9036;;United States;美國;
;University of Missouri-Kansas City;Kansas City;Missouri;39.1238;-94.5541;;United States;美國;
;University of Missouri-St. Louis;St. Louis;Missouri;38.6359;-90.2451;;United States;美國;
;University of Mobile;Mobile;Alabama;30.6782;-88.1162;;United States;美國;
;University of Montevallo;Montevallo;Alabama;33.1246;-86.8477;;United States;美國;
;University of Mount Olive;Mount Olive;North Carolina;35.1997;-78.0662;;United States;美國;
;University of Mount Union;Alliance;Ohio;40.9107;-81.1189;;United States;美國;
內布拉斯加大學;University of Nebraska;Lincoln;Nebraska;40.8099;-96.6784;;United States;美國;
;University of Nebraska at Kearney;Kearney;Nebraska;40.7011;-99.0833;;United States;美國;
;University of Nebraska at Omaha;Omaha;Nebraska;41.2627;-96.0529;;United States;美國;
;University of Nebraska Medical Center;Omaha;Nebraska;41.2627;-96.0529;;United States;美國;
尼布拉斯卡大學;University of Nebraska Omaha;Omaha;Nebraska;41.2627;-96.0529;;United States;美國;
;University of Nebraska-Lincoln;Lincoln;Nebraska;40.8099;-96.6784;;United States;美國;
;University of Nevada;Las Vegas;Nevada;36.2333;-115.2654;;United States;美國;
內華達大學;University of Nevada;Reno;Nevada;39.5497;-119.8483;;United States;美國;University of Nevada (1906–1969) -  University of Nevada -  Reno (1969 - present)
;University of New England;Biddeford;Maine;43.4673;-70.4511;;United States;美國;
新罕布什爾大學;University of New Hampshire;Durham;New Hampshire;43.13397;-70.92645;;United States;美國;
;University of New Haven;West Haven;Connecticut;41.2739;-72.9672;;United States;美國;
新墨西哥大學;University of New Mexico;Albuquerque;New Mexico;35.1054;-106.6465;;United States;美國;
;University of New Orleans;New Orleans;Louisiana;30.0687;-89.9288;;United States;美國;
紐約茄彌時大學;University of New York;New York City;New York;40.6943;-73.9249;;United States;美國;
;University of North Alabama;Florence;Alabama;34.8303;-87.6655;;United States;美國;
北卡羅萊納大學;University of North Carolina;Chapel Hill;North Carolina;35.9271;-79.0391;;United States;美國;
;University of North Carolina at Asheville;Asheville;North Carolina;35.5707;-82.5537;;United States;美國;
;University of North Carolina at Chapel Hill;Chapel Hill;North Carolina;35.9271;-79.0391;;United States;美國;
;University of North Carolina at Charlotte;Charlotte;North Carolina;35.2083;-80.8303;;United States;美國;
;University of North Carolina at Greensboro;Greensboro;North Carolina;36.0956;-79.8271;;United States;美國;
;University of North Carolina at Pembroke;Pembroke;North Carolina;34.6766;-79.1935;;United States;美國;
;University of North Carolina School of the Arts;Winston-Salem;North Carolina;36.1029;-80.261;;United States;美國;
;University of North Carolina Wilmington;Wilmington;North Carolina;34.2099;-77.8866;;United States;美國;
北達科他大學;University of North Dakota;Grand Forks;North Dakota;47.9214;-97.0884;;United States;美國;
;University of North Florida;Jacksonville;North Carolina;34.7289;-77.3941;;United States;美國;
;University of North Georgia;Dahlonega;Georgia;34.5311;-83.9804;;United States;美國;
;University of North Texas;Denton;Texas;33.2175;-97.1418;;United States;美國;
;University of North Texas Health Science Center;Fort Worth;Texas;32.7817;-97.3474;;United States;美國;
;University of Northern Colorado;Greeley;Colorado;40.4152;-104.7706;;United States;美國;
;University of Northern Iowa;Cedar Falls;Iowa;42.5195;-92.4536;;United States;美國;
;University of Northwestern - St. Paul;Saint Paul;Minnesota;44.94441;-93.09327;;United States;美國;
;University of Northwestern Ohio;Lima;Ohio;40.741;-84.112;;United States;美國;
歐特丹大學;University of Notre Dame;Notre Dame;Indiana;41.7014;-86.2378;;United States;美國;
聖母大學;University of Notre Dame;Notre Dame;Indiana;41.7014;-86.2378;;United States;美國;
諾脫丹大學;University of Notre Dame;Notre Dame;Indiana;41.7014;-86.2378;;United States;美國;
俄克拉亥馬大學;University of Oklahoma;Norman;Oklahoma;35.2335;-97.3471;;United States;美國;
奧馬哈大學;University of Omaha;Omaha;Nebraska;41.2627;-96.0529;;United States;美國;
俄勒岡大學;University of Oregon;Eugene;Oregon;44.0564;-123.1174;;United States;美國;
奧立根大學;University of Oregon;Eugene;Oregon;44.0564;-123.1174;;United States;美國;
彭省大學;University of Pennsylvania;Philadelphia;Pennsylvania;40.0077;-75.1339;;United States;美國;
費城大學;University of Pennsylvania;Philadelphia;Pennsylvania;40.0077;-75.1339;;United States;美國;
賓夕法尼亞大學;University of Pennsylvania;Philadelphia;Pennsylvania;40.0077;-75.1339;;United States;美國;
賓州大學;University of Pennsylvania;Philadelphia;Pennsylvania;40.0077;-75.1339;;United States;美國;
賓州大學沃登商學院;University of Pennsylvania;Philadelphia;Pennsylvania;40.0077;-75.1339;;United States;美國;
;University of Pikeville;Pikeville;Kentucky;37.4806;-82.5262;;United States;美國;
匹茲堡大學;University of Pittsburgh;Pittsburgh;Pennsylvania;40.4397;-79.9763;;United States;美國;
;University of Portland;Portland;Oregon;45.5371;-122.65;;United States;美國;
;University of Providence;Great Falls;Montana;47.5022;-111.2996;;United States;美國;
;University of Puget Sound;Tacoma;Washington;47.2431;-122.4531;;United States;美國;
;University of Redlands;Redlands;California;34.0512;-117.1712;;United States;美國;
;University of Rhode Island;Kingston;Rhode Island;41.4738;-71.5236;;United States;美國;
裏士滿大學;University of Richmond;Richmond;Virginia;37.5295;-77.4756;;United States;美國;
;University of Rio Grande;Rio Grande;Ohio;38.8797;-82.3791;;United States;美國;
羅切斯特大學;University of Rochester;Rochester;New York;43.168;-77.6162;;United States;美國;
;University of Saint Francis;Fort Wayne;Indiana;41.0888;-85.1436;;United States;美國;
;University of Saint Joseph;West Hartford;Connecticut;41.76204;-72.74204;;United States;美國;
;University of Saint Mary;Leavenworth;Kansas;39.3239;-94.924;;United States;美國;
;University of San Diego;San Diego;California;32.8313;-117.1222;;United States;美國;
舊金山大學;University of San Francisco;San Francisco;California;37.7558;-122.4449;;United States;美國;
;University of Science and Arts of Oklahoma;Chickasha;Oklahoma;35.0409;-97.9474;;United States;美國;
斯克蘭頓大學;University of Scranton;Scranton;Pennsylvania;41.4044;-75.6649;;United States;美國;
;University of Silicon Valley;San Jose;California;37.3012;-121.848;;United States;美國;
;University of Sioux Falls;Sioux Falls;South Dakota;43.5396;-96.7311;;United States;美國;
;University of South Alabama;Mobile;Alabama;30.6782;-88.1162;;United States;美國;
南卡羅來納大學;University of South Carolina;Columbia;South Carolina;34.0378;-80.9036;;United States;美國;Indiana Technical College (1930–1963) -  Indiana Institute of Technology (1963 - present)
;University of South Carolina-Aiken;Aiken;South Carolina;33.5303;-81.7271;;United States;美國;
;University of South Carolina-Beaufort;Bluffton;Ohio;40.8912;-83.8887;;United States;美國;
;University of South Carolina-Upstate;Spartanburg;South Carolina;34.9442;-81.9251;;United States;美國;
;University of South Dakota;Vermillion;South Dakota;42.7811;-96.9256;;United States;美國;
;University of South Florida;Tampa;Florida;27.9945;-82.4447;;United States;美國;
;University of Southern California;Los Angeles;California;34.1141;-118.4068;;United States;美國;
南加州大學;University of Southern Indiana;Evansville;Indiana;37.9881;-87.5341;;United States;美國;
;University of Southern Maine;Portland;Oregon;45.5371;-122.65;;United States;美國;
;University of Southern Mississippi;Hattiesburg;Mississippi;31.3074;-89.317;;United States;美國;
;University of St. Augustine for Health Sciences;San Marcos;Texas;29.8734;-97.9356;;United States;美國;
;University of St. Francis;Joliet;Illinois;41.5188;-88.1499;;United States;美國;
聖托馬斯大學;University of St. Thomas;Saint Paul;Minnesota;44.94441;-93.09327;;United States;美國;
;University of St. Thomas;Houston;Texas;29.786;-95.3885;;United States;美國;
田納西大學;University of Tennessee;Knoxville;Tennessee;35.9692;-83.9496;;United States;美國;
得克薩斯大學;University of Texas;Austin;Texas;30.3005;-97.7522;;United States;美國;
得克薩斯大學奧斯汀分校;University of Texas at Austin;Austin;Texas;30.3005;-97.7522;;United States;美國;
;University of Texas Rio Grande Valley;Edinburg;Texas;26.3196;-98.1597;;United States;美國;
德克薩斯州布魯克醫學中心;University of Texas Southwestern Medical Center;Dallas;Texas;32.7935;-96.7667;;United States;美國;
;University of the Cumberlands;Williamsburg;Kentucky;36.7393;-84.1647;;United States;美國;
;University of the District of Columbia;Washington;District of Columbia;38.9047;-77.0163;;United States;美國;
;University of the Incarnate Word;San Antonio;Texas;29.4632;-98.5238;;United States;美國;
;University of the Ozarks;Clarksville;Tennessee;36.5692;-87.3413;;United States;美國;
;University of the Pacific;Stockton;California;37.9765;-121.3109;;United States;美國;
太平洋大學;University of the Pacific;Sacramento;California;38.5677;-121.4685;;United States;美國;Monson Academy (1804 - 1971) -  then merged into Wilbraham & Monson Academy (1971 - present)
;University of the Potomac;Washington;District of Columbia;38.9047;-77.0163;;United States;美國;
太平洋大學;University of the Southwest;Hobbs;New Mexico;32.7281;-103.16;;United States;美國;
;University of the West;Rosemead;California;34.0689;-118.0823;;United States;美國;
托萊多大學;University of Toledo;Toledo;Ohio;41.6638;-83.5827;;United States;美國;Toledo University (1914–1967) -  University of Toledo (1967 - present)  这两个英文名字 - 都可以翻译成同一个中文名字。
猶他大學;University of Utah;Salt Lake City;Utah;40.7776;-111.9311;;United States;美國;
;University of Valley Forge;Phoenixville;Pennsylvania;40.1359;-75.5201;;United States;美國;
;University of Vermont;Burlington;Vermont;44.4876;-73.2316;;United States;美國;
;University of Virginia;Charlottesville;Virginia;38.0375;-78.4855;;United States;美國;
華盛頓大學;University of Washington;Seattle;Oregon;47.6211;-122.3244;;United States;美國;
華盛頓醫學院;University of Washington School of Medicine;Seattle;Washington;47.6211;-122.3244;;United States;美國;
;University of West Florida;Pensacola;Florida;30.4413;-87.1911;;United States;美國;
弗吉尼亞大學;University of West Georgia;Carrollton;Georgia/Texas;34.9719011514942;-84.9601709129576;;United States;美國;
;University of Western States;Portland;Oregon;45.5371;-122.65;;United States;美國;
;University of Wisconsin;Madison;Wisconsin;43.0822;-89.393;;United States;美國;
麥迪遜學院;University of Wisconsin – Madison;Madison;Wisconsin;43.0822;-89.393;;United States;美國;
威斯康辛大學;University of Wisconsin-Eau Claire;Eau Claire;Wisconsin;44.8197;-91.4948;;United States;美國;
;University of Wisconsin-Green Bay;Green Bay;Wisconsin;44.5148;-87.9895;;United States;美國;
;University of Wisconsin-La Crosse;La Crosse;Wisconsin;43.8241;-91.2268;;United States;美國;
;University of Wisconsin-Madison;Madison;Wisconsin;43.0822;-89.393;;United States;美國;
;University of Wisconsin-Milwaukee;Milwaukee;Wisconsin;43.0642;-87.9675;;United States;美國;
;University of Wisconsin-Oshkosh;Oshkosh;Wisconsin;44.0227;-88.5619;;United States;美國;
;University of Wisconsin-Parkside;Kenosha;Wisconsin;42.5865;-87.8773;;United States;美國;
;University of Wisconsin-Platteville;Platteville;Wisconsin;42.728;-90.4681;;United States;美國;
;University of Wisconsin-River Falls;River Falls;Wisconsin;44.8609;-92.6247;;United States;美國;
;University of Wisconsin-Stevens Point;Stevens Point;Wisconsin;44.5241;-89.5507;;United States;美國;
;University of Wisconsin-Stout;Menomonie;Wisconsin;44.8893;-91.9084;;United States;美國;
;University of Wisconsin-Superior;Superior;Wisconsin;46.6941;-92.0823;;United States;美國;
;University of Wisconsin-Whitewater;Whitewater;Wisconsin;42.8372;-88.7341;;United States;美國;
;University of Wisconsin–Madison;Madison;Wisconsin;43.0822;-89.393;;United States;美國;
;University of Wyoming;Laramie;Wyoming;41.3099;-105.6085;;United States;美國;
;Upper Iowa University;Fayette;Iowa;42.8417;-91.8038;;United States;美國;
;Ursinus College;Collegeville;Pennsylvania;40.1873;-75.4581;;United States;美國;
烏普薩拉大學;Ursuline College;Pepper Pike;Ohio;41.48;-81.462;;United States;美國;
陸軍制圖局;US Army Map Service;Springfield;Virginia;38.8124060806723;-77.1804859229627;;United States;美國;
猶他州立大學;Utah State University;Logan;Utah;41.73549;-111.83439;;United States;美國;
;Utah Tech University;St. George;Utah;37.0758;-113.5752;;United States;美國;
;Utah Valley University;Orem;Utah;40.2981;-111.6994;;United States;美國;
;Utica College;Utica;New York;43.0962;-75.2261;;United States;美國;
;Valdosta State University;Valdosta;Georgia;30.8502;-83.2788;;United States;美國;
;Valencia College;Orlando;Florida;28.4773;-81.337;;United States;美國;
;Valley City State University;Valley City;North Dakota;46.9222;-98.0055;;United States;美國;
;Valparaiso University;Valparaiso;Indiana;41.5371926388093;-87.0667334529605;;United States;美國;
範登堡大學;Vandenberg University;Tulsa;Oklahoma;36.1283;-95.9042;;United States;美國;
田納西州梵德比爾大學;Vanderbilt University;Nashville;Tennessee;36.1715;-86.7842;;United States;美國;
範德堡大學;Vanderbilt University;Nashville;Tennessee;36.1715;-86.7842;;United States;美國;Mills College (1865–2022) -  Mills College at Northeastern University (2022 - present)
範德比爾特大學;Vanderbilt University;Nashville;Tennessee;36.1715;-86.7842;;United States;美國;
;VanderCook College of Music;Chicago;Illinois;41.8375;-87.6866;;United States;美國;
;Vanguard University of Southern California;Costa Mesa;California;33.6667;-117.9135;;United States;美國;
瓦薩學院;Vassar College;Poughkeepsie;New York;41.695;-73.9211;;United States;美國;
;Vaughn College of Aeronautics and Technology;Flushing;Michigan;43.0637;-83.8403;;United States;美國;
;Vermont College of Fine Arts;Montpelier;Vermont;44.2659;-72.5717;;United States;美國;
;Vermont Law School;South Royalton;Vermont;43.8123;-72.5155;;United States;美國;
;Vermont Technical College;Randolph;Vermont;43.92507;-72.66594;;United States;美國;
;Villa Maria College;Buffalo;New York;42.9018;-78.8487;;United States;美國;
;Villanova University;Villanova;Pennsylvania;40.0405;-75.341;;United States;美國;
;Vincennes University;Vincennes;Indiana;38.6759;-87.5102;;United States;美國;
;Virginia Commonwealth University;Richmond;Virginia;37.5295;-77.4756;;United States;美國;
;Virginia Military Academy;Lexington;Virginia;37.7825;-79.4441;;United States;美國;
弗吉尼亞軍事學院;Virginia Military Institute;Lexington;Virginia;37.7825;-79.4441;;United States;美國;
弗吉尼亞軍校;Virginia Military Institute;Lexington;Virginia;40.1644299341741;-80.6005866269878;;United States;美國;
弗吉尼亞理工大學;Virginia Polytechnic Institute and State University;Blacksburg;Virginia;37.23;-80.4279;;United States;美國;
;Virginia State University;Petersburg;Virginia;37.2043;-77.3913;;United States;美國;
弗吉尼亞理工學院;Virginia Tech;Blacksburg;Virginia;37.23;-80.4279;;United States;美國;
;Virginia Union University;Richmond;Virginia;37.5295;-77.4756;;United States;美國;
;Virginia Wesleyan University;Virginia Beach;Virginia;36.7335;-76.0435;;United States;美國;
;Virginia Wesleyan University;Norfolk;Virginia;36.8945;-76.259;;United States;美國;
維泰博大學;Viterbo University;La Crosse;Wisconsin;43.8241;-91.2268;;United States;美國;Viterbo College (1939–2000) -  Viterbo University (2000 - present)
;Voorhees College;Denmark;South Carolina;33.3152;-81.1364;;United States;美國;
;Wabash College;Crawfordsville;Indiana;40.0428;-86.8976;;United States;美國;
;Wade College;Dallas;Texas;32.7935;-96.7667;;United States;美國;
;Wagner College;Staten Island;New York;40.5834;-74.1496;;United States;美國;
;Wake Forest University;Winston-Salem;North Carolina;36.1029;-80.261;;United States;美國;
;Waldorf University;Forest City;Iowa;43.257;-93.6366;;United States;美國;
;Walla Walla University;College Place;Washington;46.0419;-118.3878;;United States;美國;
;Walsh College;Troy;New York;42.7354;-73.6751;;United States;美國;
;Walsh University;North Canton;Ohio;40.8742;-81.3971;;United States;美國;
;Warner Pacific College;Portland;Oregon;45.5371;-122.65;;United States;美國;
;Warner University;Lake Wales;Florida;27.9195;-81.5961;;United States;美國;
;Warren Wilson College;Swannanoa;North Carolina;35.6009;-82.3917;;United States;美國;
;Wartburg College;Waverly;Iowa;42.725;-92.4708;;United States;美國;
;Washburn University;Topeka;Kansas;39.0346;-95.6955;;United States;美國;
華盛頓與傑弗遜學院;Washington & Jefferson College;Washington;District of Columbia;38.9047;-77.0163;;United States;美國;
;Washington Adventist University;Takoma Park;Maryland;38.981;-77.0028;;United States;美國;
華盛頓與李大學;Washington and Lee University;Lexington;Virginia;37.7825;-79.4441;;United States;美國;
華盛頓學院;Washington College;Chestertown;Maryland;39.2182;-76.0714;;United States;美國;
;Washington Medical School;Washington;District of Columbia;38.9047;-77.0163;;United States;美國;
;Washington State College;Pullman;Washington;46.7336;-117.168;;United States;美國;
華盛頓州立大學;Washington State University;Pullman;Washington;46.7336;-117.168;;United States;美國;
;Washington State University;Pullman;Washington;46.7336;-117.168;;United States;美國;
華盛頓州立學院;Washington State University;Spokane;Washington;47.6671;-117.433;;United States;美國;
;Washington University (St Louis);St. Louis;Missouri;38.6359;-90.2451;;United States;美國;
;Washington University in St. Louis;St. Louis;Missouri;38.6359;-90.2451;;United States;美國;
;Watkins College of Art;Nashville;Tennessee;36.1715;-86.7842;;United States;美國;
;Wayland Baptist University;Plainview;Texas;34.1911;-101.7235;;United States;美國;
;Wayne State College;Wayne;Nebraska;42.2379;-97.0101;;United States;美國;
韋恩州立大學;Wayne State University;Detroit;Michigan;42.3834;-83.1024;;United States;美國;
;Waynesburg University;Waynesburg;Pennsylvania;39.8983;-80.1855;;United States;美國;
;Webb Institute;Glen Cove;New York;40.8709;-73.6287;;United States;美國;
;Webber International University;Babson Park;Florida;27.8342;-81.5281;;United States;美國;
;Weber State University;Ogden;Utah;41.2279;-111.9682;;United States;美國;
;Webster University;St. Louis;Missouri;38.6359;-90.2451;;United States;美國;
;Welch College;Gallatin;Tennessee;36.3782;-86.4698;;United States;美國;
;Wellesley College;Wellesley;Massachusetts;42.29649;-71.29256;;United States;美國;
威斯理安女子學院;Wellesley Women's College;Wellesley;Massachusetts;42.29649;-71.29256;;United States;美國;
威斯裏安女子學院;Wellesley Women's College;Wellesley;Massachusetts;42.29649;-71.29256;;United States;美國;
威爾斯利女子大學;Wellesley Women's College;Wellesley;Massachusetts;42.29649;-71.29256;;United States;美國;
衛斯理安學院;Wellesley Women's College;Wellesley;Massachusetts;42.29649;-71.29256;;United States;美國;
麻省衛爾斯利女子學院;Wellesley Women's College of Massachusetts;Wellesley;Massachusetts;42.29649;-71.29256;;United States;美國;
;Wells College;Aurora;Illinois;41.7638;-88.2902;;United States;美國;
;Wentworth Institute of Technology;Boston;Massachusetts;42.3188;-71.0852;;United States;美國;
;Wesleyan College;Macon;Georgia;32.8065;-83.6974;;United States;美國;
;Wesleyan University;Middletown;Connecticut;41.5476;-72.6549;;United States;美國;
;West Chester University of Pennsylvania;West Chester;Pennsylvania;39.9601;-75.6058;;United States;美國;
;West Coast University-Los Angeles;North Hollywood;California;34.17223;-118.37897;;United States;美國;
;West Liberty University;West Liberty;West Virginia;40.1648;-80.5972;;United States;美國;
西點軍校;West Point Military Academy;West Point;New York;41.3645;-74.0123;;United States;美國;
;West Texas A&M University;Canyon;Texas;34.9911;-101.919;;United States;美國;
;West Virginia School of Osteopathic Medicine;Lewisburg;West Virginia;37.8096;-80.4327;;United States;美國;
;West Virginia State University;Institute;West Virginia;38.3797;-81.7662;;United States;美國;
西弗吉尼亞大學;West Virginia University;Morgantown;West Virginia;39.6383;-79.9464;;United States;美國;
;West Virginia University at Parkersburg;Parkersburg;West Virginia;39.2623;-81.542;;United States;美國;
;West Virginia Wesleyan College;Buckhannon;West Virginia;38.9927;-80.2281;;United States;美國;
;Western Carolina University;Cullowhee;North Carolina;35.3097;-83.1816;;United States;美國;
;Western Colorado University;Gunnison;Colorado;38.548;-106.9246;;United States;美國;
;Western Connecticut State University;Danbury;Connecticut;41.4015;-73.4709;;United States;美國;
西方電氣公司;Western Electric Company;New York City;New York;40.6943;-73.9249;;United States;美國;
;Western Illinois University;Macomb;Illinois;40.4709;-90.6807;;United States;美國;
;Western Kentucky University;Bowling Green;Kentucky;36.9716;-86.4378;;United States;美國;
密執安州立西部大學;Western Michigan University;Kalamazoo;Michigan;42.2749;-85.5882;;United States;美國;
;Western Nevada College;Carson City;Nevada;-119.767048014123;39.1726284556187;;United States;美國;
;Western New England University;Springfield;Massachusetts;42.1155;-72.5395;;United States;美國;
;Western New Mexico University;Silver City;New Mexico;32.7783;-108.2699;;United States;美國;
;Western Oregon University;Monmouth;Oregon;44.8505;-123.2284;;United States;美國;
西部儲備大學;Western Reserve University;Cleveland;Ohio;41.4764;-81.6805;;United States;美國;Western Reserve University (1882–1967) -  Case Western Reserve University (1967 - present)
威斯特恩•裏塞夫大學;Western Reserve University;Cleveland;Ohio;41.4764;-81.6805;;United States;美國;
;Western University of Health Sciences;Pomona;California;34.0585;-117.7626;;United States;美國;
;Western Washington University;Bellingham;Washington;48.7548;-122.469;;United States;美國;
;Westfield State University;Westfield;Massachusetts;42.1382;-72.7561;;United States;美國;
;Westminster College;Missouri;Missouri;38.25031;-92.50046;;United States;美國;
;Westminster College;Pennsylvania;Pennsylvania;40.8;-77.7;;United States;美國;
;Westminster College;Salt Lake City;Utah;40.7776;-111.9311;;United States;美國;
;Westmont College;Santa Barbara;California;34.4285;-119.7202;;United States;美國;
韋斯特蒙特學院;Westmont College;Montecito;California;34.4384;-119.6309;;United States;美國;
惠頓學院;Wheaton College;Wheaton;Illinois;41.8561;-88.1085;;United States;美國;Toledo University (1914–1967) -  University of Toledo (1967 - present)  这两个英文名字 - 都可以翻译成同一个中文名字。
惠通大學;Wheaton College;Wheaton;Illinois;41.8561;-88.1085;;United States;美國;
;Wheaton College Massachusetts;Norton;Massachusetts;41.96677;-71.18699;;United States;美國;Wheaton College
;Wheeling University;Wheeling;West Virginia;40.0752;-80.6951;;United States;美國;
惠洛克學院;Wheelock College;Boston;Massachusetts;42.3188;-71.0852;;United States;美國;
惠特曼學院;Whitman College;Walla Walla;Washington;46.0671;-118.3368;;United States;美國;
;Whittier College;Whittier;California;33.9678;-118.0188;;United States;美國;
;Whitworth University;Spokane;Washington;47.6671;-117.433;;United States;美國;
;Wichita State University;Wichita;Kansas;37.6895;-97.3443;;United States;美國;
;Widener University;Chester;Pennsylvania;39.8456;-75.3718;;United States;美國;
;Wilberforce University;Wilberforce;Ohio;39.7151;-83.8847;;United States;美國;
;Wiley College;Marshall;Texas;32.537;-94.3515;;United States;美國;
;Wilkes University;Wilkes-Barre;Pennsylvania;41.2469;-75.876;;United States;美國;
;Willamette University;Salem;Massachusetts;42.5129;-70.9021;;United States;美國;
;William Carey University;Hattiesburg;Mississippi;31.3074;-89.317;;United States;美國;
;William James College;Newton;Massachusetts;42.3316;-71.2085;;United States;美國;
;William Jessup University;Rocklin;California;38.8075;-121.2489;;United States;美國;
;William Jewell College;Liberty;Missouri;39.2394;-94.4191;;United States;美國;
萊斯大學;William Marsh Rice University;Houston;Texas;29.786;-95.3885;;United States;美國;
;William Paterson University;Wayne;Nebraska;42.2379;-97.0101;;United States;美國;
;William Peace University;Raleigh;North Carolina;35.8324;-78.6429;;United States;美國;
;William Penn University;Oskaloosa;Iowa;41.2922;-92.6404;;United States;美國;
;William Woods University;Fulton;Missouri;38.8551;-91.951;;United States;美國;
;Williams Baptist University;Walnut Ridge;Arkansas;36.0848;-90.9467;;United States;美國;
;Williams College;Williamstown;Massachusetts;42.71202;-73.20372;;United States;美國;
;Wilmington College;Wilmington;North Carolina;34.2099;-77.8866;;United States;美國;
;Wilmington University;New Castle;Pennsylvania;40.9956;-80.3458;;United States;美國;
;Wilson College;Chambersburg;Pennsylvania;39.9315;-77.6556;;United States;美國;
;Windett Theological Seminary;Dubuque;Iowa;42.5002;-90.707;;United States;美國;
田納西州溫德提神學院;Windett Theological Seminary;Memphis;Tennessee;35.1087;-89.9663;;United States;美國;
;Wingate University;Wingate;North Carolina;34.9859;-80.448;;United States;美國;
;Winona State University;Winona;Minnesota;44.0505;-91.6684;;United States;美國;
;Winston-Salem State University;Winston-Salem;North Carolina;36.1029;-80.261;;United States;美國;
;Winthrop University;Rock Hill;South Carolina;34.9415;-81.0241;;United States;美國;
;Wisconsin Lutheran College;Milwaukee;Wisconsin;43.0642;-87.9675;;United States;美國;
;Wisconsin School of Professional Psychology;Milwaukee;Wisconsin;43.0642;-87.9675;;United States;美國;
威斯康辛州立大學;Wisconsin State University;Stevens Point;Wisconsin;44.5241;-89.5507;;United States;美國;
;Wittenberg University;Springfield;Missouri;37.1943;-93.2916;;United States;美國;
;Wofford College;Spartanburg;South Carolina;34.9442;-81.9251;;United States;美國;
;WON Institute of Graduate Studies;Glenside;Pennsylvania;40.1032;-75.1517;;United States;美國;
;Woodbury University;Burbank;California;34.1879;-118.3235;;United States;美國;
伍斯特理工學院;Worcester Polytechnic Institute;Worcester;Massachusetts;42.2705;-71.8079;;United States;美國;
伍斯特州立大學;Worcester State University;Worcester;Massachusetts;42.2705;-71.8079;;United States;美國;
萊克明航空發動機制造廠;Wright aero-engine factory;Dayton;Ohio;39.7805;-84.2003;;United States;美國;
萊士特大學;Wright State University;Dayton;Ohio;39.7805;-84.2003;;United States;美國;
;Wright University;Dayton;Ohio;39.7805;-84.2003;;United States;美國;
;Xavier University;Cincinnati;Ohio;39.1413;-84.506;;United States;美國;
;Xavier University of Louisiana;New Orleans;Louisiana;30.0687;-89.9288;;United States;美國;
耶魯大學;Yale University;New Haven;Connecticut;41.3113;-72.9246;;United States;美國;
;Yeshiva University;New York City;New York;40.6943;-73.9249;;United States;美國;
;York College;New York City;New York;40.6943;-73.9249;;United States;美國;
;York College of Pennsylvania;York;Pennsylvania;39.9651;-76.7315;;United States;美國;
;Young Harris College;Young Harris;Georgia;34.9348;-83.8472;;United States;美國;
;Youngstown State University;Youngstown;Ohio;41.0993;-80.6463;;United States;美國;
加州漁業研究所;;;California;;;Jiazhouyuyeyanjiusuo;United States;美國;
佛羅裏達州桐油研究所;;;Florida;;;Fuluolida zhou tongyou yanjiusuo;United States;美國;
堪薩斯州柏克大學;;;Kansas;;;Kansas izhouBoke Daxue;United States;美國;"与第167行的""""""""南加州要塞軍事學院"""""""" - 应属于同一个学校 - 不同的中文翻译。"
麻省安度斯大學;;Andover;Massachusetts;42.65843;-71.137;;United States;美國;
阿靈頓美術學校;;;;;;Alingdun meishu xuexiao;United States;美國;
亞諾爾特商科大學;;;;;;;United States;美國;
奧醫學校;;;;;;Aoyi Xuexiao;United States;美國;
彼諾愛大學;;;;;;Binuoai Daxue;United States;美國;
白洛司白大學;;;;;;Bailuosibai Daxue;United States;美國;
莫裏斯研究所;;;;;;Molisiyanjiusuo;United States;美國;
韋斯德生物研究所;;;;;;Weisideshengwuyanjiusuo;United States;美國;
;;;;;;;United States;美國;